{
  "type": "FeatureCollection",
  "features": [
    {
      "type": "Feature",
      "properties": {},
      "geometry": {
        "type": "Polygon",
        "coordinates": [
          [
            [
              -1.9147856197176307,
              43.29704291858237
            ],
            [
              -1.914878441415575,
              43.297720893518445
            ],
            [
              -1.9147401809692384,
              43.29794504984907
            ],
            [
              -1.9140715599060059,
              43.29802309167277
            ],
            [
              -1.912734317779541,
              43.29802309167277
            ],
            [
              -1.9125147978313235,
              43.297720893518445
            ],
            [
              -1.9126099669989232,
              43.29704291858237
            ],
            [
              -1.8839836120605469,
              43.29704291858237
            ],
            [
              -1.8839836120605469,
              43.33252360690368
            ],
            [
              -1.8944853956882197,
              43.33252360690368
            ],
            [
              -1.8946815490722657,
              43.33195369089763
            ],
            [
              -1.895350170135498,
              43.33191555559745
            ],
            [
              -1.8966874122619628,
              43.33191555559745
            ],
            [
              -1.8969192539320288,
              43.33252360690368
            ],
            [
              -1.9250812322856297,
              43.33252360690368
            ],
            [
              -1.9250812322856297,
              43.33229761525832
            ],
            [
              -1.925438117980957,
              43.331840490984504
            ],
            [
              -1.9267911238899824,
              43.3318456319676
            ],
            [
              -1.9274439811706543,
              43.33220085992911
            ],
            [
              -1.9274904705779081,
              43.33252360690368
            ],
            [
              -2.0177078247070312,
              43.33252360690368
            ],
            [
              -2.0177078247070312,
              43.320138326323516
            ],
            [
              -2.0169283974276273,
              43.32009406640895
            ],
            [
              -2.0163705825805662,
              43.319751496463375
            ],
            [
              -2.0162633012625086,
              43.319416091472874
            ],
            [
              -2.0162633012625086,
              43.31896410818216
            ],
            [
              -2.016445393796211,
              43.3187381165368
            ],
            [
              -2.0170392036437987,
              43.318426716280385
            ],
            [
              -2.0177078247070312,
              43.318426716280385
            ],
            [
              -2.0177078247070312,
              43.306147740397336
            ],
            [
              -2.0163705825805662,
              43.306147740397336
            ],
            [
              -2.015828652837657,
              43.305630601105996
            ],
            [
              -2.015828652837657,
              43.30517861781528
            ],
            [
              -2.0163705825805662,
              43.30466654342011
            ],
            [
              -2.0177078247070312,
              43.30466654342011
            ],
            [
              -2.0177078247070312,
              43.29704291858237
            ],
            [
              -1.9147856197176307,
              43.29704291858237
            ]
          ],
          [
            [
              -2.0116902351379395,
              43.30917069019206
            ],
            [
              -2.012138744206104,
              43.30969845072246
            ],
            [
              -2.012138744206104,
              43.310150434013174
            ],
            [
              -2.011985564546173,
              43.31037642565853
            ],
            [
              -2.0116902351379395,
              43.3106174759447
            ],
            [
              -2.0103529930114745,
              43.3106174759447
            ],
            [
              -2.0097981294856337,
              43.310150434013174
            ],
            [
              -2.009684371948242,
              43.30958226095952
            ],
            [
              -2.00901575088501,
              43.30927223351487
            ],
            [
              -2.008805591512595,
              43.309020475786376
            ],
            [
              -2.008805611367315,
              43.3083425008503
            ],
            [
              -2.00901575088501,
              43.30809077178187
            ],
            [
              -2.0103529930114745,
              43.30809077178187
            ],
            [
              -2.011021614074707,
              43.30825051669186
            ],
            [
              -2.011203069588335,
              43.309020475786376
            ],
            [
              -2.0116902351379395,
              43.30917069019206
            ]
          ],
          [
            [
              -2.011021614074707,
              43.32194184312461
            ],
            [
              -2.0114588169269556,
              43.32235398286254
            ],
            [
              -2.0114384518628667,
              43.32303195779861
            ],
            [
              -2.0112347883809965,
              43.32325794944397
            ],
            [
              -2.011021614074707,
              43.32340993989406
            ],
            [
              -2.009684371948242,
              43.32340993989406
            ],
            [
              -2.008884962365501,
              43.322579974507896
            ],
            [
              -2.0075727688135867,
              43.32190199957182
            ],
            [
              -2.0073996924026445,
              43.321450016281105
            ],
            [
              -2.007678508758545,
              43.32096501430995
            ],
            [
              -2.00901575088501,
              43.320304181889355
            ],
            [
              -2.0103529930114745,
              43.320304181889355
            ],
            [
              -2.0108247166154696,
              43.32077204134503
            ],
            [
              -2.0107454296829608,
              43.321450016281105
            ],
            [
              -2.011021614074707,
              43.32194184312461
            ]
          ],
          [
            [
              -2.0070098876953124,
              43.30441915019907
            ],
            [
              -2.0075359739202963,
              43.30495262616992
            ],
            [
              -2.0075359739202963,
              43.30540460946064
            ],
            [
              -2.0070098876953124,
              43.30591921822565
            ],
            [
              -2.005672645568848,
              43.30591921822565
            ],
            [
              -2.005160977124571,
              43.30540460946064
            ],
            [
              -2.005160977124571,
              43.30495262616992
            ],
            [
              -2.005672645568848,
              43.30441915019907
            ],
            [
              -2.0070098876953124,
              43.30441915019907
            ]
          ],
          [
            [
              -2.00634126663208,
              43.321001027766414
            ],
            [
              -2.006766286821567,
              43.321450016281105
            ],
            [
              -2.006772276352472,
              43.32167600792646
            ],
            [
              -2.006772276352472,
              43.32212799121718
            ],
            [
              -2.00634126663208,
              43.32262616716858
            ],
            [
              -2.0050040245056153,
              43.32262616716858
            ],
            [
              -2.004335403442383,
              43.322341491109185
            ],
            [
              -2.004211252452874,
              43.32212799121718
            ],
            [
              -2.004335403442383,
              43.32132350589034
            ],
            [
              -2.0050040245056153,
              43.321001027766414
            ],
            [
              -2.00634126663208,
              43.321001027766414
            ]
          ],
          [
            [
              -2.0036667823791503,
              43.31372892032024
            ],
            [
              -2.0036667823791503,
              43.31447979696897
            ],
            [
              -2.002998161315918,
              43.314726707114666
            ],
            [
              -2.001660919189453,
              43.314726707114666
            ],
            [
              -2.0009922981262207,
              43.31508986642681
            ],
            [
              -2.000323677062988,
              43.31512318952996
            ],
            [
              -1.9996024040532925,
              43.31557423350178
            ],
            [
              -1.9989864349365234,
              43.31629238140108
            ],
            [
              -1.996980571746826,
              43.31622903554971
            ],
            [
              -1.9966678841554324,
              43.315800225147136
            ],
            [
              -1.9956433296203613,
              43.31540196079553
            ],
            [
              -1.9953836870838484,
              43.31512225021106
            ],
            [
              -1.995361393759319,
              43.31444427527499
            ],
            [
              -1.9956433296203613,
              43.314128179944454
            ],
            [
              -1.996980571746826,
              43.314128179944454
            ],
            [
              -1.9976491928100586,
              43.31442014438192
            ],
            [
              -1.998317813873291,
              43.314029355569055
            ],
            [
              -2.000323677062988,
              43.31348180063189
            ],
            [
              -2.002998161315918,
              43.31348180063189
            ],
            [
              -2.0036667823791503,
              43.31372892032024
            ]
          ],
          [
            [
              -2.002998161315918,
              43.308517478237675
            ],
            [
              -2.0032373757777098,
              43.30879448414102
            ],
            [
              -2.003231092349203,
              43.3094724590771
            ],
            [
              -2.002998161315918,
              43.3097393255259
            ],
            [
              -2.001660919189453,
              43.3097393255259
            ],
            [
              -2.0009547489042503,
              43.3094724590771
            ],
            [
              -2.0009922981262207,
              43.30873229385413
            ],
            [
              -2.001660919189453,
              43.308517478237675
            ],
            [
              -2.002998161315918,
              43.308517478237675
            ]
          ],
          [
            [
              -1.9943060874938965,
              43.32361017081695
            ],
            [
              -1.9947762592847003,
              43.32416191602541
            ],
            [
              -1.9946879879462376,
              43.324839890961485
            ],
            [
              -1.9943060874938965,
              43.32534915401572
            ],
            [
              -1.9923002243041992,
              43.32548093208875
            ],
            [
              -1.9916316032409669,
              43.32495866517305
            ],
            [
              -1.9907071521145183,
              43.324839890961485
            ],
            [
              -1.9902943611145019,
              43.324590816788366
            ],
            [
              -1.9899711014536585,
              43.325969849188276
            ],
            [
              -1.9896257400512696,
              43.32636169310658
            ],
            [
              -1.9882884979248048,
              43.32636169310658
            ],
            [
              -1.9876198768615723,
              43.32597079429954
            ],
            [
              -1.9869512557983398,
              43.32587188379149
            ],
            [
              -1.9862826347351075,
              43.32649548225467
            ],
            [
              -1.9849453926086427,
              43.32649548225467
            ],
            [
              -1.9842767715454102,
              43.326271010741785
            ],
            [
              -1.9840570276599825,
              43.32551786589756
            ],
            [
              -1.9829395294189454,
              43.32498363175895
            ],
            [
              -1.982629462121431,
              43.32416191602541
            ],
            [
              -1.9816022872924806,
              43.32367701942093
            ],
            [
              -1.9802650451660155,
              43.32367701942093
            ],
            [
              -1.9797180323614694,
              43.32325794944397
            ],
            [
              -1.9797180323614694,
              43.322805966153254
            ],
            [
              -1.9797861771588245,
              43.322579974507896
            ],
            [
              -1.9802650451660155,
              43.32224993064652
            ],
            [
              -1.9836081504821776,
              43.32225299125639
            ],
            [
              -1.9841582237335034,
              43.322805966153254
            ],
            [
              -1.984120463872712,
              43.32348394108933
            ],
            [
              -1.9842767715454102,
              43.32358881855547
            ],
            [
              -1.985614013671875,
              43.32347915279303
            ],
            [
              -1.9862826347351075,
              43.32306909600323
            ],
            [
              -1.9876198768615723,
              43.32306909600323
            ],
            [
              -1.9886391984806757,
              43.32393592438005
            ],
            [
              -1.9896257400512696,
              43.3242823670873
            ],
            [
              -1.9897949391246177,
              43.32416191602541
            ],
            [
              -1.9897764210696245,
              43.32393592438005
            ],
            [
              -1.9891130427303563,
              43.32325794944397
            ],
            [
              -1.9891130427303563,
              43.322805966153254
            ],
            [
              -1.989478587496146,
              43.32235398286254
            ],
            [
              -1.9902943611145019,
              43.32211348395102
            ],
            [
              -1.9923002243041992,
              43.32211144230226
            ],
            [
              -1.9929688453674317,
              43.32225226896703
            ],
            [
              -1.993637466430664,
              43.323354820678425
            ],
            [
              -1.9943060874938965,
              43.32361017081695
            ]
          ],
          [
            [
              -1.9923002243041992,
              43.304218504819055
            ],
            [
              -1.9925607258361477,
              43.304500642879205
            ],
            [
              -1.9925788925931107,
              43.30472663452456
            ],
            [
              -1.9925788925931107,
              43.30517861781528
            ],
            [
              -1.9923002243041992,
              43.30549039072082
            ],
            [
              -1.9909629821777344,
              43.30549039072082
            ],
            [
              -1.9902792408024905,
              43.30517861781528
            ],
            [
              -1.9902986939418408,
              43.304500642879205
            ],
            [
              -1.9909629821777344,
              43.304218504819055
            ],
            [
              -1.9923002243041992,
              43.304218504819055
            ]
          ],
          [
            [
              -1.9902943611145019,
              43.314839647949995
            ],
            [
              -1.9902752849614163,
              43.31557423350178
            ],
            [
              -1.9896257400512696,
              43.31602093441381
            ],
            [
              -1.9876198768615723,
              43.316146827746735
            ],
            [
              -1.987267307299196,
              43.315800225147136
            ],
            [
              -1.987256650276512,
              43.31512225021106
            ],
            [
              -1.9876198768615723,
              43.31475791698114
            ],
            [
              -1.9882884979248048,
              43.31453675518489
            ],
            [
              -1.9896257400512696,
              43.31453675518489
            ],
            [
              -1.9902943611145019,
              43.314839647949995
            ]
          ],
          [
            [
              -1.9862826347351075,
              43.320066207910166
            ],
            [
              -1.986728510426262,
              43.32054604969967
            ],
            [
              -1.986728510426262,
              43.32099803299039
            ],
            [
              -1.9862826347351075,
              43.32150116329779
            ],
            [
              -1.9849453926086427,
              43.32150116329779
            ],
            [
              -1.9843702644619912,
              43.32099803299039
            ],
            [
              -1.9843702644619912,
              43.32054604969967
            ],
            [
              -1.9849453926086427,
              43.31996796318718
            ],
            [
              -1.9862826347351075,
              43.320066207910166
            ]
          ],
          [
            [
              -1.985614013671875,
              43.31845846670889
            ],
            [
              -1.9858593593137621,
              43.3187381165368
            ],
            [
              -1.9858576002561703,
              43.319416091472874
            ],
            [
              -1.985614013671875,
              43.31979277737939
            ],
            [
              -1.9842767715454102,
              43.31979277737939
            ],
            [
              -1.9835763882251574,
              43.319416091472874
            ],
            [
              -1.9836081504821776,
              43.318690398931416
            ],
            [
              -1.9842767715454102,
              43.31845846670889
            ],
            [
              -1.985614013671875,
              43.31845846670889
            ]
          ],
          [
            [
              -1.9836081504821776,
              43.31455590773824
            ],
            [
              -1.9841055479332916,
              43.31512225021106
            ],
            [
              -1.9841055479332916,
              43.31557423350178
            ],
            [
              -1.9836081504821776,
              43.31608401871759
            ],
            [
              -1.9829046361699378,
              43.31625220843785
            ],
            [
              -1.9822709083557128,
              43.3166813216498
            ],
            [
              -1.980933666229248,
              43.3166813216498
            ],
            [
              -1.9802606438175716,
              43.31647820008321
            ],
            [
              -1.9801872107857308,
              43.315800225147136
            ],
            [
              -1.9803671499642568,
              43.31557423350178
            ],
            [
              -1.980933666229248,
              43.31523062888274
            ],
            [
              -1.981711226176679,
              43.31512225021106
            ],
            [
              -1.981139703626531,
              43.31444427527499
            ],
            [
              -1.981139703626531,
              43.31399229198427
            ],
            [
              -1.9815619220226675,
              43.313540308693554
            ],
            [
              -1.9829395294189454,
              43.31352054491369
            ],
            [
              -1.983480437385689,
              43.31399229198427
            ],
            [
              -1.9836081504821776,
              43.31455590773824
            ]
          ],
          [
            [
              -1.9836081504821776,
              43.32097679778799
            ],
            [
              -1.9837036482819665,
              43.32099803299039
            ],
            [
              -1.9836310805382256,
              43.321450016281105
            ],
            [
              -1.9829395294189454,
              43.321930272836134
            ],
            [
              -1.9816022872924806,
              43.32192707612088
            ],
            [
              -1.9812542538625506,
              43.321450016281105
            ],
            [
              -1.9812542538625506,
              43.32099803299039
            ],
            [
              -1.9816022872924806,
              43.32059254496713
            ],
            [
              -1.9829395294189454,
              43.32059254496713
            ],
            [
              -1.9836081504821776,
              43.32097679778799
            ]
          ],
          [
            [
              -1.9816022872924806,
              43.311891502121846
            ],
            [
              -1.9817896390213807,
              43.3121843588214
            ],
            [
              -1.9817896390213807,
              43.312636342112114
            ],
            [
              -1.9816022872924806,
              43.312924058093444
            ],
            [
              -1.977590560913086,
              43.31292347295617
            ],
            [
              -1.9769033983290327,
              43.312636342112114
            ],
            [
              -1.9769219398498534,
              43.31192997454397
            ],
            [
              -1.977590560913086,
              43.31166922404164
            ],
            [
              -1.9789278030395507,
              43.31166922404164
            ],
            [
              -1.9795964241027832,
              43.31188572901132
            ],
            [
              -1.9816022872924806,
              43.311891502121846
            ]
          ],
          [
            [
              -1.9816022872924806,
              43.325245869779835
            ],
            [
              -1.9819765462750625,
              43.32574385754292
            ],
            [
              -1.9819765462750625,
              43.326195840833634
            ],
            [
              -1.9818213321410898,
              43.32642183247899
            ],
            [
              -1.9816022872924806,
              43.326610755247984
            ],
            [
              -1.9802650451660155,
              43.326610755247984
            ],
            [
              -1.9796374453669987,
              43.326195840833634
            ],
            [
              -1.979577691265453,
              43.325969849188276
            ],
            [
              -1.9782591819763184,
              43.32570070931684
            ],
            [
              -1.97800856366811,
              43.32551786589756
            ],
            [
              -1.9777850004962025,
              43.3252918742522
            ],
            [
              -1.977765706914397,
              43.32461389931613
            ],
            [
              -1.9782591819763184,
              43.324198561604696
            ],
            [
              -1.9795964241027832,
              43.324198561604696
            ],
            [
              -1.9800427274317787,
              43.32461389931613
            ],
            [
              -1.9802650451660155,
              43.32519378407964
            ],
            [
              -1.9816022872924806,
              43.325245869779835
            ]
          ],
          [
            [
              -1.980933666229248,
              43.30423446635408
            ],
            [
              -1.980933666229248,
              43.30476868260225
            ],
            [
              -1.9802650451660155,
              43.30516849043769
            ],
            [
              -1.9789278030395507,
              43.30516849043769
            ],
            [
              -1.9785688002883306,
              43.30472663452456
            ],
            [
              -1.9785688002883306,
              43.30427465123385
            ],
            [
              -1.9789278030395507,
              43.303841388011435
            ],
            [
              -1.9802650451660155,
              43.303841388011435
            ],
            [
              -1.980933666229248,
              43.30423446635408
            ]
          ],
          [
            [
              -1.9802650451660155,
              43.30672155264222
            ],
            [
              -1.9807074572554142,
              43.30721254262351
            ],
            [
              -1.9807074572554142,
              43.30766452591423
            ],
            [
              -1.9802650451660155,
              43.308149095702575
            ],
            [
              -1.9789278030395507,
              43.308149095702575
            ],
            [
              -1.9783420262309839,
              43.30766452591423
            ],
            [
              -1.9783420262309839,
              43.30721254262351
            ],
            [
              -1.9789278030395507,
              43.30672155264222
            ],
            [
              -1.9802650451660155,
              43.30672155264222
            ]
          ],
          [
            [
              -1.9782591819763184,
              43.3176484755975
            ],
            [
              -1.9786509092151623,
              43.318060141600725
            ],
            [
              -1.9785881164297703,
              43.3187381165368
            ],
            [
              -1.9783772319337254,
              43.31896410818216
            ],
            [
              -1.9785130187368651,
              43.31964208311823
            ],
            [
              -1.9782591819763184,
              43.32004297316471
            ],
            [
              -1.9776197935218387,
              43.32009406640895
            ],
            [
              -1.9782591819763184,
              43.320176825559976
            ],
            [
              -1.9784432337054811,
              43.32077204134503
            ],
            [
              -1.9787631508024455,
              43.32122402463575
            ],
            [
              -1.9787095133336197,
              43.32190199957182
            ],
            [
              -1.9782591819763184,
              43.32227332265211
            ],
            [
              -1.9769219398498534,
              43.32227332265211
            ],
            [
              -1.9762533187866211,
              43.32190244964076
            ],
            [
              -1.9755846977233886,
              43.32216961667065
            ],
            [
              -1.9741961504668748,
              43.32212799121718
            ],
            [
              -1.9739705519463264,
              43.32167600792646
            ],
            [
              -1.9739705519463264,
              43.32122402463575
            ],
            [
              -1.9741431618998067,
              43.32099803299039
            ],
            [
              -1.9749160766601563,
              43.32070427280395
            ],
            [
              -1.9755846977233886,
              43.32070427280395
            ],
            [
              -1.976250983193646,
              43.32009406640895
            ],
            [
              -1.9761525575497376,
              43.319190099827516
            ],
            [
              -1.976435533669901,
              43.31896410818216
            ],
            [
              -1.9763436146916624,
              43.318060141600725
            ],
            [
              -1.9769219398498534,
              43.3176484755975
            ],
            [
              -1.9782591819763184,
              43.3176484755975
            ]
          ],
          [
            [
              -1.9769219398498534,
              43.314960706190064
            ],
            [
              -1.9772657095605213,
              43.31534824185642
            ],
            [
              -1.977191319175753,
              43.316026216792494
            ],
            [
              -1.9774525788250013,
              43.31647820008321
            ],
            [
              -1.9774525788250013,
              43.316930183373934
            ],
            [
              -1.9769219398498534,
              43.31753850674013
            ],
            [
              -1.9755846977233886,
              43.31746191049598
            ],
            [
              -1.975082014320871,
              43.316930183373934
            ],
            [
              -1.9752021172490872,
              43.31625220843785
            ],
            [
              -1.9749208811447596,
              43.315800225147136
            ],
            [
              -1.9749208811447596,
              43.31534824185642
            ],
            [
              -1.9755846977233886,
              43.314960706190064
            ],
            [
              -1.9769219398498534,
              43.314960706190064
            ]
          ],
          [
            [
              -1.9762533187866211,
              43.30049615329325
            ],
            [
              -1.976534377536714,
              43.30088477655347
            ],
            [
              -1.976534377536714,
              43.30133675984418
            ],
            [
              -1.9762533187866211,
              43.30170503798331
            ],
            [
              -1.9755846977233886,
              43.30211451034807
            ],
            [
              -1.9742474555969238,
              43.30211451034807
            ],
            [
              -1.973716678935858,
              43.30156275148954
            ],
            [
              -1.973716678935858,
              43.301110768198825
            ],
            [
              -1.9742474555969238,
              43.30060403269351
            ],
            [
              -1.9762533187866211,
              43.30049615329325
            ]
          ],
          [
            [
              -1.9755846977233886,
              43.30483950321404
            ],
            [
              -1.9757130812025352,
              43.30517861781528
            ],
            [
              -1.9755846977233886,
              43.305814939945854
            ],
            [
              -1.9735788345336913,
              43.30587672624169
            ],
            [
              -1.9733943944199692,
              43.305630601105996
            ],
            [
              -1.9734334083964553,
              43.30495262616992
            ],
            [
              -1.9735788345336913,
              43.30477798582249
            ],
            [
              -1.9755846977233886,
              43.30483950321404
            ]
          ],
          [
            [
              -1.9755846977233886,
              43.31332639636216
            ],
            [
              -1.9761206302587746,
              43.31376630033891
            ],
            [
              -1.9761206302587746,
              43.31421828362963
            ],
            [
              -1.9759022405472575,
              43.314670266920345
            ],
            [
              -1.9755846977233886,
              43.31481740651334
            ],
            [
              -1.9742474555969238,
              43.314776308994205
            ],
            [
              -1.9738735835652326,
              43.31444427527499
            ],
            [
              -1.9738091937704894,
              43.31376630033891
            ],
            [
              -1.9742474555969238,
              43.31332639636216
            ],
            [
              -1.9755846977233886,
              43.31332639636216
            ]
          ],
          [
            [
              -1.9742474555969238,
              43.306689441275104
            ],
            [
              -1.9746502730544295,
              43.30721254262351
            ],
            [
              -1.9746502730544295,
              43.30766452591423
            ],
            [
              -1.9742474555969238,
              43.30809286681347
            ],
            [
              -1.972910213470459,
              43.30809286681347
            ],
            [
              -1.9723176341992847,
              43.30766452591423
            ],
            [
              -1.9723255651449907,
              43.30698655097815
            ],
            [
              -1.972709945520048,
              43.306760559332794
            ],
            [
              -1.9742474555969238,
              43.306689441275104
            ]
          ],
          [
            [
              -1.9715729713439942,
              43.30664479549485
            ],
            [
              -1.9721617012588815,
              43.30698655097815
            ],
            [
              -1.97214656637994,
              43.30766452591423
            ],
            [
              -1.9718199156770155,
              43.307890517559585
            ],
            [
              -1.9702357292175292,
              43.30799155664774
            ],
            [
              -1.969915682611174,
              43.30766452591423
            ],
            [
              -1.9699067806755153,
              43.30698655097815
            ],
            [
              -1.9702357292175292,
              43.30664479549485
            ],
            [
              -1.9715729713439942,
              43.30664479549485
            ]
          ],
          [
            [
              -1.9709043502807617,
              43.3293326751282
            ],
            [
              -1.9710514965062242,
              43.329585715514014
            ],
            [
              -1.9710514965062242,
              43.33003769880473
            ],
            [
              -1.9709043502807617,
              43.33028398709749
            ],
            [
              -1.9688984870910644,
              43.33036830404717
            ],
            [
              -1.9686651607267434,
              43.33003769880473
            ],
            [
              -1.9686651607267434,
              43.329585715514014
            ],
            [
              -1.9688984870910644,
              43.329247615025764
            ],
            [
              -1.9709043502807617,
              43.3293326751282
            ]
          ],
          [
            [
              -1.966892623901367,
              43.32770388536787
            ],
            [
              -1.966892623901367,
              43.328257143100096
            ],
            [
              -1.9662240028381348,
              43.32858508134708
            ],
            [
              -1.96488676071167,
              43.32858508134708
            ],
            [
              -1.9645751896461348,
              43.328229765641865
            ],
            [
              -1.964632462097946,
              43.32755179070579
            ],
            [
              -1.96488676071167,
              43.32729034825007
            ],
            [
              -1.9662240028381348,
              43.32729034825007
            ],
            [
              -1.966892623901367,
              43.32770388536787
            ]
          ],
          [
            [
              -1.9662240028381348,
              43.309070904427
            ],
            [
              -1.9666012083284587,
              43.3094724590771
            ],
            [
              -1.9665402772603373,
              43.310150434013174
            ],
            [
              -1.9662240028381348,
              43.310450696718725
            ],
            [
              -1.96488676071167,
              43.310450696718725
            ],
            [
              -1.9643854346672336,
              43.310150434013174
            ],
            [
              -1.9642935837177353,
              43.3094724590771
            ],
            [
              -1.9645477160674878,
              43.309246467431734
            ],
            [
              -1.96488676071167,
              43.309070904427
            ],
            [
              -1.9662240028381348,
              43.309070904427
            ]
          ],
          [
            [
              -1.9622122764587402,
              43.32144772172631
            ],
            [
              -1.9622832033612916,
              43.32212799121718
            ],
            [
              -1.9619467237476627,
              43.32235398286254
            ],
            [
              -1.9602064132690429,
              43.32246122340091
            ],
            [
              -1.9599359770573024,
              43.32212799121718
            ],
            [
              -1.9599359770573024,
              43.32167600792646
            ],
            [
              -1.9602064132690429,
              43.32123790591776
            ],
            [
              -1.961543655395508,
              43.32123790591776
            ],
            [
              -1.9622122764587402,
              43.32144772172631
            ]
          ],
          [
            [
              -1.9608750343322754,
              43.30856319981043
            ],
            [
              -1.9610303486768972,
              43.30879448414102
            ],
            [
              -1.9608750343322754,
              43.309576379663945
            ],
            [
              -1.958869171142578,
              43.309605281927254
            ],
            [
              -1.9587548263932193,
              43.3094724590771
            ],
            [
              -1.9586864783100504,
              43.30879448414102
            ],
            [
              -1.958869171142578,
              43.308537649546956
            ],
            [
              -1.9608750343322754,
              43.30856319981043
            ]
          ],
          [
            [
              -1.9595377922058106,
              43.329944602506046
            ],
            [
              -1.9595377922058106,
              43.33068419689758
            ],
            [
              -1.958869171142578,
              43.33094143097815
            ],
            [
              -1.9575319290161133,
              43.33094143097815
            ],
            [
              -1.9572490745037678,
              43.33048968209545
            ],
            [
              -1.9572490745037678,
              43.33003769880473
            ],
            [
              -1.9575319290161133,
              43.329695947501065
            ],
            [
              -1.958869171142578,
              43.329695947501065
            ],
            [
              -1.9595377922058106,
              43.329944602506046
            ]
          ],
          [
            [
              -1.9568633079528808,
              43.31299557810981
            ],
            [
              -1.957411442747009,
              43.313314317048196
            ],
            [
              -1.9574536027009901,
              43.31399229198427
            ],
            [
              -1.9571551871875505,
              43.31421828362963
            ],
            [
              -1.9568633079528808,
              43.31435397521167
            ],
            [
              -1.955526065826416,
              43.31435397521167
            ],
            [
              -1.95518016374712,
              43.31399229198427
            ],
            [
              -1.9552060918360588,
              43.313314317048196
            ],
            [
              -1.955526065826416,
              43.31299557810981
            ],
            [
              -1.9568633079528808,
              43.31299557810981
            ]
          ],
          [
            [
              -1.9368046760559081,
              43.3160067799047
            ],
            [
              -1.9370150191104771,
              43.31625220843785
            ],
            [
              -1.9370313461796682,
              43.316930183373934
            ],
            [
              -1.936395668517984,
              43.31738216666465
            ],
            [
              -1.934798812866211,
              43.317470798904786
            ],
            [
              -1.9341523063261623,
              43.316930183373934
            ],
            [
              -1.93423750272464,
              43.31625220843785
            ],
            [
              -1.934798812866211,
              43.31584941071338
            ],
            [
              -1.9361360549926758,
              43.31584941071338
            ],
            [
              -1.9368046760559081,
              43.3160067799047
            ]
          ],
          [
            [
              -1.9361360549926758,
              43.31379078171474
            ],
            [
              -1.93630918338904,
              43.31421828362963
            ],
            [
              -1.93630918338904,
              43.314670266920345
            ],
            [
              -1.9361360549926758,
              43.31489615619697
            ],
            [
              -1.9341301918029785,
              43.314828076972944
            ],
            [
              -1.934014892040495,
              43.314670266920345
            ],
            [
              -1.9341301918029785,
              43.3138566510497
            ],
            [
              -1.9361360549926758,
              43.31379078171474
            ]
          ],
          [
            [
              -1.928781223297119,
              43.31820494969261
            ],
            [
              -1.9290747764293015,
              43.31851212489144
            ],
            [
              -1.9293012637269682,
              43.319190099827516
            ],
            [
              -1.9293012637269682,
              43.31964208311823
            ],
            [
              -1.928781223297119,
              43.320150229453006
            ],
            [
              -1.9274439811706543,
              43.320150229453006
            ],
            [
              -1.9264303480843983,
              43.319416091472874
            ],
            [
              -1.9264326352982297,
              43.3187381165368
            ],
            [
              -1.9267753601074218,
              43.31839331869225
            ],
            [
              -1.9274439811706543,
              43.31820494969261
            ],
            [
              -1.928781223297119,
              43.31820494969261
            ]
          ],
          [
            [
              -1.9267753601074218,
              43.32854616738424
            ],
            [
              -1.9271013487858035,
              43.32890774057794
            ],
            [
              -1.9270511162101358,
              43.329585715514014
            ],
            [
              -1.9267753601074218,
              43.32986460246411
            ],
            [
              -1.925438117980957,
              43.32986460246411
            ],
            [
              -1.9248733539120124,
              43.329585715514014
            ],
            [
              -1.9247764092587984,
              43.32890774057794
            ],
            [
              -1.9249373882927452,
              43.32868174893258
            ],
            [
              -1.925438117980957,
              43.32847969641445
            ],
            [
              -1.9267753601074218,
              43.32854616738424
            ]
          ],
          [
            [
              -1.9261067390441895,
              43.32460541449762
            ],
            [
              -1.9259855823341454,
              43.3252918742522
            ],
            [
              -1.925438117980957,
              43.32555570600743
            ],
            [
              -1.9241008758544922,
              43.32555570600743
            ],
            [
              -1.9237695603170935,
              43.32506588260684
            ],
            [
              -1.9237695603170935,
              43.32461389931613
            ],
            [
              -1.9241008758544922,
              43.32423898681235
            ],
            [
              -1.925438117980957,
              43.32423898681235
            ],
            [
              -1.9261067390441895,
              43.32460541449762
            ]
          ],
          [
            [
              -1.925438117980957,
              43.32742178208575
            ],
            [
              -1.9255372689196888,
              43.32800377399651
            ],
            [
              -1.925438117980957,
              43.32818962899905
            ],
            [
              -1.9247694969177247,
              43.328436099790785
            ],
            [
              -1.9234322547912597,
              43.328422006610445
            ],
            [
              -1.9228422285674587,
              43.328229765641865
            ],
            [
              -1.9228139357554141,
              43.32800377399651
            ],
            [
              -1.9234322547912597,
              43.32719318195834
            ],
            [
              -1.9247694969177247,
              43.32719318195834
            ],
            [
              -1.925438117980957,
              43.32742178208575
            ]
          ],
          [
            [
              -1.9227636337280274,
              43.32536028292696
            ],
            [
              -1.9228688039657842,
              43.32551786589756
            ],
            [
              -1.9227743399231614,
              43.326195840833634
            ],
            [
              -1.9220950126647949,
              43.32647773817676
            ],
            [
              -1.9194205284118653,
              43.32647773817676
            ],
            [
              -1.9187343333200433,
              43.326195840833634
            ],
            [
              -1.9187281416586883,
              43.32551786589756
            ],
            [
              -1.9194205284118653,
              43.32518614700117
            ],
            [
              -1.9220950126647949,
              43.32518614700117
            ],
            [
              -1.9227636337280274,
              43.32536028292696
            ]
          ],
          [
            [
              -1.9220950126647949,
              43.32754192611375
            ],
            [
              -1.92272730712942,
              43.32800377399651
            ],
            [
              -1.92272730712942,
              43.32845575728722
            ],
            [
              -1.9225289135811245,
              43.32868174893258
            ],
            [
              -1.9220950126647949,
              43.32892643050774
            ],
            [
              -1.92075777053833,
              43.32892643050774
            ],
            [
              -1.9204855287529385,
              43.32868174893258
            ],
            [
              -1.9203543379747092,
              43.32800377399651
            ],
            [
              -1.9207433031831378,
              43.32755179070579
            ],
            [
              -1.9220950126647949,
              43.32754192611375
            ]
          ],
          [
            [
              -1.9027050018310547,
              43.31411995065158
            ],
            [
              -1.9031614448957637,
              43.314670266920345
            ],
            [
              -1.9031614448957637,
              43.31512225021106
            ],
            [
              -1.9027050018310547,
              43.31558236516593
            ],
            [
              -1.900030517578125,
              43.31556328591385
            ],
            [
              -1.8993618965148926,
              43.315189352339516
            ],
            [
              -1.8992153005493702,
              43.3148962585657
            ],
            [
              -1.8992153005493702,
              43.31444427527499
            ],
            [
              -1.8993618965148926,
              43.314212880409954
            ],
            [
              -1.900030517578125,
              43.314074286486395
            ],
            [
              -1.9027050018310547,
              43.31411995065158
            ]
          ],
          [
            [
              -1.90136775970459,
              43.310958394053806
            ],
            [
              -1.9019988538429609,
              43.311280392239965
            ],
            [
              -1.902008249214294,
              43.31195836717604
            ],
            [
              -1.9006991386413574,
              43.3131857410632
            ],
            [
              -1.900030517578125,
              43.313579494981305
            ],
            [
              -1.8980246543884278,
              43.3136757996282
            ],
            [
              -1.8966874122619628,
              43.31354032757433
            ],
            [
              -1.8960187911987305,
              43.31313292252993
            ],
            [
              -1.8954210466752737,
              43.312410350466756
            ],
            [
              -1.8955093247923285,
              43.31173237553068
            ],
            [
              -1.8960187911987305,
              43.311385579885425
            ],
            [
              -1.8973560333251953,
              43.311385579885425
            ],
            [
              -1.897548579954686,
              43.311280392239965
            ],
            [
              -1.8978683275390122,
              43.31082840894925
            ],
            [
              -1.8975792914285754,
              43.31037642565853
            ],
            [
              -1.8975192356001167,
              43.30969845072246
            ],
            [
              -1.8980246543884278,
              43.309244092412115
            ],
            [
              -1.8993618965148926,
              43.309244092412115
            ],
            [
              -1.8996644862056467,
              43.3094724590771
            ],
            [
              -1.8998366576958863,
              43.30969845072246
            ],
            [
              -1.8997796952472648,
              43.31037642565853
            ],
            [
              -1.8995705835171595,
              43.31060241730389
            ],
            [
              -1.8996960390902826,
              43.31082840894925
            ],
            [
              -1.900030517578125,
              43.310958394053806
            ],
            [
              -1.90136775970459,
              43.310958394053806
            ]
          ],
          [
            [
              -1.90136775970459,
              43.31691734131983
            ],
            [
              -1.9016995741987994,
              43.31738216666465
            ],
            [
              -1.9016995741987994,
              43.31783414995537
            ],
            [
              -1.90136775970459,
              43.31822346321009
            ],
            [
              -1.900030517578125,
              43.31822346321009
            ],
            [
              -1.8993394561795953,
              43.31783414995537
            ],
            [
              -1.8993618965148926,
              43.31731946010045
            ],
            [
              -1.8999916370359966,
              43.316930183373934
            ],
            [
              -1.90136775970459,
              43.31691734131983
            ]
          ],
          [
            [
              -1.895350170135498,
              43.309361977534266
            ],
            [
              -1.8956068209061572,
              43.30969845072246
            ],
            [
              -1.8956068209061572,
              43.310150434013174
            ],
            [
              -1.895350170135498,
              43.31054196088545
            ],
            [
              -1.8940129280090332,
              43.31054196088545
            ],
            [
              -1.8933353510701276,
              43.31037642565853
            ],
            [
              -1.8932397104793766,
              43.30969845072246
            ],
            [
              -1.8933443069458007,
              43.309522480620345
            ],
            [
              -1.8940129280090332,
              43.309361977534266
            ],
            [
              -1.895350170135498,
              43.309361977534266
            ]
          ],
          [
            [
              -1.8886639595031738,
              43.30823344652723
            ],
            [
              -1.8891707738371686,
              43.30879448414102
            ],
            [
              -1.8891707738371686,
              43.309246467431734
            ],
            [
              -1.8886639595031738,
              43.309739362006596
            ],
            [
              -1.887326717376709,
              43.309739362006596
            ],
            [
              -1.8868149472507751,
              43.309246467431734
            ],
            [
              -1.8869122560707536,
              43.30856849249566
            ],
            [
              -1.887326717376709,
              43.30823344652723
            ],
            [
              -1.8886639595031738,
              43.30823344652723
            ]
          ]
        ]
      }
    }
  ]
}