{
  "type": "FeatureCollection",
  "features": [
    {
      "type": "Feature",
      "properties": {},
      "geometry": {
        "type": "Polygon",
        "coordinates": [
          [
            [
              -1.8839836120605469,
              43.29704291858237
            ],
            [
              -1.8839836120605469,
              43.33252360690368
            ],
            [
              -2.0177078247070312,
              43.33252360690368
            ],
            [
              -2.0177078247070312,
              43.29704291858237
            ],
            [
              -1.8839836120605469,
              43.29704291858237
            ]
          ],
          [
            [
              -2.0150333404541017,
              43.304210965133294
            ],
            [
              -2.0153054466310754,
              43.304500642879205
            ],
            [
              -2.0153054466310754,
              43.30495262616992
            ],
            [
              -2.0150333404541017,
              43.30519770306075
            ],
            [
              -2.0136960983276366,
              43.30519770306075
            ],
            [
              -2.013331461385056,
              43.30495262616992
            ],
            [
              -2.013331461385056,
              43.304500642879205
            ],
            [
              -2.0136960983276366,
              43.304210965133294
            ],
            [
              -2.0150333404541017,
              43.304210965133294
            ]
          ],
          [
            [
              -2.0050040245056153,
              43.298783155131765
            ],
            [
              -2.0052538870165595,
              43.2990768433906
            ],
            [
              -2.0053108452355963,
              43.299980809972034
            ],
            [
              -2.005191809674227,
              43.30020680161739
            ],
            [
              -2.0036667823791503,
              43.30028148691038
            ],
            [
              -2.0029009114730782,
              43.299754818326676
            ],
            [
              -2.002998161315918,
              43.29892671600383
            ],
            [
              -2.0036667823791503,
              43.298783155131765
            ],
            [
              -2.0050040245056153,
              43.298783155131765
            ]
          ],
          [
            [
              -2.002998161315918,
              43.308234159866785
            ],
            [
              -2.002998161315918,
              43.3088380113107
            ],
            [
              -2.0023295402526857,
              43.309121994871944
            ],
            [
              -2.0009922981262207,
              43.309121994871944
            ],
            [
              -2.0007167765227067,
              43.30879448414102
            ],
            [
              -2.0007785958407216,
              43.30811650920494
            ],
            [
              -2.0009922981262207,
              43.30788770110221
            ],
            [
              -2.0023295402526857,
              43.30788770110221
            ],
            [
              -2.002998161315918,
              43.308234159866785
            ]
          ],
          [
            [
              -1.999655055999756,
              43.31430317377755
            ],
            [
              -1.9998466892424096,
              43.314670266920345
            ],
            [
              -1.9998466892424096,
              43.31512225021106
            ],
            [
              -1.999655055999756,
              43.315388351765186
            ],
            [
              -1.9976491928100586,
              43.3153545200804
            ],
            [
              -1.9974938918146046,
              43.31512225021106
            ],
            [
              -1.9976491928100586,
              43.31434133673498
            ],
            [
              -1.999655055999756,
              43.31430317377755
            ]
          ],
          [
            [
              -1.9923002243041992,
              43.304313519669584
            ],
            [
              -1.9925464980036498,
              43.30472663452456
            ],
            [
              -1.9925670723601372,
              43.30540460946064
            ],
            [
              -1.9923002243041992,
              43.30588105527419
            ],
            [
              -1.9916316032409669,
              43.306358254500736
            ],
            [
              -1.9896257400512696,
              43.306448212967126
            ],
            [
              -1.988957118988037,
              43.305963770816604
            ],
            [
              -1.9886104377095861,
              43.30540460946064
            ],
            [
              -1.9887414468497113,
              43.304500642879205
            ],
            [
              -1.9896257400512696,
              43.3038011847071
            ],
            [
              -1.9916316032409669,
              43.30383434474801
            ],
            [
              -1.9923002243041992,
              43.304313519669584
            ]
          ],
          [
            [
              -1.9923002243041992,
              43.3237556925932
            ],
            [
              -1.9927192133530547,
              43.32461389931613
            ],
            [
              -1.9926129221211581,
              43.32551786589756
            ],
            [
              -1.99213013352477,
              43.326195840833634
            ],
            [
              -1.9909629821777344,
              43.32686705110604
            ],
            [
              -1.988957118988037,
              43.32696358239023
            ],
            [
              -1.9882884979248048,
              43.32675615791696
            ],
            [
              -1.9874202304315902,
              43.326195840833634
            ],
            [
              -1.986859822261804,
              43.3252918742522
            ],
            [
              -1.9868883130134711,
              43.32438790767077
            ],
            [
              -1.9872948610513017,
              43.323709932734694
            ],
            [
              -1.9882627389868543,
              43.32303195779861
            ],
            [
              -1.988957118988037,
              43.322812642656885
            ],
            [
              -1.9909629821777344,
              43.322909823338904
            ],
            [
              -1.9916316032409669,
              43.323204306756054
            ],
            [
              -1.9923002243041992,
              43.3237556925932
            ]
          ],
          [
            [
              -1.9862826347351075,
              43.30364715912631
            ],
            [
              -1.9865597296911595,
              43.30404865958849
            ],
            [
              -1.9865597296911595,
              43.304500642879205
            ],
            [
              -1.9862826347351075,
              43.30493439082247
            ],
            [
              -1.9842767715454102,
              43.305047080018284
            ],
            [
              -1.983848647814974,
              43.304500642879205
            ],
            [
              -1.983848647814974,
              43.30404865958849
            ],
            [
              -1.9842767715454102,
              43.303531297717925
            ],
            [
              -1.9862826347351075,
              43.30364715912631
            ]
          ],
          [
            [
              -1.985614013671875,
              43.3010181261836
            ],
            [
              -1.9859061564460794,
              43.30133675984418
            ],
            [
              -1.9858500056456774,
              43.30201473478026
            ],
            [
              -1.985614013671875,
              43.302249876997784
            ],
            [
              -1.9842767715454102,
              43.302249876997784
            ],
            [
              -1.9839084651326415,
              43.30201473478026
            ],
            [
              -1.9838238817394758,
              43.30133675984418
            ],
            [
              -1.9840984563782542,
              43.301110768198825
            ],
            [
              -1.985614013671875,
              43.3010181261836
            ]
          ],
          [
            [
              -1.977590560913086,
              43.31341323347918
            ],
            [
              -1.9776682311213918,
              43.31421828362963
            ],
            [
              -1.9774457372296204,
              43.314670266920345
            ],
            [
              -1.9769219398498534,
              43.315147042109515
            ],
            [
              -1.9762533187866211,
              43.31542923956224
            ],
            [
              -1.9749160766601563,
              43.31542923956224
            ],
            [
              -1.9742474555969238,
              43.31524430049251
            ],
            [
              -1.9735788345336913,
              43.314715802181546
            ],
            [
              -1.9733245989567405,
              43.31421828362963
            ],
            [
              -1.9733479858491443,
              43.313540308693554
            ],
            [
              -1.9736031445606357,
              43.31308832540284
            ],
            [
              -1.9742474555969238,
              43.312591190735134
            ],
            [
              -1.9749160766601563,
              43.31240645866744
            ],
            [
              -1.9762642692921089,
              43.312410350466756
            ],
            [
              -1.9771522910283412,
              43.31286233375747
            ],
            [
              -1.977590560913086,
              43.31341323347918
            ]
          ],
          [
            [
              -1.9642181396484375,
              43.31862613504181
            ],
            [
              -1.9644162093331206,
              43.31896410818216
            ],
            [
              -1.9644162093331206,
              43.319416091472874
            ],
            [
              -1.9642181396484375,
              43.31967957613773
            ],
            [
              -1.9628808975219727,
              43.31967957613773
            ],
            [
              -1.962248300628402,
              43.319416091472874
            ],
            [
              -1.962248300628402,
              43.31896410818216
            ],
            [
              -1.962534131870902,
              43.3187381165368
            ],
            [
              -1.9642181396484375,
              43.31862613504181
            ]
          ],
          [
            [
              -1.9595377922058106,
              43.30458119319876
            ],
            [
              -1.9597883910063492,
              43.30495262616992
            ],
            [
              -1.9597883910063492,
              43.30540460946064
            ],
            [
              -1.9595377922058106,
              43.30572230963476
            ],
            [
              -1.9582005500793458,
              43.30572230963476
            ],
            [
              -1.9575694921936657,
              43.30540460946064
            ],
            [
              -1.9575694921936657,
              43.30495262616992
            ],
            [
              -1.9578297756625227,
              43.30472663452456
            ],
            [
              -1.9582005500793458,
              43.30458119319876
            ],
            [
              -1.9595377922058106,
              43.30458119319876
            ]
          ],
          [
            [
              -1.9595377922058106,
              43.31430835215328
            ],
            [
              -1.9599628434222143,
              43.314670266920345
            ],
            [
              -1.9599887633908595,
              43.3148962585657
            ],
            [
              -1.9599887633908595,
              43.31534824185642
            ],
            [
              -1.9595377922058106,
              43.31575050767665
            ],
            [
              -1.9582005500793458,
              43.31575050767665
            ],
            [
              -1.957766421205414,
              43.31534824185642
            ],
            [
              -1.9577915151678849,
              43.314670266920345
            ],
            [
              -1.9582005500793458,
              43.31430835215328
            ],
            [
              -1.9595377922058106,
              43.31430835215328
            ]
          ],
          [
            [
              -1.9568633079528808,
              43.31572715628031
            ],
            [
              -1.9569811412450147,
              43.315800225147136
            ],
            [
              -1.9568633079528808,
              43.316446316679595
            ],
            [
              -1.955526065826416,
              43.316446316679595
            ],
            [
              -1.955526065826416,
              43.31572715628031
            ],
            [
              -1.9568633079528808,
              43.31572715628031
            ]
          ],
          [
            [
              -1.9541888236999512,
              43.313337569456216
            ],
            [
              -1.9543548103222321,
              43.31376630033891
            ],
            [
              -1.9543548103222321,
              43.31421828362963
            ],
            [
              -1.9541888236999512,
              43.31445255419324
            ],
            [
              -1.9521829605102539,
              43.31457349871306
            ],
            [
              -1.9518729474141734,
              43.31421828362963
            ],
            [
              -1.9518889996257514,
              43.313540308693554
            ],
            [
              -1.9521829605102539,
              43.31321427024043
            ],
            [
              -1.9541888236999512,
              43.313337569456216
            ]
          ],
          [
            [
              -1.9521829605102539,
              43.309550051601796
            ],
            [
              -1.9523624459741644,
              43.309924442367816
            ],
            [
              -1.9523624459741644,
              43.31037642565853
            ],
            [
              -1.9521829605102539,
              43.3106840168899
            ],
            [
              -1.9515143394470216,
              43.31107903465738
            ],
            [
              -1.9501770973205566,
              43.311101769406605
            ],
            [
              -1.9494420503851664,
              43.31037642565853
            ],
            [
              -1.9495130980774549,
              43.30969845072246
            ],
            [
              -1.9501770973205566,
              43.309159594329664
            ],
            [
              -1.9515143394470216,
              43.309159594329664
            ],
            [
              -1.9521829605102539,
              43.309550051601796
            ]
          ],
          [
            [
              -1.9515143394470216,
              43.31506676019276
            ],
            [
              -1.9518974803136144,
              43.31534824185642
            ],
            [
              -1.9521374568509964,
              43.315800225147136
            ],
            [
              -1.9521374568509964,
              43.31625220843785
            ],
            [
              -1.9515143394470216,
              43.31676447743133
            ],
            [
              -1.9501770973205566,
              43.31676447743133
            ],
            [
              -1.949461319132103,
              43.31625220843785
            ],
            [
              -1.9494637040645584,
              43.31557423350178
            ],
            [
              -1.9500502712057322,
              43.31512225021106
            ],
            [
              -1.9515143394470216,
              43.31506676019276
            ]
          ],
          [
            [
              -1.9434908866882323,
              43.31779629314488
            ],
            [
              -1.9438424771320146,
              43.318060141600725
            ],
            [
              -1.9438764002466344,
              43.31828613324608
            ],
            [
              -1.9438764002466344,
              43.3187381165368
            ],
            [
              -1.9434908866882323,
              43.319040724886996
            ],
            [
              -1.9421536445617675,
              43.319040724886996
            ],
            [
              -1.9418566831386765,
              43.3187381165368
            ],
            [
              -1.9418833731613532,
              43.318060141600725
            ],
            [
              -1.9421536445617675,
              43.31779629314488
            ],
            [
              -1.9434908866882323,
              43.31779629314488
            ]
          ],
          [
            [
              -1.9414850234985352,
              43.308378754398014
            ],
            [
              -1.9417640845741708,
              43.30879448414102
            ],
            [
              -1.9417758072710314,
              43.3094724590771
            ],
            [
              -1.9414823090509477,
              43.309924442367816
            ],
            [
              -1.9408164024353027,
              43.31032449058774
            ],
            [
              -1.939479160308838,
              43.31032449058774
            ],
            [
              -1.9389428108988018,
              43.310150434013174
            ],
            [
              -1.9383050160296187,
              43.3094724590771
            ],
            [
              -1.9383168450379178,
              43.30879448414102
            ],
            [
              -1.9386407844634523,
              43.3083425008503
            ],
            [
              -1.9390268867027711,
              43.30811650920494
            ],
            [
              -1.939479160308838,
              43.307973407304104
            ],
            [
              -1.9408164024353027,
              43.307973407304104
            ],
            [
              -1.9414850234985352,
              43.308378754398014
            ]
          ],
          [
            [
              -1.9388105392456054,
              43.3206827793385
            ],
            [
              -1.9388105392456054,
              43.32132498657213
            ],
            [
              -1.9374732971191406,
              43.32132498657213
            ],
            [
              -1.9373444454859536,
              43.32122402463575
            ],
            [
              -1.9373444454859536,
              43.32077204134503
            ],
            [
              -1.9374732971191406,
              43.3206827793385
            ],
            [
              -1.9388105392456054,
              43.3206827793385
            ]
          ],
          [
            [
              -1.9321243286132812,
              43.31884634359699
            ],
            [
              -1.9324541685703396,
              43.319190099827516
            ],
            [
              -1.9324541685703396,
              43.31964208311823
            ],
            [
              -1.932163728152199,
              43.31986807476359
            ],
            [
              -1.9307870864868164,
              43.319888310487556
            ],
            [
              -1.9305829079194585,
              43.31964208311823
            ],
            [
              -1.9305829079194585,
              43.319190099827516
            ],
            [
              -1.9307870864868164,
              43.31884634359699
            ],
            [
              -1.9321243286132812,
              43.31884634359699
            ]
          ],
          [
            [
              -1.9274439811706543,
              43.32471016658871
            ],
            [
              -1.9277293570300829,
              43.32506588260684
            ],
            [
              -1.9277293570300829,
              43.32551786589756
            ],
            [
              -1.9274439811706543,
              43.3259438139237
            ],
            [
              -1.9261067390441895,
              43.3259438139237
            ],
            [
              -1.925438117980957,
              43.32570297188893
            ],
            [
              -1.925438117980957,
              43.32494539948999
            ],
            [
              -1.9261067390441895,
              43.32471016658871
            ],
            [
              -1.9274439811706543,
              43.32471016658871
            ]
          ],
          [
            [
              -1.9267753601074218,
              43.3172268391383
            ],
            [
              -1.926890781268269,
              43.318060141600725
            ],
            [
              -1.926678763894777,
              43.31828613324608
            ],
            [
              -1.9261067390441895,
              43.31848878181333
            ],
            [
              -1.9247694969177247,
              43.31848878181333
            ],
            [
              -1.9243572156141866,
              43.318060141600725
            ],
            [
              -1.9243657238013623,
              43.31738216666465
            ],
            [
              -1.9247694969177247,
              43.31696997042172
            ],
            [
              -1.9261067390441895,
              43.31696997042172
            ],
            [
              -1.9267753601074218,
              43.3172268391383
            ]
          ],
          [
            [
              -1.909391212463379,
              43.31692207887327
            ],
            [
              -1.9097670510029667,
              43.31715617501929
            ],
            [
              -1.9097670510029667,
              43.31760815831001
            ],
            [
              -1.909391212463379,
              43.31800401550923
            ],
            [
              -1.9080539703369142,
              43.31800401550923
            ],
            [
              -1.9076864365531507,
              43.31783414995537
            ],
            [
              -1.9075998827643772,
              43.31715617501929
            ],
            [
              -1.9080539703369142,
              43.31692207887327
            ],
            [
              -1.909391212463379,
              43.31692207887327
            ]
          ],
          [
            [
              -1.9006991386413574,
              43.30683080649415
            ],
            [
              -1.9010518742473066,
              43.30766452591423
            ],
            [
              -1.9009062857650576,
              43.30856849249566
            ],
            [
              -1.9003602129899626,
              43.309246467431734
            ],
            [
              -1.8993618965148926,
              43.309797662102376
            ],
            [
              -1.8973560333251953,
              43.309906694100356
            ],
            [
              -1.8966874122619628,
              43.30969949677052
            ],
            [
              -1.895715360964548,
              43.309020475786376
            ],
            [
              -1.895313932550532,
              43.3083425008503
            ],
            [
              -1.8952991264639385,
              43.30743853426887
            ],
            [
              -1.8956720971798238,
              43.306760559332794
            ],
            [
              -1.896585992539395,
              43.30608258439672
            ],
            [
              -1.8973560333251953,
              43.30582481792347
            ],
            [
              -1.8993618965148926,
              43.3059337997398
            ],
            [
              -1.900030517578125,
              43.30624110602177
            ],
            [
              -1.9006991386413574,
              43.30683080649415
            ]
          ],
          [
            [
              -1.890669822692871,
              43.306394379724786
            ],
            [
              -1.8910551216146578,
              43.306760559332794
            ],
            [
              -1.8910273101695456,
              43.30743853426887
            ],
            [
              -1.890669822692871,
              43.30776206369397
            ],
            [
              -1.8893325805664063,
              43.30776206369397
            ],
            [
              -1.888944597409331,
              43.30743853426887
            ],
            [
              -1.8889147363384526,
              43.306760559332794
            ],
            [
              -1.8893325805664063,
              43.306394379724786
            ],
            [
              -1.890669822692871,
              43.306394379724786
            ]
          ],
          [
            [
              -1.887326717376709,
              43.309009066564265
            ],
            [
              -1.8877321694887148,
              43.309246467431734
            ],
            [
              -1.8876287911354546,
              43.3094724590771
            ],
            [
              -1.8877958564671073,
              43.309924442367816
            ],
            [
              -1.8875159488066457,
              43.310150434013174
            ],
            [
              -1.8859894752502442,
              43.31018798696434
            ],
            [
              -1.8854090504218972,
              43.3094724590771
            ],
            [
              -1.8854177941338477,
              43.309246467431734
            ],
            [
              -1.8858764085744808,
              43.309020475786376
            ],
            [
              -1.887326717376709,
              43.309009066564265
            ]
          ]
        ]
      }
    }
  ]
}