{
  "type": "FeatureCollection",
  "features": [
    {
      "type": "Feature",
      "properties": {},
      "geometry": {
        "type": "Polygon",
        "coordinates": [
          [
            [
              -1.8839836120605469,
              43.29704291858237
            ],
            [
              -1.8839836120605469,
              43.33252360690368
            ],
            [
              -2.0177078247070312,
              43.33252360690368
            ],
            [
              -2.0177078247070312,
              43.29704291858237
            ],
            [
              -1.8839836120605469,
              43.29704291858237
            ]
          ],
          [
            [
              -2.00634126663208,
              43.3115590376969
            ],
            [
              -2.006747672879773,
              43.31195836717604
            ],
            [
              -2.006720273001857,
              43.312636342112114
            ],
            [
              -2.00634126663208,
              43.31298986696014
            ],
            [
              -2.0042569699177597,
              43.31286233375747
            ],
            [
              -2.0041449737986943,
              43.3121843588214
            ],
            [
              -2.004335403442383,
              43.311900439130596
            ],
            [
              -2.0050040245056153,
              43.3115590376969
            ],
            [
              -2.00634126663208,
              43.3115590376969
            ]
          ],
          [
            [
              -2.0023295402526857,
              43.31189982183092
            ],
            [
              -2.0025973436559954,
              43.3121843588214
            ],
            [
              -2.002621825583374,
              43.312410350466756
            ],
            [
              -2.002621825583374,
              43.31286233375747
            ],
            [
              -2.0023295402526857,
              43.31318692796944
            ],
            [
              -2.0009922981262207,
              43.31318692796944
            ],
            [
              -2.000316126378045,
              43.31286233375747
            ],
            [
              -2.000359951988015,
              43.3121843588214
            ],
            [
              -2.00081538855375,
              43.31195836717604
            ],
            [
              -2.0023295402526857,
              43.31189982183092
            ]
          ],
          [
            [
              -1.9896257400512696,
              43.314800380142465
            ],
            [
              -1.9899629258646256,
              43.31512225021106
            ],
            [
              -1.9900046665117124,
              43.31534824185642
            ],
            [
              -1.9900046665117124,
              43.315800225147136
            ],
            [
              -1.9896257400512696,
              43.316191551383945
            ],
            [
              -1.9882884979248048,
              43.316191551383945
            ],
            [
              -1.9877188653548523,
              43.315800225147136
            ],
            [
              -1.987779055713325,
              43.31512225021106
            ],
            [
              -1.9880895285362326,
              43.3148962585657
            ],
            [
              -1.9896257400512696,
              43.314800380142465
            ]
          ],
          [
            [
              -1.9876198768615723,
              43.32097399357276
            ],
            [
              -1.9876707118610963,
              43.32167600792646
            ],
            [
              -1.9869512557983398,
              43.3222965830687
            ],
            [
              -1.9867426277816136,
              43.322805966153254
            ],
            [
              -1.9862826347351075,
              43.32312770446632
            ],
            [
              -1.9849453926086427,
              43.32312770446632
            ],
            [
              -1.9835106758980015,
              43.32190199957182
            ],
            [
              -1.983596484490576,
              43.32122402463575
            ],
            [
              -1.9842767715454102,
              43.320798492067574
            ],
            [
              -1.9869512557983398,
              43.32074978945044
            ],
            [
              -1.9876198768615723,
              43.32097399357276
            ]
          ],
          [
            [
              -1.985614013671875,
              43.325144193322195
            ],
            [
              -1.985952610640854,
              43.32551786589756
            ],
            [
              -1.9858961225092528,
              43.326195840833634
            ],
            [
              -1.985614013671875,
              43.32647629973087
            ],
            [
              -1.9842767715454102,
              43.32647629973087
            ],
            [
              -1.9836081504821776,
              43.32612015256003
            ],
            [
              -1.983001484471363,
              43.32551786589756
            ],
            [
              -1.983001484471363,
              43.32506588260684
            ],
            [
              -1.9836081504821776,
              43.32456627626211
            ],
            [
              -1.9849453926086427,
              43.32456627626211
            ],
            [
              -1.985614013671875,
              43.325144193322195
            ]
          ],
          [
            [
              -1.9836081504821776,
              43.31274768013827
            ],
            [
              -1.9838842144878193,
              43.31308832540284
            ],
            [
              -1.9838842144878193,
              43.313540308693554
            ],
            [
              -1.9836081504821776,
              43.313976219460564
            ],
            [
              -1.9822709083557128,
              43.313976219460564
            ],
            [
              -1.9816022872924806,
              43.31375177984337
            ],
            [
              -1.9816022872924806,
              43.31297449385336
            ],
            [
              -1.9822709083557128,
              43.31274768013827
            ],
            [
              -1.9836081504821776,
              43.31274768013827
            ]
          ],
          [
            [
              -1.9816022872924806,
              43.32185729341933
            ],
            [
              -1.9821359166256651,
              43.32235398286254
            ],
            [
              -1.9821359166256651,
              43.322805966153254
            ],
            [
              -1.9817427084020687,
              43.32325794944397
            ],
            [
              -1.9802650451660155,
              43.323340631703935
            ],
            [
              -1.9798899762905589,
              43.32303195779861
            ],
            [
              -1.979774848407236,
              43.32235398286254
            ],
            [
              -1.9801929963003921,
              43.32190199957182
            ],
            [
              -1.9816022872924806,
              43.32185729341933
            ]
          ],
          [
            [
              -1.9802650451660155,
              43.32413495302875
            ],
            [
              -1.9802307966522545,
              43.324839890961485
            ],
            [
              -1.9795964241027832,
              43.32528590979675
            ],
            [
              -1.977590560913086,
              43.32534666524977
            ],
            [
              -1.9770155259350306,
              43.324839890961485
            ],
            [
              -1.9771020681156681,
              43.32416191602541
            ],
            [
              -1.977590560913086,
              43.323786853138934
            ],
            [
              -1.9795964241027832,
              43.32367282933456
            ],
            [
              -1.9802650451660155,
              43.32413495302875
            ]
          ],
          [
            [
              -1.9769219398498534,
              43.31612278751712
            ],
            [
              -1.9770509572696255,
              43.31647820008321
            ],
            [
              -1.9770509572696255,
              43.316930183373934
            ],
            [
              -1.9769219398498534,
              43.317110782206825
            ],
            [
              -1.9749160766601563,
              43.31716281768118
            ],
            [
              -1.9747419756210873,
              43.316930183373934
            ],
            [
              -1.9747697190392635,
              43.31625220843785
            ],
            [
              -1.9749160766601563,
              43.31607256975489
            ],
            [
              -1.9769219398498534,
              43.31612278751712
            ]
          ],
          [
            [
              -1.9762533187866211,
              43.32095463233024
            ],
            [
              -1.9764791855668917,
              43.32122402463575
            ],
            [
              -1.9764664705712867,
              43.32190199957182
            ],
            [
              -1.9755846977233886,
              43.323001919529
            ],
            [
              -1.9742474555969238,
              43.323001919529
            ],
            [
              -1.9735788345336913,
              43.32276179248949
            ],
            [
              -1.9735061328226093,
              43.32212799121718
            ],
            [
              -1.9739739913352043,
              43.32167600792646
            ],
            [
              -1.9742474555969238,
              43.32113363052516
            ],
            [
              -1.9749160766601563,
              43.32095463233024
            ],
            [
              -1.9762533187866211,
              43.32095463233024
            ]
          ],
          [
            [
              -1.9742474555969238,
              43.304333018581005
            ],
            [
              -1.974696509646821,
              43.30472663452456
            ],
            [
              -1.9747184548678283,
              43.30495262616992
            ],
            [
              -1.9747184548678283,
              43.30540460946064
            ],
            [
              -1.9742474555969238,
              43.305835125884855
            ],
            [
              -1.972910213470459,
              43.305835125884855
            ],
            [
              -1.972427551457068,
              43.30540460946064
            ],
            [
              -1.972449946694688,
              43.30472663452456
            ],
            [
              -1.972910213470459,
              43.304333018581005
            ],
            [
              -1.9742474555969238,
              43.304333018581005
            ]
          ],
          [
            [
              -1.969567108154297,
              43.31859758377999
            ],
            [
              -1.969962007297083,
              43.31896410818216
            ],
            [
              -1.9699816221448507,
              43.319190099827516
            ],
            [
              -1.9699816221448507,
              43.31964208311823
            ],
            [
              -1.969567108154297,
              43.3200414250423
            ],
            [
              -1.9682298660278321,
              43.3200414250423
            ],
            [
              -1.967714375487385,
              43.31964208311823
            ],
            [
              -1.9677380714967783,
              43.31896410818216
            ],
            [
              -1.9682298660278321,
              43.31859758377999
            ],
            [
              -1.969567108154297,
              43.31859758377999
            ]
          ],
          [
            [
              -1.9441595077514648,
              43.30864140143487
            ],
            [
              -1.9445511005729716,
              43.309020475786376
            ],
            [
              -1.9445443550419843,
              43.30969845072246
            ],
            [
              -1.9441595077514648,
              43.31035674411135
            ],
            [
              -1.942822265625,
              43.31035674411135
            ],
            [
              -1.9421298019605489,
              43.310150434013174
            ],
            [
              -1.9420699571621771,
              43.3094724590771
            ],
            [
              -1.9425504655672245,
              43.30879448414102
            ],
            [
              -1.942822265625,
              43.30864140143487
            ],
            [
              -1.9441595077514648,
              43.30864140143487
            ]
          ],
          [
            [
              -1.939479160308838,
              43.314705865018155
            ],
            [
              -1.9400812306653732,
              43.31512225021106
            ],
            [
              -1.9399649999142405,
              43.315800225147136
            ],
            [
              -1.939479160308838,
              43.31608788322157
            ],
            [
              -1.9381419181823731,
              43.31608788322157
            ],
            [
              -1.937834405812606,
              43.315800225147136
            ],
            [
              -1.937757013950857,
              43.31512225021106
            ],
            [
              -1.9381419181823731,
              43.314705865018155
            ],
            [
              -1.939479160308838,
              43.314705865018155
            ]
          ],
          [
            [
              -1.9040422439575195,
              43.31318058779909
            ],
            [
              -1.9044190004781512,
              43.313540308693554
            ],
            [
              -1.904432108691296,
              43.31376630033891
            ],
            [
              -1.904432108691296,
              43.31421828362963
            ],
            [
              -1.9040422439575195,
              43.31459988038352
            ],
            [
              -1.9027050018310547,
              43.31464267441697
            ],
            [
              -1.9020363807678222,
              43.31450429901815
            ],
            [
              -1.9019787483095119,
              43.314670266920345
            ],
            [
              -1.90136775970459,
              43.31494823458349
            ],
            [
              -1.900030517578125,
              43.31494823458349
            ],
            [
              -1.8992088479559164,
              43.31421828362963
            ],
            [
              -1.8992088479559164,
              43.31376630033891
            ],
            [
              -1.8993618965148926,
              43.31349765461916
            ],
            [
              -1.90136775970459,
              43.31342966699635
            ],
            [
              -1.9019877929874158,
              43.31376630033891
            ],
            [
              -1.9020363807678222,
              43.31394059870372
            ],
            [
              -1.9021939469783622,
              43.313540308693554
            ],
            [
              -1.9027050018310547,
              43.31318058779909
            ],
            [
              -1.9040422439575195,
              43.31318058779909
            ]
          ],
          [
            [
              -1.900030517578125,
              43.31713523944674
            ],
            [
              -1.9002342935940344,
              43.31738216666465
            ],
            [
              -1.9002335408744124,
              43.318060141600725
            ],
            [
              -1.900030517578125,
              43.318305867816925
            ],
            [
              -1.8986932754516601,
              43.318305867816925
            ],
            [
              -1.8979516434305406,
              43.318060141600725
            ],
            [
              -1.8980246543884278,
              43.31728033518111
            ],
            [
              -1.8986932754516601,
              43.31713523944674
            ],
            [
              -1.900030517578125,
              43.31713523944674
            ]
          ],
          [
            [
              -1.8986932754516601,
              43.3191314699654
            ],
            [
              -1.8991807782655468,
              43.31964208311823
            ],
            [
              -1.8991807782655468,
              43.32009406640895
            ],
            [
              -1.8986932754516601,
              43.320604343061184
            ],
            [
              -1.8973560333251953,
              43.320604343061184
            ],
            [
              -1.8968065166093269,
              43.32009406640895
            ],
            [
              -1.8968065166093269,
              43.31964208311823
            ],
            [
              -1.8973560333251953,
              43.3191314699654
            ],
            [
              -1.8986932754516601,
              43.3191314699654
            ]
          ]
        ]
      }
    }
  ]
}