{
  "type": "FeatureCollection",
  "features": [
    {
      "type": "Feature",
      "properties": {},
      "geometry": {
        "type": "MultiPolygon",
        "coordinates": [
          [
            [
              [
                -5.653604388445491,
                40.952710502015364
              ],
              [
                -5.653603007073153,
                40.95316225914549
              ],
              [
                -5.653104186058044,
                40.9536846344341
              ],
              [
                -5.65221004486084,
                40.95379244506019
              ],
              [
                -5.651315903663635,
                40.95346956210222
              ],
              [
                -5.650421762466431,
                40.95347927360072
              ],
              [
                -5.649961392329397,
                40.95406577340576
              ],
              [
                -5.649527621269226,
                40.9542943092353
              ],
              [
                -5.6486334800720215,
                40.95428898842861
              ],
              [
                -5.648216696238984,
                40.95406577340576
              ],
              [
                -5.648011493966797,
                40.9538398948407
              ],
              [
                -5.64789862641379,
                40.95316225914549
              ],
              [
                -5.647359093450464,
                40.95293638058043
              ],
              [
                -5.647359093450464,
                40.952710502015364
              ],
              [
                -5.63075065612793,
                40.952710502015364
              ],
              [
                -5.63075065612793,
                40.983655865429434
              ],
              [
                -5.690360069274902,
                40.983655865429434
              ],
              [
                -5.690360069274902,
                40.95493745014401
              ],
              [
                -5.6896714470185685,
                40.95519516623109
              ],
              [
                -5.6897490182492625,
                40.95587280192629
              ],
              [
                -5.689465928077698,
                40.95624466517004
              ],
              [
                -5.688869833946228,
                40.95649473084436
              ],
              [
                -5.6882737398147585,
                40.95649473084436
              ],
              [
                -5.687587660496421,
                40.95609868049136
              ],
              [
                -5.687303497499105,
                40.95542104479616
              ],
              [
                -5.686364034983886,
                40.954969287666025
              ],
              [
                -5.686155334923934,
                40.954517530535895
              ],
              [
                -5.686187410354615,
                40.954016852440404
              ],
              [
                -5.686783504486084,
                40.95356620802728
              ],
              [
                -5.6882737398147585,
                40.953572461317954
              ],
              [
                -5.688869833946228,
                40.95339657544231
              ],
              [
                -5.689763975143433,
                40.95336337817596
              ],
              [
                -5.690360069274902,
                40.95356881250058
              ],
              [
                -5.690360069274902,
                40.952710502015364
              ],
              [
                -5.653604388445491,
                40.952710502015364
              ]
            ],
            [
              [
                -5.686783504486084,
                40.96301888748328
              ],
              [
                -5.686986081369771,
                40.963326794573476
              ],
              [
                -5.686986081369771,
                40.963778551703605
              ],
              [
                -5.686819218122496,
                40.96423030883374
              ],
              [
                -5.686485457420349,
                40.964542251780244
              ],
              [
                -5.686187410354615,
                40.96467524640184
              ],
              [
                -5.68529326915741,
                40.96467100512173
              ],
              [
                -5.684674732937679,
                40.96423030883374
              ],
              [
                -5.6846836011198745,
                40.963326794573476
              ],
              [
                -5.685063781976018,
                40.96287503744335
              ],
              [
                -5.685591316223144,
                40.96269754277763
              ],
              [
                -5.686187410354615,
                40.96269754277763
              ],
              [
                -5.686783504486084,
                40.96301888748328
              ]
            ],
            [
              [
                -5.685591316223144,
                40.960056307010305
              ],
              [
                -5.685674386963948,
                40.96084213035775
              ],
              [
                -5.684995222091675,
                40.96134742332234
              ],
              [
                -5.68410108089447,
                40.961334253980716
              ],
              [
                -5.683464549963565,
                40.96084213035775
              ],
              [
                -5.68346967919554,
                40.96016449466255
              ],
              [
                -5.68410108089447,
                40.959681818736996
              ],
              [
                -5.684995222091675,
                40.959668684747975
              ],
              [
                -5.685591316223144,
                40.960056307010305
              ]
            ],
            [
              [
                -5.684995222091675,
                40.95422407594482
              ],
              [
                -5.685212818689367,
                40.954517530535895
              ],
              [
                -5.685145385835472,
                40.95519516623109
              ],
              [
                -5.684399127960205,
                40.95566162884471
              ],
              [
                -5.6838030338287355,
                40.95566162884471
              ],
              [
                -5.682908892631531,
                40.95542771281525
              ],
              [
                -5.682312798500061,
                40.955678618707715
              ],
              [
                -5.681716704368592,
                40.955678618707715
              ],
              [
                -5.680822563171387,
                40.95528822875125
              ],
              [
                -5.680226469039917,
                40.95571987390524
              ],
              [
                -5.679630374908447,
                40.955786915506245
              ],
              [
                -5.679252797762607,
                40.956324559056426
              ],
              [
                -5.679389748178222,
                40.95655043762149
              ],
              [
                -5.679295556967268,
                40.957228073316685
              ],
              [
                -5.678736233711243,
                40.957621984188684
              ],
              [
                -5.677245998382569,
                40.957651949031046
              ],
              [
                -5.676649904251098,
                40.95736554395856
              ],
              [
                -5.676399551868337,
                40.957002194751624
              ],
              [
                -5.676527462024174,
                40.956324559056426
              ],
              [
                -5.677158918597261,
                40.95587280192629
              ],
              [
                -5.6774810182121636,
                40.954517530535895
              ],
              [
                -5.678140139579773,
                40.95405218401718
              ],
              [
                -5.680226469039917,
                40.95406536991991
              ],
              [
                -5.680822563171387,
                40.954490631472666
              ],
              [
                -5.682312798500061,
                40.95356946229747
              ],
              [
                -5.683206939697266,
                40.953468036916604
              ],
              [
                -5.684995222091675,
                40.95422407594482
              ]
            ],
            [
              [
                -5.6838030338287355,
                40.9566367226733
              ],
              [
                -5.683810290388393,
                40.95745395188175
              ],
              [
                -5.683206939697266,
                40.95787463164159
              ],
              [
                -5.682312798500061,
                40.95807653214847
              ],
              [
                -5.6814186573028564,
                40.95808250179021
              ],
              [
                -5.681050500770235,
                40.95790570901189
              ],
              [
                -5.680697830965401,
                40.95745395188175
              ],
              [
                -5.6807263107822745,
                40.956776316186556
              ],
              [
                -5.6814186573028564,
                40.95623555189285
              ],
              [
                -5.683206939697266,
                40.95621545934812
              ],
              [
                -5.6838030338287355,
                40.9566367226733
              ]
            ],
            [
              [
                -5.682908892631531,
                40.972695910319175
              ],
              [
                -5.6831654365683235,
                40.97303957287132
              ],
              [
                -5.6831654365683235,
                40.97349133000145
              ],
              [
                -5.682908892631531,
                40.97388539421777
              ],
              [
                -5.682299950143074,
                40.974168965696656
              ],
              [
                -5.682014751434326,
                40.974905320713454
              ],
              [
                -5.6814186573028564,
                40.97523343948317
              ],
              [
                -5.680524516105652,
                40.97518082630426
              ],
              [
                -5.679909179647336,
                40.974620722826785
              ],
              [
                -5.679630374908447,
                40.972929482528855
              ],
              [
                -5.679034280776977,
                40.97274627059337
              ],
              [
                -5.6785133976266495,
                40.972361937176125
              ],
              [
                -5.678424438205743,
                40.97168430148093
              ],
              [
                -5.679034280776977,
                40.971139153586094
              ],
              [
                -5.679928421974182,
                40.971086906214346
              ],
              [
                -5.680567474468681,
                40.97145842291586
              ],
              [
                -5.680822563171387,
                40.97225506233067
              ],
              [
                -5.682312798500061,
                40.97242122778717
              ],
              [
                -5.682908892631531,
                40.972695910319175
              ]
            ],
            [
              [
                -5.680226469039917,
                40.97675491699444
              ],
              [
                -5.680268870580289,
                40.97733126560758
              ],
              [
                -5.679928421974182,
                40.97773090135324
              ],
              [
                -5.679332327842713,
                40.97791397804331
              ],
              [
                -5.678438186645508,
                40.977801739506084
              ],
              [
                -5.678228317756923,
                40.97800890130278
              ],
              [
                -5.678218150673614,
                40.97846065843291
              ],
              [
                -5.678067200177222,
                40.97868653699798
              ],
              [
                -5.677145126238414,
                40.97913829412811
              ],
              [
                -5.677297123883318,
                40.97959005125824
              ],
              [
                -5.677841272090424,
                40.98026768695344
              ],
              [
                -5.677841272090424,
                40.980719444083576
              ],
              [
                -5.677433565239162,
                40.981171201213705
              ],
              [
                -5.676351857185364,
                40.98159746557188
              ],
              [
                -5.675457715988159,
                40.98158015243346
              ],
              [
                -5.675159668922424,
                40.981438539681704
              ],
              [
                -5.674793591069272,
                40.98094532264864
              ],
              [
                -5.674826108041809,
                40.98004180838837
              ],
              [
                -5.674563574790954,
                40.97959452964538
              ],
              [
                -5.67426552772522,
                40.979390710624564
              ],
              [
                -5.67366943359375,
                40.979837757270744
              ],
              [
                -5.672775292396546,
                40.9799067404197
              ],
              [
                -5.6726827265344175,
                40.98094532264864
              ],
              [
                -5.6724772453308105,
                40.98117508399032
              ],
              [
                -5.671881151199341,
                40.98142620199014
              ],
              [
                -5.6712850570678714,
                40.98142620199014
              ],
              [
                -5.670532814665342,
                40.98094532264864
              ],
              [
                -5.670482439033759,
                40.98026768695344
              ],
              [
                -5.67017860064254,
                40.97981592982331
              ],
              [
                -5.67017860064254,
                40.979364172693174
              ],
              [
                -5.670558290992362,
                40.97868653699798
              ],
              [
                -5.67004054392315,
                40.97823477986785
              ],
              [
                -5.670058706247422,
                40.97755714417264
              ],
              [
                -5.670637143481233,
                40.97710538704251
              ],
              [
                -5.670752295922843,
                40.97620187278225
              ],
              [
                -5.6713083043163905,
                40.97575011565212
              ],
              [
                -5.671368635082771,
                40.97507247995692
              ],
              [
                -5.671241089849341,
                40.97484660139185
              ],
              [
                -5.670688962936401,
                40.97450062140628
              ],
              [
                -5.669496774673462,
                40.974316257463094
              ],
              [
                -5.668900680541992,
                40.97400459541085
              ],
              [
                -5.668731766087605,
                40.974168965696656
              ],
              [
                -5.668714764339796,
                40.974620722826785
              ],
              [
                -5.668304586410523,
                40.97506439772438
              ],
              [
                -5.667410445213318,
                40.9751901627065
              ],
              [
                -5.6668143510818485,
                40.97506198920124
              ],
              [
                -5.666745528457481,
                40.97552423708705
              ],
              [
                -5.666516304016113,
                40.97580887265854
              ],
              [
                -5.665920209884644,
                40.9760822254675
              ],
              [
                -5.665324115753174,
                40.9760822254675
              ],
              [
                -5.664728021621704,
                40.975797928742914
              ],
              [
                -5.66451216918113,
                40.97552423708705
              ],
              [
                -5.664542877052834,
                40.97484660139185
              ],
              [
                -5.665026068687439,
                40.974439152081075
              ],
              [
                -5.665324115753174,
                40.97434419371075
              ],
              [
                -5.666218256950378,
                40.9744331409869
              ],
              [
                -5.666401452819096,
                40.974168965696656
              ],
              [
                -5.666218256950378,
                40.97393943471348
              ],
              [
                -5.664728021621704,
                40.973843761259815
              ],
              [
                -5.664326158534591,
                40.974168965696656
              ],
              [
                -5.664101337817428,
                40.97484660139185
              ],
              [
                -5.6638338804245,
                40.97514476735393
              ],
              [
                -5.662411152540526,
                40.97552423708705
              ],
              [
                -5.662704899867594,
                40.97597599421718
              ],
              [
                -5.6638338804245,
                40.97618210136289
              ],
              [
                -5.6643398572520836,
                40.976653629912384
              ],
              [
                -5.664293827428282,
                40.97733126560758
              ],
              [
                -5.6638338804245,
                40.97771766426474
              ],
              [
                -5.663535833358765,
                40.977816772951655
              ],
              [
                -5.66264169216156,
                40.97773686576404
              ],
              [
                -5.662337405966742,
                40.97755714417264
              ],
              [
                -5.66204559803009,
                40.97711189507635
              ],
              [
                -5.6599592685699465,
                40.97731402712933
              ],
              [
                -5.659210713304641,
                40.976879508477445
              ],
              [
                -5.657872939109803,
                40.9765210554274
              ],
              [
                -5.657276844978332,
                40.975972175951036
              ],
              [
                -5.657113485642832,
                40.97620187278225
              ],
              [
                -5.657234281061177,
                40.976879508477445
              ],
              [
                -5.656978797912598,
                40.97728411565632
              ],
              [
                -5.656382703781128,
                40.97755526169408
              ],
              [
                -5.6554885625839235,
                40.97745884352411
              ],
              [
                -5.655364205664468,
                40.97755714417264
              ],
              [
                -5.655368464730983,
                40.97823477986785
              ],
              [
                -5.6548792539174,
                40.978912415563045
              ],
              [
                -5.654594421386719,
                40.97919736948084
              ],
              [
                -5.653998327255249,
                40.97944159304543
              ],
              [
                -5.65340223312378,
                40.98001872280709
              ],
              [
                -5.652508091926575,
                40.98012567866579
              ],
              [
                -5.651017856597901,
                40.979925869492455
              ],
              [
                -5.650421762466431,
                40.97964090731613
              ],
              [
                -5.649527621269226,
                40.97871021285171
              ],
              [
                -5.6486334800720215,
                40.97871060684345
              ],
              [
                -5.6479840363422955,
                40.97823477986785
              ],
              [
                -5.647739338874817,
                40.977175895891214
              ],
              [
                -5.646939084659365,
                40.976653629912384
              ],
              [
                -5.646763994656376,
                40.976427751347316
              ],
              [
                -5.646717404378811,
                40.97575011565212
              ],
              [
                -5.646249103546142,
                40.97548509692054
              ],
              [
                -5.6459285626487485,
                40.97507247995692
              ],
              [
                -5.6459285626487485,
                40.974620722826785
              ],
              [
                -5.646299018944472,
                40.974168965696656
              ],
              [
                -5.64630774335654,
                40.97394308713159
              ],
              [
                -5.646018712917439,
                40.97349133000145
              ],
              [
                -5.646018712917439,
                40.97303957287132
              ],
              [
                -5.646249103546142,
                40.97273255495256
              ],
              [
                -5.646935530013066,
                40.972361937176125
              ],
              [
                -5.6471547250282565,
                40.97168430148093
              ],
              [
                -5.648037385940552,
                40.971215471674476
              ],
              [
                -5.648931527137757,
                40.97090714248429
              ],
              [
                -5.649825668334961,
                40.97087187640206
              ],
              [
                -5.650567198915197,
                40.97123254435079
              ],
              [
                -5.650719809532165,
                40.97149464716706
              ],
              [
                -5.65084269272352,
                40.97078078722066
              ],
              [
                -5.651315903663635,
                40.970340355134795
              ],
              [
                -5.65221004486084,
                40.97023738534078
              ],
              [
                -5.652806138992309,
                40.97047319623238
              ],
              [
                -5.65295555024555,
                40.970329030090525
              ],
              [
                -5.652806138992309,
                40.96946788042595
              ],
              [
                -5.65221004486084,
                40.96962401210968
              ],
              [
                -5.650421762466431,
                40.96951461062252
              ],
              [
                -5.647143244743347,
                40.96966002797097
              ],
              [
                -5.646845197677612,
                40.97002292849757
              ],
              [
                -5.646249103546142,
                40.97034855216229
              ],
              [
                -5.645354962348938,
                40.970337923851304
              ],
              [
                -5.645056915283203,
                40.97019713687562
              ],
              [
                -5.644820294778807,
                40.970329030090525
              ],
              [
                -5.645089233082209,
                40.97078078722066
              ],
              [
                -5.645091050968571,
                40.97145842291586
              ],
              [
                -5.644911325138577,
                40.97168430148093
              ],
              [
                -5.642970585823059,
                40.972539060250156
              ],
              [
                -5.6417783975601195,
                40.972517794736724
              ],
              [
                -5.64118230342865,
                40.97231875773163
              ],
              [
                -5.640448030777891,
                40.97145842291586
              ],
              [
                -5.640448030777891,
                40.97100666578573
              ],
              [
                -5.640739530629892,
                40.97055490865559
              ],
              [
                -5.641471493405332,
                40.970103151525464
              ],
              [
                -5.6413161564730885,
                40.969877272960396
              ],
              [
                -5.6413161564730885,
                40.96942551583026
              ],
              [
                -5.641480350494385,
                40.96905154900021
              ],
              [
                -5.642970585823059,
                40.96798320282151
              ],
              [
                -5.6441627740859985,
                40.96811927637715
              ],
              [
                -5.64431633346445,
                40.9678443658748
              ],
              [
                -5.644281539813136,
                40.9671667301796
              ],
              [
                -5.644758868217468,
                40.96671584775467
              ],
              [
                -5.645056915283203,
                40.96661315628788
              ],
              [
                -5.645951056480408,
                40.966677438787116
              ],
              [
                -5.646355568416101,
                40.96694085161454
              ],
              [
                -5.646597425723978,
                40.96739260874467
              ],
              [
                -5.646845197677612,
                40.967536431029984
              ],
              [
                -5.6479554786981625,
                40.96694085161454
              ],
              [
                -5.647086054924193,
                40.966263215919334
              ],
              [
                -5.647073037416077,
                40.965585580224136
              ],
              [
                -5.647441291809082,
                40.96521136336177
              ],
              [
                -5.647739338874817,
                40.965078051550506
              ],
              [
                -5.6486334800720215,
                40.96508087358458
              ],
              [
                -5.649527621269226,
                40.96576426613119
              ],
              [
                -5.649825668334961,
                40.96578082016725
              ],
              [
                -5.650123715400696,
                40.96572793777532
              ],
              [
                -5.650900892950024,
                40.96513382309401
              ],
              [
                -5.650995970731126,
                40.96490794452894
              ],
              [
                -5.650579686162389,
                40.96423030883374
              ],
              [
                -5.649527621269226,
                40.96370079449006
              ],
              [
                -5.648881978191656,
                40.963552673138544
              ],
              [
                -5.648389226718773,
                40.96310091600841
              ],
              [
                -5.648419585101198,
                40.96242328031321
              ],
              [
                -5.648610727271508,
                40.96219740174814
              ],
              [
                -5.6487230430328434,
                40.96129388748788
              ],
              [
                -5.648525316941624,
                40.96084213035775
              ],
              [
                -5.648594393972,
                40.96016449466255
              ],
              [
                -5.649229574203491,
                40.95972852820638
              ],
              [
                -5.650123715400696,
                40.95973997784774
              ],
              [
                -5.650421762466431,
                40.9598796485903
              ],
              [
                -5.650812234437279,
                40.95971273753241
              ],
              [
                -5.650719809532165,
                40.95954412492878
              ],
              [
                -5.649825668334961,
                40.959478100536316
              ],
              [
                -5.649214819791849,
                40.959035101837216
              ],
              [
                -5.649165754166228,
                40.95835746614202
              ],
              [
                -5.649527621269226,
                40.95796349193064
              ],
              [
                -5.65221004486084,
                40.95690239171586
              ],
              [
                -5.652806138992309,
                40.95690239171586
              ],
              [
                -5.65340223312378,
                40.95715602106173
              ],
              [
                -5.654108921347146,
                40.95813158757695
              ],
              [
                -5.654079443054844,
                40.958809223272155
              ],
              [
                -5.653884070967897,
                40.959035101837216
              ],
              [
                -5.65340223312378,
                40.959287411988214
              ],
              [
                -5.65221004486084,
                40.95920378841814
              ],
              [
                -5.650781723207851,
                40.95948685896735
              ],
              [
                -5.65221004486084,
                40.95989185900818
              ],
              [
                -5.65340223312378,
                40.95988221212534
              ],
              [
                -5.653700280189514,
                40.96000869755877
              ],
              [
                -5.6540875289044505,
                40.96039037322762
              ],
              [
                -5.654085093507244,
                40.961068008922815
              ],
              [
                -5.655006126403015,
                40.96197152318308
              ],
              [
                -5.655006126403015,
                40.96242328031321
              ],
              [
                -5.65470633323031,
                40.96287503744335
              ],
              [
                -5.6542963743209835,
                40.96307858111639
              ],
              [
                -5.65340223312378,
                40.96306559591153
              ],
              [
                -5.653008796763172,
                40.963326794573476
              ],
              [
                -5.654594421386719,
                40.96337312880932
              ],
              [
                -5.6554885625839235,
                40.96391650075082
              ],
              [
                -5.656680750846863,
                40.96388790117903
              ],
              [
                -5.656962613332035,
                40.963778551703605
              ],
              [
                -5.6570631465565775,
                40.963552673138544
              ],
              [
                -5.657283432236875,
                40.96264915887828
              ],
              [
                -5.657713795405882,
                40.96174564461801
              ],
              [
                -5.657774017614859,
                40.961068008922815
              ],
              [
                -5.658592128951325,
                40.96039037322762
              ],
              [
                -5.6586115737804095,
                40.96016449466255
              ],
              [
                -5.657925252294813,
                40.95948685896735
              ],
              [
                -5.658074280618618,
                40.95858334470709
              ],
              [
                -5.65799865820309,
                40.95790570901189
              ],
              [
                -5.658469033241272,
                40.9574301112014
              ],
              [
                -5.659363174438477,
                40.95732050890109
              ],
              [
                -5.660124043442942,
                40.95767983044682
              ],
              [
                -5.660545260052498,
                40.958809223272155
              ],
              [
                -5.661182549855644,
                40.959260980402284
              ],
              [
                -5.661238013457796,
                40.95993861609748
              ],
              [
                -5.660712886107846,
                40.96084213035775
              ],
              [
                -5.66036644802506,
                40.96197152318308
              ],
              [
                -5.660555362701416,
                40.96212260402401
              ],
              [
                -5.661747550964355,
                40.96190084082832
              ],
              [
                -5.662939739227295,
                40.96197384629847
              ],
              [
                -5.663137191470556,
                40.961068008922815
              ],
              [
                -5.663535833358765,
                40.96073199034412
              ],
              [
                -5.664728021621704,
                40.96062696518348
              ],
              [
                -5.665324115753174,
                40.960974619909564
              ],
              [
                -5.6656221628189085,
                40.960921906841065
              ],
              [
                -5.666057018597019,
                40.96039037322762
              ],
              [
                -5.6665429919915375,
                40.96016449466255
              ],
              [
                -5.66656576289457,
                40.95948685896735
              ],
              [
                -5.666931059645891,
                40.959035101837216
              ],
              [
                -5.667410445213318,
                40.95883730368362
              ],
              [
                -5.668006539344788,
                40.95883730368362
              ],
              [
                -5.668602633476257,
                40.95911176908801
              ],
              [
                -5.668911534117684,
                40.95971273753241
              ],
              [
                -5.669496774673462,
                40.96009244052409
              ],
              [
                -5.669651948293763,
                40.96039037322762
              ],
              [
                -5.669517094358426,
                40.961068008922815
              ],
              [
                -5.668716033532416,
                40.961519766052945
              ],
              [
                -5.669066049685615,
                40.96197152318308
              ],
              [
                -5.669066049685615,
                40.96242328031321
              ],
              [
                -5.669892469733553,
                40.96310091600841
              ],
              [
                -5.669892469733553,
                40.963552673138544
              ],
              [
                -5.669496774673462,
                40.964303279426446
              ],
              [
                -5.668900680541992,
                40.964678484547534
              ],
              [
                -5.668006539344788,
                40.964657902291755
              ],
              [
                -5.667708492279052,
                40.964513570262795
              ],
              [
                -5.667112398147583,
                40.96372532326969
              ],
              [
                -5.666930236193419,
                40.96400443026867
              ],
              [
                -5.667410445213318,
                40.96553889400479
              ],
              [
                -5.667657238579359,
                40.96513382309401
              ],
              [
                -5.668304586410523,
                40.96468773022023
              ],
              [
                -5.668900680541992,
                40.96468773022023
              ],
              [
                -5.6700928688049315,
                40.965381340759
              ],
              [
                -5.671881151199341,
                40.964358021338164
              ],
              [
                -5.6724772453308105,
                40.96438360839069
              ],
              [
                -5.67307333946228,
                40.964706429422336
              ],
              [
                -5.673272994564396,
                40.96513382309401
              ],
              [
                -5.673272994564396,
                40.965585580224136
              ],
              [
                -5.673111557897842,
                40.965811458789204
              ],
              [
                -5.673365536833962,
                40.966263215919334
              ],
              [
                -5.673365536833962,
                40.96671497304947
              ],
              [
                -5.673345609673134,
                40.96694085161454
              ],
              [
                -5.6729852002889665,
                40.96739260874467
              ],
              [
                -5.672775292396546,
                40.967619950699444
              ],
              [
                -5.672179198265075,
                40.967858863298915
              ],
              [
                -5.671583104133606,
                40.967860202992625
              ],
              [
                -5.670987010002136,
                40.96755672823606
              ],
              [
                -5.6700928688049315,
                40.96791820457422
              ],
              [
                -5.669496774673462,
                40.96797879367947
              ],
              [
                -5.669496774673462,
                40.9681670212755
              ],
              [
                -5.6700928688049315,
                40.968386253706804
              ],
              [
                -5.6712850570678714,
                40.9682570870612
              ],
              [
                -5.672179198265075,
                40.96838471865691
              ],
              [
                -5.672775292396546,
                40.968119649371104
              ],
              [
                -5.673371386528015,
                40.9681023445624
              ],
              [
                -5.673967480659485,
                40.96780995318449
              ],
              [
                -5.675159668922424,
                40.9679593741063
              ],
              [
                -5.676053810119629,
                40.96742470061149
              ],
              [
                -5.676649904251098,
                40.96742470061149
              ],
              [
                -5.677245998382569,
                40.96768149170175
              ],
              [
                -5.677526048344427,
                40.968070244439865
              ],
              [
                -5.677526048344427,
                40.96852200157
              ],
              [
                -5.677245998382569,
                40.968898700542006
              ],
              [
                -5.676351857185364,
                40.969336951516425
              ],
              [
                -5.676120249864383,
                40.96965139439533
              ],
              [
                -5.676333674852175,
                40.970103151525464
              ],
              [
                -5.67627516866886,
                40.97078078722066
              ],
              [
                -5.675755763053894,
                40.971185062294914
              ],
              [
                -5.674563574790954,
                40.97155939027722
              ],
              [
                -5.673775087240451,
                40.972361937176125
              ],
              [
                -5.67426552772522,
                40.9725317591046
              ],
              [
                -5.67486162185669,
                40.9723597043801
              ],
              [
                -5.677245998382569,
                40.97237390791883
              ],
              [
                -5.677932870118086,
                40.972813694306254
              ],
              [
                -5.67801671788177,
                40.97349133000145
              ],
              [
                -5.677597231129289,
                40.97394308713159
              ],
              [
                -5.677245998382569,
                40.97408375389666
              ],
              [
                -5.67497270365346,
                40.974168965696656
              ],
              [
                -5.6743166138825645,
                40.974620722826785
              ],
              [
                -5.675159668922424,
                40.97505021159114
              ],
              [
                -5.676053810119629,
                40.97494045048378
              ],
              [
                -5.677245998382569,
                40.97533511071003
              ],
              [
                -5.678736233711243,
                40.9752936409263
              ],
              [
                -5.679300664008033,
                40.97575011565212
              ],
              [
                -5.679474860193924,
                40.97620187278225
              ],
              [
                -5.679967024358326,
                40.976427751347316
              ],
              [
                -5.680226469039917,
                40.97675491699444
              ]
            ],
            [
              [
                -5.675755763053894,
                40.96520221630474
              ],
              [
                -5.676006601459878,
                40.965585580224136
              ],
              [
                -5.676006601459878,
                40.96603733735427
              ],
              [
                -5.675457715988159,
                40.966567639769714
              ],
              [
                -5.674563574790954,
                40.96666110434255
              ],
              [
                -5.673967480659485,
                40.96637861325398
              ],
              [
                -5.673716799679436,
                40.96603733735427
              ],
              [
                -5.673818945157215,
                40.96535970165907
              ],
              [
                -5.67426552772522,
                40.96501436861054
              ],
              [
                -5.675159668922424,
                40.964920230331664
              ],
              [
                -5.675755763053894,
                40.96520221630474
              ]
            ],
            [
              [
                -5.675457715988159,
                40.95442809578142
              ],
              [
                -5.675570782425781,
                40.95519516623109
              ],
              [
                -5.674797465767075,
                40.956324559056426
              ],
              [
                -5.67426552772522,
                40.95652562971353
              ],
              [
                -5.67307333946228,
                40.956436207487926
              ],
              [
                -5.6724772453308105,
                40.956824962822964
              ],
              [
                -5.671583104133606,
                40.956812433450594
              ],
              [
                -5.670987010002136,
                40.95638108546474
              ],
              [
                -5.670863780675978,
                40.95587280192629
              ],
              [
                -5.670142675302974,
                40.95542104479616
              ],
              [
                -5.669903286313998,
                40.954969287666025
              ],
              [
                -5.669315699186131,
                40.954517530535895
              ],
              [
                -5.669203745783881,
                40.9538398948407
              ],
              [
                -5.669395937901528,
                40.95338813771056
              ],
              [
                -5.669794821739197,
                40.95312630735966
              ],
              [
                -5.670688962936401,
                40.95305786602852
              ],
              [
                -5.670987010002136,
                40.9531590048707
              ],
              [
                -5.671311777011379,
                40.95338813771056
              ],
              [
                -5.671583104133606,
                40.9539623057712
              ],
              [
                -5.672179198265075,
                40.95418786281324
              ],
              [
                -5.672575240143959,
                40.954517530535895
              ],
              [
                -5.672775292396546,
                40.95527550336947
              ],
              [
                -5.673223934859569,
                40.954969287666025
              ],
              [
                -5.673572026551452,
                40.95429165197083
              ],
              [
                -5.673967480659485,
                40.95407397571435
              ],
              [
                -5.67486162185669,
                40.95405306669906
              ],
              [
                -5.675457715988159,
                40.95442809578142
              ]
            ],
            [
              [
                -5.67307333946228,
                40.96301834095917
              ],
              [
                -5.67307333946228,
                40.963627415007444
              ],
              [
                -5.6724772453308105,
                40.964127707138665
              ],
              [
                -5.671583104133606,
                40.96416996448414
              ],
              [
                -5.67119938113665,
                40.96400443026867
              ],
              [
                -5.670813514139221,
                40.963552673138544
              ],
              [
                -5.670927767544788,
                40.96287503744335
              ],
              [
                -5.671583104133606,
                40.96246631393522
              ],
              [
                -5.6724772453308105,
                40.96250866878569
              ],
              [
                -5.67307333946228,
                40.96301834095917
              ]
            ],
            [
              [
                -5.668304586410523,
                40.9784334533286
              ],
              [
                -5.668280770341241,
                40.97913829412811
              ],
              [
                -5.668080547938233,
                40.979364172693174
              ],
              [
                -5.667708492279052,
                40.97957487441369
              ],
              [
                -5.6668143510818485,
                40.979621572570885
              ],
              [
                -5.666582994375191,
                40.97981592982331
              ],
              [
                -5.6668143510818485,
                40.97999539775803
              ],
              [
                -5.667708492279052,
                40.98004324781627
              ],
              [
                -5.668395878998955,
                40.98049356551851
              ],
              [
                -5.668466038154689,
                40.981171201213705
              ],
              [
                -5.668032122593177,
                40.981622958343834
              ],
              [
                -5.666516304016113,
                40.98182048196236
              ],
              [
                -5.665324115753174,
                40.98172704021325
              ],
              [
                -5.664728021621704,
                40.98211736359159
              ],
              [
                -5.6638338804245,
                40.98210612859434
              ],
              [
                -5.663199374004205,
                40.981622958343834
              ],
              [
                -5.663193657927299,
                40.98094532264864
              ],
              [
                -5.663332259864926,
                40.980719444083576
              ],
              [
                -5.663078412553476,
                40.98026768695344
              ],
              [
                -5.663103931300907,
                40.97959005125824
              ],
              [
                -5.663535833358765,
                40.97920433384782
              ],
              [
                -5.665026068687439,
                40.97855956594896
              ],
              [
                -5.665920209884644,
                40.97861476453572
              ],
              [
                -5.6662355890377025,
                40.97823477986785
              ],
              [
                -5.6668143510818485,
                40.97791198386732
              ],
              [
                -5.667708492279052,
                40.977950284212454
              ],
              [
                -5.668304586410523,
                40.9784334533286
              ]
            ],
            [
              [
                -5.6668143510818485,
                40.956836819652054
              ],
              [
                -5.666919891797812,
                40.957002194751624
              ],
              [
                -5.666864855266628,
                40.95767983044682
              ],
              [
                -5.666218256950378,
                40.95871360094114
              ],
              [
                -5.665920209884644,
                40.958867131865034
              ],
              [
                -5.665026068687439,
                40.95890223210245
              ],
              [
                -5.664296632699407,
                40.95835746614202
              ],
              [
                -5.664334332733416,
                40.95767983044682
              ],
              [
                -5.664657655830095,
                40.957002194751624
              ],
              [
                -5.665026068687439,
                40.956605027385784
              ],
              [
                -5.665324115753174,
                40.95646437973172
              ],
              [
                -5.666218256950378,
                40.9564511370763
              ],
              [
                -5.6668143510818485,
                40.956836819652054
              ]
            ],
            [
              [
                -5.661449503898621,
                40.98162130153333
              ],
              [
                -5.661600755454823,
                40.9818488369089
              ],
              [
                -5.661544522547384,
                40.9825264726041
              ],
              [
                -5.660883082260394,
                40.982978229734236
              ],
              [
                -5.6599592685699465,
                40.983076498109085
              ],
              [
                -5.659363174438477,
                40.9828177909979
              ],
              [
                -5.6591220533512505,
                40.9825264726041
              ],
              [
                -5.65914727441735,
                40.9818488369089
              ],
              [
                -5.659661221504211,
                40.9814239451437
              ],
              [
                -5.660853409767151,
                40.98128466368719
              ],
              [
                -5.661449503898621,
                40.98162130153333
              ]
            ],
            [
              [
                -5.656978797912598,
                40.98041775550974
              ],
              [
                -5.657188352884525,
                40.980719444083576
              ],
              [
                -5.657188352884525,
                40.981171201213705
              ],
              [
                -5.656680750846863,
                40.98172826415772
              ],
              [
                -5.656382703781128,
                40.981832326062516
              ],
              [
                -5.6554885625839235,
                40.98176351854054
              ],
              [
                -5.655190515518188,
                40.98159402938183
              ],
              [
                -5.654901048257652,
                40.981171201213705
              ],
              [
                -5.654901048257652,
                40.980719444083576
              ],
              [
                -5.6554885625839235,
                40.980176556257504
              ],
              [
                -5.656382703781128,
                40.98010822722756
              ],
              [
                -5.656978797912598,
                40.98041775550974
              ]
            ],
            [
              [
                -5.6441627740859985,
                40.965298208864425
              ],
              [
                -5.644180323761849,
                40.965811458789204
              ],
              [
                -5.643566679954529,
                40.96634328593044
              ],
              [
                -5.642672538757324,
                40.96638835301872
              ],
              [
                -5.642350180919371,
                40.966263215919334
              ],
              [
                -5.64191445770474,
                40.965811458789204
              ],
              [
                -5.641983016611239,
                40.96513382309401
              ],
              [
                -5.642672538757324,
                40.96468169049461
              ],
              [
                -5.643566679954529,
                40.96472733361986
              ],
              [
                -5.643897997509009,
                40.96490794452894
              ],
              [
                -5.6441627740859985,
                40.965298208864425
              ]
            ],
            [
              [
                -5.642374491691589,
                40.95382606290534
              ],
              [
                -5.642507714149328,
                40.954517530535895
              ],
              [
                -5.64213235480104,
                40.954969287666025
              ],
              [
                -5.6417783975601195,
                40.955130218218514
              ],
              [
                -5.640884256362915,
                40.95511466441229
              ],
              [
                -5.6405764107667125,
                40.954969287666025
              ],
              [
                -5.640204537618075,
                40.954517530535895
              ],
              [
                -5.640326908145105,
                40.9538398948407
              ],
              [
                -5.640884256362915,
                40.95346572441828
              ],
              [
                -5.6417783975601195,
                40.95345016446658
              ],
              [
                -5.642374491691589,
                40.95382606290534
              ]
            ],
            [
              [
                -5.639095973968506,
                40.97146413312203
              ],
              [
                -5.639388674095864,
                40.97191018004599
              ],
              [
                -5.639388674095864,
                40.972361937176125
              ],
              [
                -5.6384998798370365,
                40.973257846577894
              ],
              [
                -5.638201832771301,
                40.973389348010734
              ],
              [
                -5.6373076915740965,
                40.973389573271966
              ],
              [
                -5.636711597442627,
                40.972982380981605
              ],
              [
                -5.63661348759516,
                40.972813694306254
              ],
              [
                -5.636702057887928,
                40.972136058611056
              ],
              [
                -5.6374184539912635,
                40.97145842291586
              ],
              [
                -5.637903785705566,
                40.9712366808915
              ],
              [
                -5.6384998798370365,
                40.9712366808915
              ],
              [
                -5.639095973968506,
                40.97146413312203
              ]
            ],
            [
              [
                -5.635519409179688,
                40.97085781627163
              ],
              [
                -5.635691559763831,
                40.97123254435079
              ],
              [
                -5.635691559763831,
                40.97168430148093
              ],
              [
                -5.635221362113953,
                40.972141694215146
              ],
              [
                -5.634923315048217,
                40.97224794053477
              ],
              [
                -5.6340291738510135,
                40.972191866180395
              ],
              [
                -5.63344130151318,
                40.97168430148093
              ],
              [
                -5.633491123662404,
                40.97100666578573
              ],
              [
                -5.6340291738510135,
                40.970589034817024
              ],
              [
                -5.634923315048217,
                40.97053258543601
              ],
              [
                -5.635519409179688,
                40.97085781627163
              ]
            ],
            [
              [
                -5.634625267982483,
                40.973307898050706
              ],
              [
                -5.63474755531408,
                40.97349133000145
              ],
              [
                -5.634704087275818,
                40.974168965696656
              ],
              [
                -5.634072017138701,
                40.974620722826785
              ],
              [
                -5.633135032653809,
                40.974609466659
              ],
              [
                -5.632545001303908,
                40.974168965696656
              ],
              [
                -5.632502020727433,
                40.97349133000145
              ],
              [
                -5.633135032653809,
                40.97297145124403
              ],
              [
                -5.6340291738510135,
                40.972944932982756
              ],
              [
                -5.634625267982483,
                40.973307898050706
              ]
            ]
          ],
          [
            [
              [
                -5.677755722249823,
                40.97710538704251
              ],
              [
                -5.67763219689626,
                40.97733126560758
              ],
              [
                -5.677842092514038,
                40.977479259513075
              ],
              [
                -5.67799343138955,
                40.97733126560758
              ],
              [
                -5.67789208282557,
                40.97710538704251
              ],
              [
                -5.677755722249823,
                40.97710538704251
              ]
            ]
          ],
          [
            [
              [
                -5.67441067846641,
                40.97755714417264
              ],
              [
                -5.674563574790954,
                40.97777034408801
              ],
              [
                -5.674694878614864,
                40.97755714417264
              ],
              [
                -5.674563574790954,
                40.977361928274064
              ],
              [
                -5.67441067846641,
                40.97755714417264
              ]
            ]
          ],
          [
            [
              [
                -5.674532022897905,
                40.97846065843291
              ],
              [
                -5.674563574790954,
                40.97856814506361
              ],
              [
                -5.674594266471563,
                40.97846065843291
              ],
              [
                -5.674563574790954,
                40.978281254366166
              ],
              [
                -5.674532022897905,
                40.97846065843291
              ]
            ]
          ],
          [
            [
              [
                -5.674085629110071,
                40.97733126560758
              ],
              [
                -5.67426552772522,
                40.97743551832485
              ],
              [
                -5.674515352622342,
                40.97733126560758
              ],
              [
                -5.67426552772522,
                40.97723540490761
              ],
              [
                -5.674085629110071,
                40.97733126560758
              ]
            ]
          ],
          [
            [
              [
                -5.672444689103509,
                40.97755714417264
              ],
              [
                -5.6724772453308105,
                40.97756872568373
              ],
              [
                -5.6724871496693865,
                40.97755714417264
              ],
              [
                -5.6724772453308105,
                40.97754411519073
              ],
              [
                -5.672444689103509,
                40.97755714417264
              ]
            ]
          ],
          [
            [
              [
                -5.6717533597241525,
                40.97868653699798
              ],
              [
                -5.671881151199341,
                40.978739244903814
              ],
              [
                -5.671996919089488,
                40.97868653699798
              ],
              [
                -5.671881151199341,
                40.97862589534072
              ],
              [
                -5.6717533597241525,
                40.97868653699798
              ]
            ]
          ],
          [
            [
              [
                -5.667321182434818,
                40.963326794573476
              ],
              [
                -5.667410445213318,
                40.9634629102185
              ],
              [
                -5.6675076763670456,
                40.963326794573476
              ],
              [
                -5.667321182434818,
                40.963326794573476
              ]
            ]
          ],
          [
            [
              [
                -5.662073762339384,
                40.97507247995692
              ],
              [
                -5.6618968661904185,
                40.97484660139185
              ],
              [
                -5.661747550964355,
                40.97415771583144
              ],
              [
                -5.661623720115272,
                40.97439484426172
              ],
              [
                -5.660853409767151,
                40.97483103307401
              ],
              [
                -5.660257315635681,
                40.97483103307401
              ],
              [
                -5.6599592685699465,
                40.974683619367646
              ],
              [
                -5.659854704812948,
                40.97484660139185
              ],
              [
                -5.660853409767151,
                40.97485583509457
              ],
              [
                -5.6623436450958256,
                40.97540047673937
              ],
              [
                -5.662445886064031,
                40.97529835852198
              ],
              [
                -5.662073762339384,
                40.97507247995692
              ]
            ]
          ],
          [
            [
              [
                -5.6598733045253935,
                40.963552673138544
              ],
              [
                -5.6599592685699465,
                40.963715983150536
              ],
              [
                -5.660045678170794,
                40.963552673138544
              ],
              [
                -5.6599592685699465,
                40.96346149652973
              ],
              [
                -5.6598733045253935,
                40.963552673138544
              ]
            ]
          ],
          [
            [
              [
                -5.659494514501073,
                40.974620722826785
              ],
              [
                -5.659661221504211,
                40.97471571633036
              ],
              [
                -5.659892740189579,
                40.974620722826785
              ],
              [
                -5.659494514501073,
                40.974620722826785
              ]
            ]
          ],
          [
            [
              [
                -5.6587910079361565,
                40.974168965696656
              ],
              [
                -5.658469033241272,
                40.97407696129765
              ],
              [
                -5.65841628689298,
                40.97439484426172
              ],
              [
                -5.6590922929836855,
                40.97439484426172
              ],
              [
                -5.6587910079361565,
                40.974168965696656
              ]
            ]
          ],
          [
            [
              [
                -5.656382703781128,
                40.967831652492954
              ],
              [
                -5.656358485866273,
                40.9678443658748
              ],
              [
                -5.656382703781128,
                40.96785120562283
              ],
              [
                -5.656680750846863,
                40.967849962222196
              ],
              [
                -5.656741237546815,
                40.9678443658748
              ],
              [
                -5.656680750846863,
                40.967826771775
              ],
              [
                -5.656382703781128,
                40.967831652492954
              ]
            ]
          ],
          [
            [
              [
                -5.6542963743209835,
                40.97154926072378
              ],
              [
                -5.654053934250606,
                40.97168430148093
              ],
              [
                -5.6542963743209835,
                40.97191588701491
              ],
              [
                -5.654686335916452,
                40.97168430148093
              ],
              [
                -5.6542963743209835,
                40.97154926072378
              ]
            ]
          ],
          [
            [
              [
                -5.653634637289752,
                40.97145842291586
              ],
              [
                -5.653700280189514,
                40.971491790836026
              ],
              [
                -5.653850356068811,
                40.97145842291586
              ],
              [
                -5.653700280189514,
                40.9714284835077
              ],
              [
                -5.653634637289752,
                40.97145842291586
              ]
            ]
          ],
          [
            [
              [
                -5.651524673508153,
                40.96174564461801
              ],
              [
                -5.651315903663635,
                40.96149769304033
              ],
              [
                -5.651017856597901,
                40.961437608912945
              ],
              [
                -5.650928464437964,
                40.96219740174814
              ],
              [
                -5.65161395072937,
                40.96268083147519
              ],
              [
                -5.65163696562268,
                40.96197152318308
              ],
              [
                -5.651524673508153,
                40.96174564461801
              ]
            ]
          ],
          [
            [
              [
                -5.644621880391494,
                40.969877272960396
              ],
              [
                -5.6446407334924205,
                40.96965139439533
              ],
              [
                -5.644460821151734,
                40.96950238473159
              ],
              [
                -5.6441627740859985,
                40.96961002697972
              ],
              [
                -5.644758868217468,
                40.97027223460944
              ],
              [
                -5.64491393669129,
                40.970103151525464
              ],
              [
                -5.644621880391494,
                40.969877272960396
              ]
            ]
          ]
        ]
      }
    }
  ]
}