{
  "type": "FeatureCollection",
  "features": [
    {
      "type": "Feature",
      "properties": {},
      "geometry": {
        "type": "MultiPolygon",
        "coordinates": [
          [
            [
              [
                -5.682461758137752,
                40.952710502015364
              ],
              [
                -5.682395815714957,
                40.95338813771056
              ],
              [
                -5.681716704368592,
                40.95383947393985
              ],
              [
                -5.680822563171387,
                40.95380127543043
              ],
              [
                -5.6804774548576304,
                40.95361401627563
              ],
              [
                -5.680264571409831,
                40.95338813771056
              ],
              [
                -5.680198357540452,
                40.952710502015364
              ],
              [
                -5.665165306609877,
                40.952710502015364
              ],
              [
                -5.665199783735275,
                40.95338813771056
              ],
              [
                -5.665026068687439,
                40.95362736452096
              ],
              [
                -5.664429974555969,
                40.95394022359157
              ],
              [
                -5.6638338804245,
                40.95394022359157
              ],
              [
                -5.663237786293029,
                40.95371021034003
              ],
              [
                -5.662963245662162,
                40.95338813771056
              ],
              [
                -5.6629980450362645,
                40.952710502015364
              ],
              [
                -5.63075065612793,
                40.952710502015364
              ],
              [
                -5.63075065612793,
                40.983655865429434
              ],
              [
                -5.690360069274902,
                40.983655865429434
              ],
              [
                -5.690360069274902,
                40.952710502015364
              ],
              [
                -5.682461758137752,
                40.952710502015364
              ]
            ],
            [
              [
                -5.686783504486084,
                40.957531116496256
              ],
              [
                -5.686951536989742,
                40.95790570901189
              ],
              [
                -5.686951536989742,
                40.95835746614202
              ],
              [
                -5.686485457420349,
                40.958810880850265
              ],
              [
                -5.686187410354615,
                40.95891770159679
              ],
              [
                -5.68529326915741,
                40.95886325229413
              ],
              [
                -5.684704284517888,
                40.95835746614202
              ],
              [
                -5.684751032250631,
                40.95767983044682
              ],
              [
                -5.68529326915741,
                40.95725839207144
              ],
              [
                -5.686187410354615,
                40.95720364070204
              ],
              [
                -5.686783504486084,
                40.957531116496256
              ]
            ],
            [
              [
                -5.6826108455657955,
                40.96389682095601
              ],
              [
                -5.682890573593968,
                40.96423030883374
              ],
              [
                -5.682890573593968,
                40.96468206596387
              ],
              [
                -5.682641215131982,
                40.96513382309401
              ],
              [
                -5.682312798500061,
                40.965323315554706
              ],
              [
                -5.6814186573028564,
                40.96538553174816
              ],
              [
                -5.680689807168777,
                40.96490794452894
              ],
              [
                -5.680642002830619,
                40.96423030883374
              ],
              [
                -5.681120610237121,
                40.96376992979834
              ],
              [
                -5.682014751434326,
                40.963665892993106
              ],
              [
                -5.6826108455657955,
                40.96389682095601
              ]
            ],
            [
              [
                -5.681716704368592,
                40.97149874559624
              ],
              [
                -5.6820021328341195,
                40.97191018004599
              ],
              [
                -5.6820021328341195,
                40.972361937176125
              ],
              [
                -5.6814186573028564,
                40.97290802839612
              ],
              [
                -5.680524516105652,
                40.97298024243611
              ],
              [
                -5.680111270188371,
                40.972813694306254
              ],
              [
                -5.679710763158861,
                40.972361937176125
              ],
              [
                -5.679814271474115,
                40.97168430148093
              ],
              [
                -5.680226469039917,
                40.97135595493337
              ],
              [
                -5.681120610237121,
                40.971253491789724
              ],
              [
                -5.681716704368592,
                40.97149874559624
              ]
            ],
            [
              [
                -5.678736233711243,
                40.97788823603211
              ],
              [
                -5.678789092568284,
                40.97846065843291
              ],
              [
                -5.678438186645508,
                40.97888470538569
              ],
              [
                -5.678140139579773,
                40.979033222217346
              ],
              [
                -5.677245998382569,
                40.9790647043041
              ],
              [
                -5.676649904251098,
                40.978711440873994
              ],
              [
                -5.675723261090752,
                40.97868653699798
              ],
              [
                -5.675159668922424,
                40.978487524000066
              ],
              [
                -5.674912813320921,
                40.97823477986785
              ],
              [
                -5.674847872412237,
                40.97755714417264
              ],
              [
                -5.675457715988159,
                40.977029928089415
              ],
              [
                -5.676351857185364,
                40.97698342014076
              ],
              [
                -5.677015042262005,
                40.97733126560758
              ],
              [
                -5.678140139579773,
                40.97740167740337
              ],
              [
                -5.678736233711243,
                40.97788823603211
              ]
            ],
            [
              [
                -5.678140139579773,
                40.97225614228731
              ],
              [
                -5.678390349527357,
                40.97258781574119
              ],
              [
                -5.678390349527357,
                40.97303957287132
              ],
              [
                -5.677544045448303,
                40.97424670610338
              ],
              [
                -5.677245998382569,
                40.974386204013314
              ],
              [
                -5.676351857185364,
                40.974395539291855
              ],
              [
                -5.675708778096731,
                40.97394308713159
              ],
              [
                -5.675658281285092,
                40.97326545143639
              ],
              [
                -5.676533040079839,
                40.972136058611056
              ],
              [
                -5.6769479513168335,
                40.97197920412779
              ],
              [
                -5.677544045448303,
                40.97197920412779
              ],
              [
                -5.678140139579773,
                40.97225614228731
              ]
            ],
            [
              [
                -5.677245998382569,
                40.969150639810934
              ],
              [
                -5.677245998382569,
                40.9698952856411
              ],
              [
                -5.676680756509658,
                40.970329030090525
              ],
              [
                -5.676053810119629,
                40.970372841239076
              ],
              [
                -5.675755763053894,
                40.970542164279976
              ],
              [
                -5.675739194890122,
                40.97145842291586
              ],
              [
                -5.675159668922424,
                40.97192903868044
              ],
              [
                -5.67307333946228,
                40.971854092867936
              ],
              [
                -5.672703858291334,
                40.97168430148093
              ],
              [
                -5.672027562341254,
                40.97100666578573
              ],
              [
                -5.672095995637875,
                40.970329030090525
              ],
              [
                -5.672621535500753,
                40.969877272960396
              ],
              [
                -5.67307333946228,
                40.969678324859515
              ],
              [
                -5.67366943359375,
                40.969678324859515
              ],
              [
                -5.67486162185669,
                40.969942911989094
              ],
              [
                -5.675015481712271,
                40.969877272960396
              ],
              [
                -5.675159668922424,
                40.96904780635416
              ],
              [
                -5.675755763053894,
                40.96867664362377
              ],
              [
                -5.676649904251098,
                40.968699419415636
              ],
              [
                -5.677245998382569,
                40.969150639810934
              ]
            ],
            [
              [
                -5.675755763053894,
                40.97527097746838
              ],
              [
                -5.67590639748039,
                40.97552423708705
              ],
              [
                -5.67590639748039,
                40.97597599421718
              ],
              [
                -5.67554351865745,
                40.976427751347316
              ],
              [
                -5.675159668922424,
                40.97660231169945
              ],
              [
                -5.67426552772522,
                40.976574900851894
              ],
              [
                -5.673963568772165,
                40.976427751347316
              ],
              [
                -5.673606127682331,
                40.97597599421718
              ],
              [
                -5.673733816149217,
                40.97529835852198
              ],
              [
                -5.67426552772522,
                40.97493874621467
              ],
              [
                -5.675159668922424,
                40.974911381924194
              ],
              [
                -5.675755763053894,
                40.97527097746838
              ]
            ],
            [
              [
                -5.674563574790954,
                40.96067977855848
              ],
              [
                -5.674663504646838,
                40.96129388748788
              ],
              [
                -5.674558140760792,
                40.96219740174814
              ],
              [
                -5.67426552772522,
                40.962553499962155
              ],
              [
                -5.67366943359375,
                40.9627804494504
              ],
              [
                -5.67307333946228,
                40.9627804494504
              ],
              [
                -5.6724374250561205,
                40.96242328031321
              ],
              [
                -5.6722919072634905,
                40.96219740174814
              ],
              [
                -5.672336387819842,
                40.961068008922815
              ],
              [
                -5.672017576228134,
                40.96061625179268
              ],
              [
                -5.672017576228134,
                40.96016449466255
              ],
              [
                -5.67237837087384,
                40.95971273753241
              ],
              [
                -5.672775292396546,
                40.95953359196943
              ],
              [
                -5.67366943359375,
                40.95956840122879
              ],
              [
                -5.67420062311789,
                40.95993861609748
              ],
              [
                -5.674563574790954,
                40.96067977855848
              ]
            ],
            [
              [
                -5.673967480659485,
                40.97293110511223
              ],
              [
                -5.674065182331984,
                40.97371720856652
              ],
              [
                -5.673371386528015,
                40.974248939664285
              ],
              [
                -5.6724772453308105,
                40.97423504640348
              ],
              [
                -5.671583104133606,
                40.97399711459368
              ],
              [
                -5.670875528816198,
                40.97349133000145
              ],
              [
                -5.670871172882805,
                40.972813694306254
              ],
              [
                -5.671047536238628,
                40.97258781574119
              ],
              [
                -5.671583104133606,
                40.97229994653575
              ],
              [
                -5.6724772453308105,
                40.972088705384756
              ],
              [
                -5.67307333946228,
                40.972034791542335
              ],
              [
                -5.673371386528015,
                40.97219839961054
              ],
              [
                -5.67366943359375,
                40.9724084050438
              ],
              [
                -5.673967480659485,
                40.97293110511223
              ]
            ],
            [
              [
                -5.67307333946228,
                40.967380202661296
              ],
              [
                -5.673298035298389,
                40.967618487309736
              ],
              [
                -5.6733617082314325,
                40.96829612300493
              ],
              [
                -5.67307333946228,
                40.96864513717398
              ],
              [
                -5.672341679933124,
                40.96897375870013
              ],
              [
                -5.672257618679823,
                40.96942551583026
              ],
              [
                -5.671789742800887,
                40.969877272960396
              ],
              [
                -5.670688962936401,
                40.96996645222647
              ],
              [
                -5.670390915870667,
                40.969834125449445
              ],
              [
                -5.6700928688049315,
                40.97040648123642
              ],
              [
                -5.669496774673462,
                40.970741136560065
              ],
              [
                -5.668304586410523,
                40.970596059120176
              ],
              [
                -5.6676523446395075,
                40.970103151525464
              ],
              [
                -5.667651991628508,
                40.96942551583026
              ],
              [
                -5.668199765577115,
                40.96897375870013
              ],
              [
                -5.669198727607727,
                40.96893009376574
              ],
              [
                -5.669794821739197,
                40.96913674758191
              ],
              [
                -5.669993244978345,
                40.96897375870013
              ],
              [
                -5.670245472420015,
                40.96852200157
              ],
              [
                -5.67027617445017,
                40.968070244439865
              ],
              [
                -5.670688962936401,
                40.96760177338158
              ],
              [
                -5.671881151199341,
                40.96715516038396
              ],
              [
                -5.6724772453308105,
                40.96715516038396
              ],
              [
                -5.67307333946228,
                40.967380202661296
              ]
            ],
            [
              [
                -5.6724772453308105,
                40.955944445879936
              ],
              [
                -5.672559419085718,
                40.95655043762149
              ],
              [
                -5.672441850484777,
                40.956776316186556
              ],
              [
                -5.671881151199341,
                40.95715470227598
              ],
              [
                -5.6712850570678714,
                40.95722319476185
              ],
              [
                -5.671392017456248,
                40.95790570901189
              ],
              [
                -5.6712712987106695,
                40.95813158757695
              ],
              [
                -5.670987010002136,
                40.95838146374017
              ],
              [
                -5.670292632610279,
                40.95858334470709
              ],
              [
                -5.670282015125813,
                40.958809223272155
              ],
              [
                -5.670796358429261,
                40.95948685896735
              ],
              [
                -5.6707765437299305,
                40.96016449466255
              ],
              [
                -5.671193781502174,
                40.96061625179268
              ],
              [
                -5.671105706433144,
                40.96129388748788
              ],
              [
                -5.670390915870667,
                40.96173747601826
              ],
              [
                -5.669422465843372,
                40.96174564461801
              ],
              [
                -5.669378547123484,
                40.96219740174814
              ],
              [
                -5.669496774673462,
                40.9623066857438
              ],
              [
                -5.670120563035002,
                40.96242328031321
              ],
              [
                -5.670927828461744,
                40.96310091600841
              ],
              [
                -5.670992212688008,
                40.96400443026867
              ],
              [
                -5.670610939276003,
                40.96445618739881
              ],
              [
                -5.671453815170675,
                40.96513382309401
              ],
              [
                -5.671446214604261,
                40.965811458789204
              ],
              [
                -5.670987010002136,
                40.96622311268367
              ],
              [
                -5.6700928688049315,
                40.96666959116057
              ],
              [
                -5.668900680541992,
                40.966552713533105
              ],
              [
                -5.668304586410523,
                40.96678749228341
              ],
              [
                -5.668080378247791,
                40.96694085161454
              ],
              [
                -5.668137739461703,
                40.967618487309736
              ],
              [
                -5.667708492279052,
                40.96806508402549
              ],
              [
                -5.666516304016113,
                40.96826084236509
              ],
              [
                -5.6661779605136156,
                40.96852200157
              ],
              [
                -5.665324939626786,
                40.96874788013506
              ],
              [
                -5.66576827728346,
                40.96897375870013
              ],
              [
                -5.666065552782742,
                40.96942551583026
              ],
              [
                -5.666038257499896,
                40.970103151525464
              ],
              [
                -5.665700847603672,
                40.97055490865559
              ],
              [
                -5.665324115753174,
                40.970742602418206
              ],
              [
                -5.664429974555969,
                40.97074369645779
              ],
              [
                -5.664049906557565,
                40.97055490865559
              ],
              [
                -5.663535833358765,
                40.9699268884891
              ],
              [
                -5.663237786293029,
                40.97002267668064
              ],
              [
                -5.663111082993068,
                40.970329030090525
              ],
              [
                -5.66264169216156,
                40.97068602238287
              ],
              [
                -5.661747550964355,
                40.970766843304965
              ],
              [
                -5.661151456832886,
                40.97053030128388
              ],
              [
                -5.660625793134373,
                40.969877272960396
              ],
              [
                -5.6599592685699465,
                40.9696344320315
              ],
              [
                -5.659363174438477,
                40.96907776042992
              ],
              [
                -5.6587670803070065,
                40.96925983332968
              ],
              [
                -5.657276844978332,
                40.96923733539238
              ],
              [
                -5.656680750846863,
                40.96900325067955
              ],
              [
                -5.656433268398115,
                40.96874788013506
              ],
              [
                -5.656037736952408,
                40.9678443658748
              ],
              [
                -5.6560872630470715,
                40.9671667301796
              ],
              [
                -5.656294128807388,
                40.96694085161454
              ],
              [
                -5.656978797912598,
                40.966707919940845
              ],
              [
                -5.657574892044067,
                40.966707919940845
              ],
              [
                -5.658170986175537,
                40.967070287045
              ],
              [
                -5.659065127372742,
                40.966872643125605
              ],
              [
                -5.659244156384635,
                40.96671497304947
              ],
              [
                -5.659179979268341,
                40.96603733735427
              ],
              [
                -5.659327536073197,
                40.965811458789204
              ],
              [
                -5.659661221504211,
                40.96556449463669
              ],
              [
                -5.660586618797008,
                40.96535970165907
              ],
              [
                -5.660257315635681,
                40.96499912449714
              ],
              [
                -5.6599592685699465,
                40.9649444801091
              ],
              [
                -5.658170986175537,
                40.96506321370144
              ],
              [
                -5.657574892044067,
                40.96474737685686
              ],
              [
                -5.656382703781128,
                40.964787477225734
              ],
              [
                -5.655749093391429,
                40.96423030883374
              ],
              [
                -5.655841604233785,
                40.963552673138544
              ],
              [
                -5.656084656715393,
                40.963314538291456
              ],
              [
                -5.656680750846863,
                40.96312515706228
              ],
              [
                -5.657276844978332,
                40.96312515706228
              ],
              [
                -5.657872939109803,
                40.96343923679021
              ],
              [
                -5.659363174438477,
                40.963178814668446
              ],
              [
                -5.6595420414596385,
                40.96242328031321
              ],
              [
                -5.6593507167423125,
                40.96197152318308
              ],
              [
                -5.6593507167423125,
                40.961519766052945
              ],
              [
                -5.6599592685699465,
                40.9609912197189
              ],
              [
                -5.660853409767151,
                40.96094345351742
              ],
              [
                -5.661747550964355,
                40.961428409499504
              ],
              [
                -5.6623436450958256,
                40.96115015303392
              ],
              [
                -5.662410470636223,
                40.961068008922815
              ],
              [
                -5.661449503898621,
                40.96064160638629
              ],
              [
                -5.660555362701416,
                40.96059217957062
              ],
              [
                -5.65999886323625,
                40.96016449466255
              ],
              [
                -5.659953496433998,
                40.95948685896735
              ],
              [
                -5.660257315635681,
                40.95913701827012
              ],
              [
                -5.660985212529286,
                40.958809223272155
              ],
              [
                -5.661053557477389,
                40.95813158757695
              ],
              [
                -5.661266546522813,
                40.95790570901189
              ],
              [
                -5.661747550964355,
                40.95767306345324
              ],
              [
                -5.66264169216156,
                40.95771879739913
              ],
              [
                -5.663237786293029,
                40.958186199740275
              ],
              [
                -5.665324115753174,
                40.958775532046005
              ],
              [
                -5.665930781899409,
                40.95858334470709
              ],
              [
                -5.665774597725653,
                40.95835746614202
              ],
              [
                -5.665862335185591,
                40.957228073316685
              ],
              [
                -5.666218256950378,
                40.95677663589221
              ],
              [
                -5.666516304016113,
                40.95662853560124
              ],
              [
                -5.667410445213318,
                40.956593985102295
              ],
              [
                -5.667708492279052,
                40.956711844124115
              ],
              [
                -5.668900680541992,
                40.95763829171848
              ],
              [
                -5.669496774673462,
                40.95698065267242
              ],
              [
                -5.670259951898293,
                40.956776316186556
              ],
              [
                -5.670259138106161,
                40.95609868049136
              ],
              [
                -5.670688962936401,
                40.955615393455524
              ],
              [
                -5.670987010002136,
                40.95549020152319
              ],
              [
                -5.671881151199341,
                40.95550575065481
              ],
              [
                -5.6724772453308105,
                40.955944445879936
              ]
            ],
            [
              [
                -5.6700928688049315,
                40.97117781722949
              ],
              [
                -5.670257779945008,
                40.97145842291586
              ],
              [
                -5.670257779945008,
                40.97191018004599
              ],
              [
                -5.66987440459176,
                40.972361937176125
              ],
              [
                -5.669496774673462,
                40.972526824353395
              ],
              [
                -5.668602633476257,
                40.9724904465048
              ],
              [
                -5.667957660701605,
                40.97191018004599
              ],
              [
                -5.668074937026181,
                40.97123254435079
              ],
              [
                -5.668602633476257,
                40.97086452436064
              ],
              [
                -5.669496774673462,
                40.97082202234434
              ],
              [
                -5.6700928688049315,
                40.97117781722949
              ]
            ],
            [
              [
                -5.668602633476257,
                40.95467085840498
              ],
              [
                -5.668835861122652,
                40.954969287666025
              ],
              [
                -5.668784475185172,
                40.95564692336122
              ],
              [
                -5.668304586410523,
                40.956039122855564
              ],
              [
                -5.667410445213318,
                40.956131604933624
              ],
              [
                -5.6668143510818485,
                40.955851305508865
              ],
              [
                -5.666495334141071,
                40.95519516623109
              ],
              [
                -5.665924546595974,
                40.95474340910096
              ],
              [
                -5.6659077031694025,
                40.95406577340576
              ],
              [
                -5.666516304016113,
                40.953574283080044
              ],
              [
                -5.667410445213318,
                40.95354028046634
              ],
              [
                -5.667959221999594,
                40.9538398948407
              ],
              [
                -5.668304586410523,
                40.95445315775554
              ],
              [
                -5.668602633476257,
                40.95467085840498
              ]
            ],
            [
              [
                -5.665920209884644,
                40.955557741202156
              ],
              [
                -5.666071228571783,
                40.956324559056426
              ],
              [
                -5.66564549961444,
                40.956776316186556
              ],
              [
                -5.665324115753174,
                40.95690494132614
              ],
              [
                -5.664429974555969,
                40.95686842684721
              ],
              [
                -5.663799781035994,
                40.956324559056426
              ],
              [
                -5.663876305918697,
                40.95564692336122
              ],
              [
                -5.664429974555969,
                40.95524253623716
              ],
              [
                -5.665324115753174,
                40.95520561721478
              ],
              [
                -5.665920209884644,
                40.955557741202156
              ]
            ],
            [
              [
                -5.664131927490234,
                40.97189691054003
              ],
              [
                -5.6643233013741305,
                40.972136058611056
              ],
              [
                -5.664324542497335,
                40.972813694306254
              ],
              [
                -5.6638338804245,
                40.97324678243005
              ],
              [
                -5.662939739227295,
                40.97339198918596
              ],
              [
                -5.66211925540822,
                40.972813694306254
              ],
              [
                -5.662120500186225,
                40.972136058611056
              ],
              [
                -5.66264169216156,
                40.97169090596728
              ],
              [
                -5.663535833358765,
                40.97160888190819
              ],
              [
                -5.664131927490234,
                40.97189691054003
              ]
            ],
            [
              [
                -5.663535833358765,
                40.9738488201958
              ],
              [
                -5.663765166577802,
                40.974168965696656
              ],
              [
                -5.663765166577802,
                40.974620722826785
              ],
              [
                -5.663413188445948,
                40.97529835852198
              ],
              [
                -5.66360438915481,
                40.97552423708705
              ],
              [
                -5.663625507788854,
                40.97620187278225
              ],
              [
                -5.662931384027421,
                40.97733126560758
              ],
              [
                -5.6623436450958256,
                40.97774552593041
              ],
              [
                -5.661449503898621,
                40.977760937462946
              ],
              [
                -5.6606310971700955,
                40.97733126560758
              ],
              [
                -5.660431187307052,
                40.97710538704251
              ],
              [
                -5.6603907602957415,
                40.976427751347316
              ],
              [
                -5.660257315635681,
                40.97624398884799
              ],
              [
                -5.659661221504211,
                40.97658446156236
              ],
              [
                -5.6587670803070065,
                40.97654772562984
              ],
              [
                -5.658125697872483,
                40.97597599421718
              ],
              [
                -5.658125697872483,
                40.97552423708705
              ],
              [
                -5.658467614467251,
                40.97507247995692
              ],
              [
                -5.6587670803070065,
                40.974922206821056
              ],
              [
                -5.659661221504211,
                40.974885324525076
              ],
              [
                -5.660312995291273,
                40.97529835852198
              ],
              [
                -5.660555362701416,
                40.976190937179865
              ],
              [
                -5.66180849115557,
                40.97507247995692
              ],
              [
                -5.661477735522172,
                40.974620722826785
              ],
              [
                -5.661477735522172,
                40.974168965696656
              ],
              [
                -5.661747550964355,
                40.97381377834711
              ],
              [
                -5.6623436450958256,
                40.97355282285755
              ],
              [
                -5.662939739227295,
                40.97355282285755
              ],
              [
                -5.663535833358765,
                40.9738488201958
              ]
            ],
            [
              [
                -5.659363174438477,
                40.95818368913794
              ],
              [
                -5.659478513813759,
                40.95835746614202
              ],
              [
                -5.659435831064069,
                40.959035101837216
              ],
              [
                -5.6588063091833645,
                40.95948685896735
              ],
              [
                -5.657872939109803,
                40.959478477876736
              ],
              [
                -5.657276169100298,
                40.959035101837216
              ],
              [
                -5.657234147589418,
                40.95835746614202
              ],
              [
                -5.657872939109803,
                40.957836108195984
              ],
              [
                -5.6587670803070065,
                40.9578135367292
              ],
              [
                -5.659363174438477,
                40.95818368913794
              ]
            ],
            [
              [
                -5.655786609649658,
                40.97748583987328
              ],
              [
                -5.655829179679074,
                40.97800890130278
              ],
              [
                -5.655556400057534,
                40.97846065843291
              ],
              [
                -5.655190515518188,
                40.97865808451598
              ],
              [
                -5.6542963743209835,
                40.97868616885329
              ],
              [
                -5.652949642533788,
                40.97778302273771
              ],
              [
                -5.652803154478028,
                40.97755714417264
              ],
              [
                -5.652803154478028,
                40.97710538704251
              ],
              [
                -5.653092745712503,
                40.976653629912384
              ],
              [
                -5.65340223312378,
                40.97648450315515
              ],
              [
                -5.6542963743209835,
                40.9764281353512
              ],
              [
                -5.654779376332665,
                40.976653629912384
              ],
              [
                -5.655786609649658,
                40.97748583987328
              ]
            ],
            [
              [
                -5.655190515518188,
                40.96470758647011
              ],
              [
                -5.655272083226799,
                40.96535970165907
              ],
              [
                -5.654594421386719,
                40.96593389326029
              ],
              [
                -5.653700280189514,
                40.96594494551027
              ],
              [
                -5.6533903265135645,
                40.965811458789204
              ],
              [
                -5.652987265959746,
                40.96535970165907
              ],
              [
                -5.653080610363871,
                40.96468206596387
              ],
              [
                -5.653700280189514,
                40.96426891009122
              ],
              [
                -5.654594421386719,
                40.96428003703468
              ],
              [
                -5.655190515518188,
                40.96470758647011
              ]
            ],
            [
              [
                -5.653104186058044,
                40.958459763187605
              ],
              [
                -5.653309751565663,
                40.958809223272155
              ],
              [
                -5.653309751565663,
                40.959260980402284
              ],
              [
                -5.652806138992309,
                40.959765590348006
              ],
              [
                -5.652508091926575,
                40.95986922570846
              ],
              [
                -5.65161395072937,
                40.959802570781164
              ],
              [
                -5.651025006743858,
                40.959260980402284
              ],
              [
                -5.651120278397956,
                40.95858334470709
              ],
              [
                -5.65161395072937,
                40.95821355351812
              ],
              [
                -5.652508091926575,
                40.95814638724815
              ],
              [
                -5.653104186058044,
                40.958459763187605
              ]
            ],
            [
              [
                -5.649229574203491,
                40.98053021964314
              ],
              [
                -5.649325034724717,
                40.981171201213705
              ],
              [
                -5.64894732733618,
                40.981622958343834
              ],
              [
                -5.6486334800720215,
                40.981768252332245
              ],
              [
                -5.647739338874817,
                40.9817756876199
              ],
              [
                -5.647403508926265,
                40.981622958343834
              ],
              [
                -5.647024040654171,
                40.981171201213705
              ],
              [
                -5.64714009166252,
                40.98049356551851
              ],
              [
                -5.647739338874817,
                40.9801032426007
              ],
              [
                -5.6486334800720215,
                40.980110689038
              ],
              [
                -5.649229574203491,
                40.98053021964314
              ]
            ],
            [
              [
                -5.648335433006286,
                40.968110635829525
              ],
              [
                -5.64846336953278,
                40.96829612300493
              ],
              [
                -5.648431908160535,
                40.96897375870013
              ],
              [
                -5.647739338874817,
                40.96945465686598
              ],
              [
                -5.646845197677612,
                40.969421702663645
              ],
              [
                -5.6464030752082826,
                40.9691996372652
              ],
              [
                -5.646072315574912,
                40.96874788013506
              ],
              [
                -5.646206712641495,
                40.968070244439865
              ],
              [
                -5.646845197677612,
                40.96769290302466
              ],
              [
                -5.647739338874817,
                40.967740919109694
              ],
              [
                -5.648335433006286,
                40.968110635829525
              ]
            ],
            [
              [
                -5.64118230342865,
                40.971613442450725
              ],
              [
                -5.641270595184065,
                40.972361937176125
              ],
              [
                -5.64058620929718,
                40.972891880619144
              ],
              [
                -5.639692068099976,
                40.97288415124704
              ],
              [
                -5.639032603241129,
                40.972361937176125
              ],
              [
                -5.639067245866319,
                40.97168430148093
              ],
              [
                -5.639692068099976,
                40.971225843178445
              ],
              [
                -5.64058620929718,
                40.97121825306585
              ],
              [
                -5.64118230342865,
                40.971613442450725
              ]
            ]
          ],
          [
            [
              [
                -5.669198727607727,
                40.964530098393226
              ],
              [
                -5.668602633476257,
                40.96416706472079
              ],
              [
                -5.668445504904054,
                40.96423030883374
              ],
              [
                -5.66839325263963,
                40.96490794452894
              ],
              [
                -5.668900680541992,
                40.96515776912041
              ],
              [
                -5.669734874904329,
                40.96468206596387
              ],
              [
                -5.669198727607727,
                40.964530098393226
              ]
            ]
          ],
          [
            [
              [
                -5.669179148790224,
                40.95813158757695
              ],
              [
                -5.669198727607727,
                40.95814426242496
              ],
              [
                -5.669209792287408,
                40.95813158757695
              ],
              [
                -5.669198727607727,
                40.958113609573296
              ],
              [
                -5.669179148790224,
                40.95813158757695
              ]
            ]
          ],
          [
            [
              [
                -5.6675727781082585,
                40.96264915887828
              ],
              [
                -5.667410445213318,
                40.96255060705449
              ],
              [
                -5.667318795697511,
                40.96264915887828
              ],
              [
                -5.6673204787326386,
                40.963326794573476
              ],
              [
                -5.6674171211295405,
                40.963552673138544
              ],
              [
                -5.667708492279052,
                40.96371263140916
              ],
              [
                -5.667936664263472,
                40.96287503744335
              ],
              [
                -5.6675727781082585,
                40.96264915887828
              ]
            ]
          ],
          [
            [
              [
                -5.664959610889578,
                40.965585580224136
              ],
              [
                -5.664793446568015,
                40.965811458789204
              ],
              [
                -5.665174657949703,
                40.965811458789204
              ],
              [
                -5.665143440827912,
                40.965585580224136
              ],
              [
                -5.664959610889578,
                40.965585580224136
              ]
            ]
          ],
          [
            [
              [
                -5.663531493029191,
                40.968070244439865
              ],
              [
                -5.662939739227295,
                40.9674219556459
              ],
              [
                -5.6623436450958256,
                40.96737693809305
              ],
              [
                -5.6619049471181775,
                40.9671667301796
              ],
              [
                -5.661449503898621,
                40.966561190153605
              ],
              [
                -5.661151456832886,
                40.96695366123336
              ],
              [
                -5.660257315635681,
                40.96725328297007
              ],
              [
                -5.660198312500581,
                40.96739260874467
              ],
              [
                -5.660555362701416,
                40.96770940964122
              ],
              [
                -5.661449503898621,
                40.96758204996024
              ],
              [
                -5.66204559803009,
                40.96774085074942
              ],
              [
                -5.662370330625065,
                40.968070244439865
              ],
              [
                -5.662270133776588,
                40.96897375870013
              ],
              [
                -5.662939739227295,
                40.96921272069297
              ],
              [
                -5.663237786293029,
                40.968555488157854
              ],
              [
                -5.663753943296178,
                40.96829612300493
              ],
              [
                -5.663531493029191,
                40.968070244439865
              ]
            ]
          ],
          [
            [
              [
                -5.6623436450958256,
                40.96333969792834
              ],
              [
                -5.66204559803009,
                40.963002548721214
              ],
              [
                -5.661747550964355,
                40.96300866011396
              ],
              [
                -5.661599032489589,
                40.963326794573476
              ],
              [
                -5.661151456832886,
                40.96370891160355
              ],
              [
                -5.660670799692337,
                40.963778551703605
              ],
              [
                -5.661747550964355,
                40.96382919144079
              ],
              [
                -5.6623436450958256,
                40.96417592322079
              ],
              [
                -5.66264169216156,
                40.96409092078726
              ],
              [
                -5.662886894615079,
                40.963778551703605
              ],
              [
                -5.6623436450958256,
                40.96333969792834
              ]
            ]
          ]
        ]
      }
    }
  ]
}