{
  "type": "FeatureCollection",
  "features": [
    {
      "type": "Feature",
      "properties": {},
      "geometry": {
        "type": "MultiPolygon",
        "coordinates": [
          [
            [
              [
                -5.63075065612793,
                40.952710502015364
              ],
              [
                -5.63075065612793,
                40.983655865429434
              ],
              [
                -5.690360069274902,
                40.983655865429434
              ],
              [
                -5.690360069274902,
                40.952710502015364
              ],
              [
                -5.63075065612793,
                40.952710502015364
              ]
            ],
            [
              [
                -5.670688962936401,
                40.965172539933185
              ],
              [
                -5.670790746522178,
                40.965811458789204
              ],
              [
                -5.670431052127551,
                40.966263215919334
              ],
              [
                -5.6700928688049315,
                40.966423527053884
              ],
              [
                -5.669198727607727,
                40.96642659139867
              ],
              [
                -5.668851391956956,
                40.966263215919334
              ],
              [
                -5.668491085132951,
                40.965811458789204
              ],
              [
                -5.668617107229885,
                40.96513382309401
              ],
              [
                -5.669198727607727,
                40.96475849183022
              ],
              [
                -5.6700928688049315,
                40.96476155088894
              ],
              [
                -5.670688962936401,
                40.965172539933185
              ]
            ],
            [
              [
                -5.668006539344788,
                40.970061119360096
              ],
              [
                -5.6682081772637,
                40.970329030090525
              ],
              [
                -5.6681643836113595,
                40.97100666578573
              ],
              [
                -5.667708492279052,
                40.97139259023203
              ],
              [
                -5.6668143510818485,
                40.97149304822776
              ],
              [
                -5.666218256950378,
                40.971243269868424
              ],
              [
                -5.6660072327825235,
                40.97100666578573
              ],
              [
                -5.665963217373399,
                40.970329030090525
              ],
              [
                -5.666516304016113,
                40.96983909169416
              ],
              [
                -5.667410445213318,
                40.96976326510706
              ],
              [
                -5.668006539344788,
                40.970061119360096
              ]
            ],
            [
              [
                -5.667708492279052,
                40.965856027359095
              ],
              [
                -5.667749736343928,
                40.9664890944844
              ],
              [
                -5.667330835059714,
                40.96694085161454
              ],
              [
                -5.665920209884644,
                40.96735651827975
              ],
              [
                -5.665026068687439,
                40.967388572673336
              ],
              [
                -5.6645737465681325,
                40.9671667301796
              ],
              [
                -5.6642900485425836,
                40.96671497304947
              ],
              [
                -5.6642900485425836,
                40.966263215919334
              ],
              [
                -5.664968886570875,
                40.965585580224136
              ],
              [
                -5.6647832481261045,
                40.96535970165907
              ],
              [
                -5.664131927490234,
                40.96512704612419
              ],
              [
                -5.663535833358765,
                40.964449425585386
              ],
              [
                -5.662938478500971,
                40.96490794452894
              ],
              [
                -5.662913501268393,
                40.96513382309401
              ],
              [
                -5.663447776663727,
                40.965811458789204
              ],
              [
                -5.663381906517282,
                40.9664890944844
              ],
              [
                -5.6626901413147275,
                40.96694085161454
              ],
              [
                -5.6626264851621055,
                40.9671667301796
              ],
              [
                -5.662939739227295,
                40.96737688114339
              ],
              [
                -5.6638338804245,
                40.96727770765193
              ],
              [
                -5.664429974555969,
                40.96752895481405
              ],
              [
                -5.664688151870584,
                40.9678443658748
              ],
              [
                -5.664642541474387,
                40.96852200157
              ],
              [
                -5.664443979277325,
                40.96874788013506
              ],
              [
                -5.6638338804245,
                40.96900642426978
              ],
              [
                -5.663237786293029,
                40.96900642426978
              ],
              [
                -5.66264169216156,
                40.96870559235814
              ],
              [
                -5.6623436450958256,
                40.96816051982581
              ],
              [
                -5.661151456832886,
                40.96833472403839
              ],
              [
                -5.660257315635681,
                40.96892607691603
              ],
              [
                -5.659363174438477,
                40.96885574841732
              ],
              [
                -5.658771950658904,
                40.96829612300493
              ],
              [
                -5.658771950658904,
                40.9678443658748
              ],
              [
                -5.659009660871227,
                40.96739260874467
              ],
              [
                -5.659661221504211,
                40.96692343453291
              ],
              [
                -5.660555362701416,
                40.96692326420478
              ],
              [
                -5.660849700036759,
                40.96671497304947
              ],
              [
                -5.659155219932483,
                40.965585580224136
              ],
              [
                -5.659045499440436,
                40.96490794452894
              ],
              [
                -5.659177314032398,
                40.96468206596387
              ],
              [
                -5.660087929492144,
                40.96423030883374
              ],
              [
                -5.659065127372742,
                40.964018116655915
              ],
              [
                -5.658677693849395,
                40.963778551703605
              ],
              [
                -5.65849958352386,
                40.963552673138544
              ],
              [
                -5.658502179895357,
                40.96287503744335
              ],
              [
                -5.659065127372742,
                40.96241418468177
              ],
              [
                -5.660257315635681,
                40.96231958508813
              ],
              [
                -5.661151456832886,
                40.96175752434181
              ],
              [
                -5.661449503898621,
                40.96117949036089
              ],
              [
                -5.66204559803009,
                40.96089178080304
              ],
              [
                -5.66264169216156,
                40.96089178080304
              ],
              [
                -5.663237786293029,
                40.96116618845221
              ],
              [
                -5.6634982465897785,
                40.961519766052945
              ],
              [
                -5.663535833358765,
                40.962002257386615
              ],
              [
                -5.664131927490234,
                40.961891327665455
              ],
              [
                -5.6643821119996165,
                40.96174564461801
              ],
              [
                -5.663917006328867,
                40.96129388748788
              ],
              [
                -5.66396393481974,
                40.96061625179268
              ],
              [
                -5.664131927490234,
                40.96041958364357
              ],
              [
                -5.664728021621704,
                40.960130113495175
              ],
              [
                -5.6656221628189085,
                40.96021448554397
              ],
              [
                -5.666117153820515,
                40.96061625179268
              ],
              [
                -5.666164213020711,
                40.96129388748788
              ],
              [
                -5.665693741400367,
                40.96174564461801
              ],
              [
                -5.664840352466509,
                40.96197152318308
              ],
              [
                -5.665438146866456,
                40.96242328031321
              ],
              [
                -5.666516304016113,
                40.96246310093885
              ],
              [
                -5.667134657112926,
                40.96287503744335
              ],
              [
                -5.667229107143997,
                40.963552673138544
              ],
              [
                -5.666827271302019,
                40.96400443026867
              ],
              [
                -5.666866640636731,
                40.96423030883374
              ],
              [
                -5.667511335146565,
                40.96468206596387
              ],
              [
                -5.667708492279052,
                40.965856027359095
              ]
            ],
            [
              [
                -5.665026068687439,
                40.970655672550805
              ],
              [
                -5.665094492179855,
                40.97145842291586
              ],
              [
                -5.664513772842987,
                40.97191018004599
              ],
              [
                -5.663535833358765,
                40.971930810805
              ],
              [
                -5.662907423070349,
                40.97145842291586
              ],
              [
                -5.662889961007312,
                40.97078078722066
              ],
              [
                -5.663535833358765,
                40.97027621950031
              ],
              [
                -5.664429974555969,
                40.97026500656377
              ],
              [
                -5.665026068687439,
                40.970655672550805
              ]
            ],
            [
              [
                -5.664131927490234,
                40.973125701166865
              ],
              [
                -5.664261684530474,
                40.97394308713159
              ],
              [
                -5.664095045425343,
                40.974168965696656
              ],
              [
                -5.663535833358765,
                40.974474737658255
              ],
              [
                -5.662939739227295,
                40.974474737658255
              ],
              [
                -5.6623436450958256,
                40.974283159909966
              ],
              [
                -5.661550806372552,
                40.97349133000145
              ],
              [
                -5.661510197749746,
                40.972813694306254
              ],
              [
                -5.66204559803009,
                40.972333366412585
              ],
              [
                -5.662939739227295,
                40.97224755521672
              ],
              [
                -5.663535833358765,
                40.972534784498656
              ],
              [
                -5.664131927490234,
                40.973125701166865
              ]
            ],
            [
              [
                -5.656382703781128,
                40.97258335783399
              ],
              [
                -5.656599433863699,
                40.972813694306254
              ],
              [
                -5.656668769161081,
                40.97349133000145
              ],
              [
                -5.656084656715393,
                40.974011762083556
              ],
              [
                -5.655190515518188,
                40.97407526009046
              ],
              [
                -5.654594421386719,
                40.97376223361805
              ],
              [
                -5.654402773046613,
                40.97349133000145
              ],
              [
                -5.654471473639432,
                40.972813694306254
              ],
              [
                -5.654892468452454,
                40.9724605650282
              ],
              [
                -5.655786609649658,
                40.9723543674658
              ],
              [
                -5.656382703781128,
                40.97258335783399
              ]
            ],
            [
              [
                -5.653998327255249,
                40.95830620295711
              ],
              [
                -5.654213447472345,
                40.95858334470709
              ],
              [
                -5.654174418263647,
                40.959260980402284
              ],
              [
                -5.653579742670051,
                40.95971273753241
              ],
              [
                -5.65340223312378,
                40.960362314305826
              ],
              [
                -5.653148614231426,
                40.96061625179268
              ],
              [
                -5.652806138992309,
                40.96078235191261
              ],
              [
                -5.651911997795105,
                40.96078997271167
              ],
              [
                -5.651306153770395,
                40.96039037322762
              ],
              [
                -5.65120015425455,
                40.95971273753241
              ],
              [
                -5.651919454197558,
                40.959035101837216
              ],
              [
                -5.651864918121878,
                40.95858334470709
              ],
              [
                -5.651428882106747,
                40.95813158757695
              ],
              [
                -5.651499191126335,
                40.95745395188175
              ],
              [
                -5.651716770246373,
                40.957228073316685
              ],
              [
                -5.65221004486084,
                40.95699777091897
              ],
              [
                -5.653104186058044,
                40.95705763488645
              ],
              [
                -5.653624718629584,
                40.95745395188175
              ],
              [
                -5.653735593493601,
                40.95813158757695
              ],
              [
                -5.653998327255249,
                40.95830620295711
              ]
            ],
            [
              [
                -5.650123715400696,
                40.97127237806933
              ],
              [
                -5.650262253478285,
                40.97145842291586
              ],
              [
                -5.6502593770104355,
                40.972136058611056
              ],
              [
                -5.649825668334961,
                40.972537691693276
              ],
              [
                -5.649527621269226,
                40.97264923041439
              ],
              [
                -5.6486334800720215,
                40.97260140484655
              ],
              [
                -5.648057445742161,
                40.972136058611056
              ],
              [
                -5.648054533112802,
                40.97145842291586
              ],
              [
                -5.6486334800720215,
                40.970987902349286
              ],
              [
                -5.649527621269226,
                40.97094000289369
              ],
              [
                -5.650123715400696,
                40.97127237806933
              ]
            ]
          ],
          [
            [
              [
                -5.663590360373204,
                40.963778551703605
              ],
              [
                -5.6638338804245,
                40.964060900309335
              ],
              [
                -5.664101686894256,
                40.963778551703605
              ],
              [
                -5.6638338804245,
                40.963596478245016
              ],
              [
                -5.663590360373204,
                40.963778551703605
              ]
            ]
          ],
          [
            [
              [
                -5.663485257046974,
                40.963552673138544
              ],
              [
                -5.663535833358765,
                40.96366858108699
              ],
              [
                -5.663683421833317,
                40.963552673138544
              ],
              [
                -5.663485257046974,
                40.963552673138544
              ]
            ]
          ],
          [
            [
              [
                -5.660163002234404,
                40.96400443026867
              ],
              [
                -5.660257315635681,
                40.96409490171476
              ],
              [
                -5.6603308793843015,
                40.96400443026867
              ],
              [
                -5.660163002234404,
                40.96400443026867
              ]
            ]
          ]
        ]
      }
    }
  ]
}