{
  "type": "FeatureCollection",
  "features": [
    {
      "type": "Feature",
      "properties": {},
      "geometry": {
        "type": "MultiPolygon",
        "coordinates": [
          [
            [
              [
                -5.63075065612793,
                40.952710502015364
              ],
              [
                -5.63075065612793,
                40.983655865429434
              ],
              [
                -5.663268485539672,
                40.983655865429434
              ],
              [
                -5.663237786293029,
                40.982976015434
              ],
              [
                -5.663535833358765,
                40.98263959134811
              ],
              [
                -5.664131927490234,
                40.98243463948326
              ],
              [
                -5.664728021621704,
                40.98243463948326
              ],
              [
                -5.665310889041885,
                40.98275235116917
              ],
              [
                -5.66547201093152,
                40.982978229734236
              ],
              [
                -5.665440317980074,
                40.983655865429434
              ],
              [
                -5.690360069274902,
                40.983655865429434
              ],
              [
                -5.690360069274902,
                40.952710502015364
              ],
              [
                -5.63075065612793,
                40.952710502015364
              ]
            ],
            [
              [
                -5.6870815515518185,
                40.96348717516639
              ],
              [
                -5.687000783058041,
                40.96423030883374
              ],
              [
                -5.686187410354615,
                40.96468422733748
              ],
              [
                -5.68529326915741,
                40.964631074961204
              ],
              [
                -5.684974588076137,
                40.96445618739881
              ],
              [
                -5.684691018758427,
                40.96400443026867
              ],
              [
                -5.684691018758427,
                40.963552673138544
              ],
              [
                -5.684839263274488,
                40.963326794573476
              ],
              [
                -5.685591316223144,
                40.96293495363652
              ],
              [
                -5.686485457420349,
                40.962980099956255
              ],
              [
                -5.6870815515518185,
                40.96348717516639
              ]
            ],
            [
              [
                -5.684399127960205,
                40.957057524980314
              ],
              [
                -5.684497016891353,
                40.957228073316685
              ],
              [
                -5.684403673793134,
                40.95790570901189
              ],
              [
                -5.6838030338287355,
                40.95831260994311
              ],
              [
                -5.682908892631531,
                40.95831346454325
              ],
              [
                -5.682312798500061,
                40.95799329069927
              ],
              [
                -5.6814186573028564,
                40.95800483434651
              ],
              [
                -5.680714241123199,
                40.95745395188175
              ],
              [
                -5.680822563171387,
                40.95670709884101
              ],
              [
                -5.681120610237121,
                40.95645198106416
              ],
              [
                -5.681716704368592,
                40.956260099836655
              ],
              [
                -5.682908892631531,
                40.95624392159825
              ],
              [
                -5.684094746838119,
                40.956776316186556
              ],
              [
                -5.684399127960205,
                40.957057524980314
              ]
            ],
            [
              [
                -5.68410108089447,
                40.954200858338126
              ],
              [
                -5.6843113007366455,
                40.954517530535895
              ],
              [
                -5.6843113007366455,
                40.954969287666025
              ],
              [
                -5.683936605447024,
                40.95542104479616
              ],
              [
                -5.683504986763,
                40.95560493631082
              ],
              [
                -5.6826108455657955,
                40.955579061683736
              ],
              [
                -5.682014751434326,
                40.9559280885912
              ],
              [
                -5.6814186573028564,
                40.955926631302574
              ],
              [
                -5.680822563171387,
                40.95573559487578
              ],
              [
                -5.680521901072037,
                40.95542104479616
              ],
              [
                -5.6805102154190665,
                40.95474340910096
              ],
              [
                -5.681120610237121,
                40.9542548865023
              ],
              [
                -5.682014751434326,
                40.95422344510187
              ],
              [
                -5.682908892631531,
                40.95388448299231
              ],
              [
                -5.683504986763,
                40.95388448299231
              ],
              [
                -5.68410108089447,
                40.954200858338126
              ]
            ],
            [
              [
                -5.682312798500061,
                40.97594168772623
              ],
              [
                -5.682443471250331,
                40.976653629912384
              ],
              [
                -5.682047539126071,
                40.97710538704251
              ],
              [
                -5.681716704368592,
                40.97724925146111
              ],
              [
                -5.680822563171387,
                40.977231447373846
              ],
              [
                -5.680152712131085,
                40.976653629912384
              ],
              [
                -5.68025462371216,
                40.97597599421718
              ],
              [
                -5.680822563171387,
                40.975584781953145
              ],
              [
                -5.681716704368592,
                40.97556688892571
              ],
              [
                -5.682312798500061,
                40.97594168772623
              ]
            ],
            [
              [
                -5.680226469039917,
                40.97302820018447
              ],
              [
                -5.680432526050552,
                40.97326545143639
              ],
              [
                -5.680466000532248,
                40.97394308713159
              ],
              [
                -5.680226469039917,
                40.97423736092243
              ],
              [
                -5.679630374908447,
                40.974501659500795
              ],
              [
                -5.679034280776977,
                40.974501659500795
              ],
              [
                -5.678438186645508,
                40.97421146189574
              ],
              [
                -5.677842092514038,
                40.974399387495005
              ],
              [
                -5.677245998382569,
                40.974399387495005
              ],
              [
                -5.676649904251098,
                40.974111951390476
              ],
              [
                -5.675755763053894,
                40.9741021033153
              ],
              [
                -5.675159668922424,
                40.973805447475115
              ],
              [
                -5.674933568207377,
                40.97349133000145
              ],
              [
                -5.675025902452695,
                40.972813694306254
              ],
              [
                -5.675755763053894,
                40.97236989391047
              ],
              [
                -5.676351857185364,
                40.97236989391047
              ],
              [
                -5.6769479513168335,
                40.97262796555042
              ],
              [
                -5.677842092514038,
                40.97266185711063
              ],
              [
                -5.678438186645508,
                40.97293485626795
              ],
              [
                -5.679630374908447,
                40.97276732524575
              ],
              [
                -5.680226469039917,
                40.97302820018447
              ]
            ],
            [
              [
                -5.679928421974182,
                40.95486040760999
              ],
              [
                -5.679965546608477,
                40.95542104479616
              ],
              [
                -5.679332327842713,
                40.955969822340876
              ],
              [
                -5.678438186645508,
                40.9560056244354
              ],
              [
                -5.677544045448303,
                40.9555840725996
              ],
              [
                -5.677182401657698,
                40.95519516623109
              ],
              [
                -5.677224171552507,
                40.954517530535895
              ],
              [
                -5.677842092514038,
                40.95406654141277
              ],
              [
                -5.678758982416216,
                40.95406577340576
              ],
              [
                -5.679630374908447,
                40.95449373541177
              ],
              [
                -5.679928421974182,
                40.95486040760999
              ]
            ],
            [
              [
                -5.679034280776977,
                40.96619387212771
              ],
              [
                -5.679257124937415,
                40.9664890944844
              ],
              [
                -5.679257124937415,
                40.96694085161454
              ],
              [
                -5.679194972922468,
                40.9671667301796
              ],
              [
                -5.678736233711243,
                40.96754224073675
              ],
              [
                -5.677842092514038,
                40.967639481790535
              ],
              [
                -5.677059387091889,
                40.9671667301796
              ],
              [
                -5.676997076058306,
                40.9664890944844
              ],
              [
                -5.677544045448303,
                40.96598854128609
              ],
              [
                -5.678438186645508,
                40.96590389240554
              ],
              [
                -5.679034280776977,
                40.96619387212771
              ]
            ],
            [
              [
                -5.677544045448303,
                40.9683053651445
              ],
              [
                -5.677712149920617,
                40.96852200157
              ],
              [
                -5.677715862787094,
                40.9691996372652
              ],
              [
                -5.677176660725365,
                40.96965139439533
              ],
              [
                -5.677526585244026,
                40.970103151525464
              ],
              [
                -5.677468077289044,
                40.97078078722066
              ],
              [
                -5.6769479513168335,
                40.9711853514353
              ],
              [
                -5.676053810119629,
                40.97133761310309
              ],
              [
                -5.675457715988159,
                40.97162111967581
              ],
              [
                -5.674563574790954,
                40.9715528388218
              ],
              [
                -5.67366943359375,
                40.972271771998955
              ],
              [
                -5.673590090026616,
                40.972361937176125
              ],
              [
                -5.674360469568683,
                40.972813694306254
              ],
              [
                -5.674484650208354,
                40.97349133000145
              ],
              [
                -5.673879347975856,
                40.974168965696656
              ],
              [
                -5.67367736507235,
                40.97484660139185
              ],
              [
                -5.67307333946228,
                40.97518065095224
              ],
              [
                -5.672179198265075,
                40.97513094283376
              ],
              [
                -5.671583104133606,
                40.974768145834055
              ],
              [
                -5.6712066484784005,
                40.97439484426172
              ],
              [
                -5.671183462820499,
                40.97394308713159
              ],
              [
                -5.670987010002136,
                40.973734904958434
              ],
              [
                -5.670109648547681,
                40.974168965696656
              ],
              [
                -5.669496774673462,
                40.97417378489989
              ],
              [
                -5.668947416680443,
                40.97394308713159
              ],
              [
                -5.668602633476257,
                40.97355635163064
              ],
              [
                -5.668560966678417,
                40.97371720856652
              ],
              [
                -5.668833707101928,
                40.97394308713159
              ],
              [
                -5.668659313832061,
                40.974620722826785
              ],
              [
                -5.668009041870229,
                40.97507247995692
              ],
              [
                -5.667410445213318,
                40.975073381973445
              ],
              [
                -5.6668143510818485,
                40.97491373251094
              ],
              [
                -5.666512316648103,
                40.974620722826785
              ],
              [
                -5.666516304016113,
                40.973704392925825
              ],
              [
                -5.6638338804245,
                40.973708330460944
              ],
              [
                -5.663237786293029,
                40.974288199953904
              ],
              [
                -5.662234338239737,
                40.97439484426172
              ],
              [
                -5.662939739227295,
                40.97442345475614
              ],
              [
                -5.663399404787523,
                40.97484660139185
              ],
              [
                -5.663541339757977,
                40.97507247995692
              ],
              [
                -5.6634556915571865,
                40.97575011565212
              ],
              [
                -5.662939739227295,
                40.9761348416412
              ],
              [
                -5.6623436450958256,
                40.976317474810386
              ],
              [
                -5.662050707946643,
                40.976879508477445
              ],
              [
                -5.661747550964355,
                40.977134524048864
              ],
              [
                -5.660853409767151,
                40.97725952018495
              ],
              [
                -5.6602568937122095,
                40.97710538704251
              ],
              [
                -5.6599592685699465,
                40.97680563145794
              ],
              [
                -5.659846220825662,
                40.976427751347316
              ],
              [
                -5.659065127372742,
                40.976005038183374
              ],
              [
                -5.658469033241272,
                40.976354788615865
              ],
              [
                -5.657574892044067,
                40.9763998222999
              ],
              [
                -5.657276844978332,
                40.97628606740351
              ],
              [
                -5.6569051376008685,
                40.97597599421718
              ],
              [
                -5.656680750846863,
                40.97542681598202
              ],
              [
                -5.656084656715393,
                40.97537820119235
              ],
              [
                -5.655458666857593,
                40.97507247995692
              ],
              [
                -5.655282489556689,
                40.97484660139185
              ],
              [
                -5.6552554825978625,
                40.974168965696656
              ],
              [
                -5.654892468452454,
                40.97399707083247
              ],
              [
                -5.654594421386719,
                40.973939225603765
              ],
              [
                -5.653998327255249,
                40.97431384025942
              ],
              [
                -5.653104186058044,
                40.97453650102622
              ],
              [
                -5.652971889993048,
                40.974620722826785
              ],
              [
                -5.653104186058044,
                40.97473509875865
              ],
              [
                -5.653700280189514,
                40.9749414831769
              ],
              [
                -5.6542963743209835,
                40.97539855996289
              ],
              [
                -5.654594421386719,
                40.97550665172406
              ],
              [
                -5.6554885625839235,
                40.97543966799476
              ],
              [
                -5.656084656715393,
                40.9757436804119
              ],
              [
                -5.656259672515771,
                40.97597599421718
              ],
              [
                -5.656245081154518,
                40.976653629912384
              ],
              [
                -5.6554885625839235,
                40.97721982341994
              ],
              [
                -5.655190515518188,
                40.977757142003405
              ],
              [
                -5.65480568815832,
                40.97800890130278
              ],
              [
                -5.655786609649658,
                40.97806370694506
              ],
              [
                -5.656084656715393,
                40.978207475983034
              ],
              [
                -5.65644502184459,
                40.97868653699798
              ],
              [
                -5.65644502184459,
                40.97913829412811
              ],
              [
                -5.656084656715393,
                40.97956070151145
              ],
              [
                -5.655190515518188,
                40.98006000311285
              ],
              [
                -5.6542963743209835,
                40.980055854871146
              ],
              [
                -5.653700280189514,
                40.97964148335977
              ],
              [
                -5.653104186058044,
                40.97994735767872
              ],
              [
                -5.65221004486084,
                40.979994378743186
              ],
              [
                -5.65161395072937,
                40.97947050079585
              ],
              [
                -5.650719809532165,
                40.97909945400985
              ],
              [
                -5.649229574203491,
                40.9790780729839
              ],
              [
                -5.6486334800720215,
                40.9788905094046
              ],
              [
                -5.648286723561401,
                40.97846065843291
              ],
              [
                -5.648158694489367,
                40.97778302273771
              ],
              [
                -5.648204597509823,
                40.97710538704251
              ],
              [
                -5.648335433006286,
                40.97694682432614
              ],
              [
                -5.648931527137757,
                40.97662681247842
              ],
              [
                -5.650421762466431,
                40.97662489366867
              ],
              [
                -5.650719809532165,
                40.97675759484378
              ],
              [
                -5.651103128464762,
                40.976427751347316
              ],
              [
                -5.650976444797269,
                40.97620187278225
              ],
              [
                -5.649825668334961,
                40.97538326326052
              ],
              [
                -5.649229574203491,
                40.97566818734628
              ],
              [
                -5.648231598153203,
                40.97552423708705
              ],
              [
                -5.647143244743347,
                40.97487513256618
              ],
              [
                -5.646845197677612,
                40.974370593193036
              ],
              [
                -5.645951629320173,
                40.97371720856652
              ],
              [
                -5.645934183920344,
                40.97303957287132
              ],
              [
                -5.646106171713031,
                40.972813694306254
              ],
              [
                -5.646547150611878,
                40.97254604050421
              ],
              [
                -5.647298911589781,
                40.972361937176125
              ],
              [
                -5.647534310420559,
                40.972136058611056
              ],
              [
                -5.647841895531755,
                40.97123254435079
              ],
              [
                -5.6486334800720215,
                40.97073654511713
              ],
              [
                -5.649229574203491,
                40.97073654511713
              ],
              [
                -5.650091176915486,
                40.97100666578573
              ],
              [
                -5.650545242072177,
                40.97145842291586
              ],
              [
                -5.650589218605023,
                40.97191018004599
              ],
              [
                -5.650719809532165,
                40.9720130214158
              ],
              [
                -5.651315903663635,
                40.97179531161109
              ],
              [
                -5.651911997795105,
                40.97179531161109
              ],
              [
                -5.652508091926575,
                40.97209457509499
              ],
              [
                -5.652806138992309,
                40.972591223198684
              ],
              [
                -5.653998327255249,
                40.972658203967114
              ],
              [
                -5.654659485709795,
                40.972136058611056
              ],
              [
                -5.654287294970357,
                40.97168430148093
              ],
              [
                -5.654230854728162,
                40.97123254435079
              ],
              [
                -5.653104186058044,
                40.97130331782562
              ],
              [
                -5.652508091926575,
                40.97105201525537
              ],
              [
                -5.652274763006499,
                40.97078078722066
              ],
              [
                -5.652271050197627,
                40.970103151525464
              ],
              [
                -5.652644605773982,
                40.96942551583026
              ],
              [
                -5.65161395072937,
                40.96928897521421
              ],
              [
                -5.650719809532165,
                40.969377286236245
              ],
              [
                -5.650123715400696,
                40.96957401812734
              ],
              [
                -5.649527621269226,
                40.96958719805668
              ],
              [
                -5.648931527137757,
                40.97000317288502
              ],
              [
                -5.648037385940552,
                40.970039829244975
              ],
              [
                -5.647441291809082,
                40.970350693038085
              ],
              [
                -5.646547150611878,
                40.97032343198532
              ],
              [
                -5.645951056480408,
                40.97055458529432
              ],
              [
                -5.645354962348938,
                40.97055458529432
              ],
              [
                -5.644758868217468,
                40.97032887263239
              ],
              [
                -5.6443817880205565,
                40.96965139439533
              ],
              [
                -5.643864727020263,
                40.96938262333699
              ],
              [
                -5.643537911524252,
                40.96897375870013
              ],
              [
                -5.643648032412923,
                40.96829612300493
              ],
              [
                -5.6441627740859985,
                40.967927962473134
              ],
              [
                -5.645653009414673,
                40.96775533655479
              ],
              [
                -5.646845197677612,
                40.967894374548
              ],
              [
                -5.647441291809082,
                40.96723552379059
              ],
              [
                -5.649229574203491,
                40.96620400139528
              ],
              [
                -5.650123715400696,
                40.965895716619784
              ],
              [
                -5.650780273084302,
                40.96513382309401
              ],
              [
                -5.651911997795105,
                40.9647107081913
              ],
              [
                -5.651984511656084,
                40.96400443026867
              ],
              [
                -5.652189245649594,
                40.963778551703605
              ],
              [
                -5.65356118141156,
                40.963326794573476
              ],
              [
                -5.652861448249782,
                40.96287503744335
              ],
              [
                -5.6527972114112615,
                40.96219740174814
              ],
              [
                -5.652948160805604,
                40.96197152318308
              ],
              [
                -5.65340223312378,
                40.96167255578351
              ],
              [
                -5.654557930107128,
                40.961519766052945
              ],
              [
                -5.655190515518188,
                40.960921399815476
              ],
              [
                -5.656084656715393,
                40.96085872244447
              ],
              [
                -5.65655202369821,
                40.961068008922815
              ],
              [
                -5.6568793408801685,
                40.961519766052945
              ],
              [
                -5.6568793408801685,
                40.96197152318308
              ],
              [
                -5.656470010543978,
                40.96242328031321
              ],
              [
                -5.656084656715393,
                40.9625782895238
              ],
              [
                -5.655190515518188,
                40.96254654771511
              ],
              [
                -5.654534092061716,
                40.963326794573476
              ],
              [
                -5.6554885625839235,
                40.96392981901278
              ],
              [
                -5.656084656715393,
                40.96395231630394
              ],
              [
                -5.656978797912598,
                40.964520405523004
              ],
              [
                -5.657099569728918,
                40.96445618739881
              ],
              [
                -5.657413483367125,
                40.963552673138544
              ],
              [
                -5.657282980749433,
                40.96310091600841
              ],
              [
                -5.657410880294243,
                40.96197152318308
              ],
              [
                -5.658170986175537,
                40.961520677554056
              ],
              [
                -5.659208064257017,
                40.961519766052945
              ],
              [
                -5.6587670803070065,
                40.9615088696163
              ],
              [
                -5.658540059656895,
                40.961068008922815
              ],
              [
                -5.658497739099412,
                40.96039037322762
              ],
              [
                -5.658650839753912,
                40.96016449466255
              ],
              [
                -5.658170986175537,
                40.9598151041348
              ],
              [
                -5.6579836726437716,
                40.95948685896735
              ],
              [
                -5.6579836726437716,
                40.959035101837216
              ],
              [
                -5.658170986175537,
                40.958754539036384
              ],
              [
                -5.6587670803070065,
                40.95842926993758
              ],
              [
                -5.660853409767151,
                40.95853613558313
              ],
              [
                -5.661415960592343,
                40.959035101837216
              ],
              [
                -5.661475589767531,
                40.95948685896735
              ],
              [
                -5.661977657817449,
                40.96039037322762
              ],
              [
                -5.662939739227295,
                40.96037876237973
              ],
              [
                -5.663158352814689,
                40.96016449466255
              ],
              [
                -5.6631607467729275,
                40.95948685896735
              ],
              [
                -5.663554195574859,
                40.959035101837216
              ],
              [
                -5.664131927490234,
                40.95871926953237
              ],
              [
                -5.665091352513549,
                40.95858334470709
              ],
              [
                -5.664458718061418,
                40.95813158757695
              ],
              [
                -5.664426804692083,
                40.95745395188175
              ],
              [
                -5.664728021621704,
                40.957113962192906
              ],
              [
                -5.665324115753174,
                40.95691105454757
              ],
              [
                -5.665920209884644,
                40.95691105454757
              ],
              [
                -5.666516304016113,
                40.95724660484224
              ],
              [
                -5.666661445409529,
                40.95745395188175
              ],
              [
                -5.6666298635813135,
                40.95813158757695
              ],
              [
                -5.666434439004302,
                40.95835746614202
              ],
              [
                -5.666516304016113,
                40.958567590979264
              ],
              [
                -5.667410445213318,
                40.958555079992884
              ],
              [
                -5.667708492279052,
                40.958678121725285
              ],
              [
                -5.668304586410523,
                40.95941553824571
              ],
              [
                -5.669119271587208,
                40.95993861609748
              ],
              [
                -5.669901118522694,
                40.961068008922815
              ],
              [
                -5.669846162767699,
                40.96174564461801
              ],
              [
                -5.669636065633168,
                40.96197152318308
              ],
              [
                -5.669697701811752,
                40.96219740174814
              ],
              [
                -5.670688962936401,
                40.962184031041936
              ],
              [
                -5.671384984097102,
                40.96264915887828
              ],
              [
                -5.671438475600469,
                40.963326794573476
              ],
              [
                -5.670985665571302,
                40.963778551703605
              ],
              [
                -5.671262850795811,
                40.96468206596387
              ],
              [
                -5.671881151199341,
                40.96435025237412
              ],
              [
                -5.6724772453308105,
                40.96435025237412
              ],
              [
                -5.67307333946228,
                40.96453736502334
              ],
              [
                -5.673399279902912,
                40.96490794452894
              ],
              [
                -5.673347105569579,
                40.965585580224136
              ],
              [
                -5.672923121369197,
                40.96603733735427
              ],
              [
                -5.673180956258533,
                40.9664890944844
              ],
              [
                -5.673180956258533,
                40.96694085161454
              ],
              [
                -5.673026637156448,
                40.9671667301796
              ],
              [
                -5.6724772453308105,
                40.96748873824158
              ],
              [
                -5.671583104133606,
                40.96747309648003
              ],
              [
                -5.670987010002136,
                40.9670860371648
              ],
              [
                -5.669496774673462,
                40.96725029586097
              ],
              [
                -5.669260406303069,
                40.9678443658748
              ],
              [
                -5.669496774673462,
                40.96834193894292
              ],
              [
                -5.670390915870667,
                40.968673845607846
              ],
              [
                -5.670673223649987,
                40.96897375870013
              ],
              [
                -5.6706915031664185,
                40.9691996372652
              ],
              [
                -5.670987010002136,
                40.96938507718875
              ],
              [
                -5.6712850570678714,
                40.969106716942086
              ],
              [
                -5.671881151199341,
                40.96888857527795
              ],
              [
                -5.6724772453308105,
                40.968294114745575
              ],
              [
                -5.673371386528015,
                40.96813336741444
              ],
              [
                -5.673967480659485,
                40.96779217207269
              ],
              [
                -5.676053810119629,
                40.967798705909736
              ],
              [
                -5.677157747022534,
                40.968070244439865
              ],
              [
                -5.677544045448303,
                40.9683053651445
              ]
            ],
            [
              [
                -5.677245998382569,
                40.97752084306338
              ],
              [
                -5.677408065214577,
                40.97778302273771
              ],
              [
                -5.677408065214577,
                40.97823477986785
              ],
              [
                -5.677096171245432,
                40.978912415563045
              ],
              [
                -5.677043415088556,
                40.98049356551851
              ],
              [
                -5.676680247401585,
                40.98094532264864
              ],
              [
                -5.676351857185364,
                40.98110108259167
              ],
              [
                -5.675457715988159,
                40.9811087638322
              ],
              [
                -5.675106412822677,
                40.98094532264864
              ],
              [
                -5.674741661489987,
                40.98049356551851
              ],
              [
                -5.674866300850288,
                40.979364172693174
              ],
              [
                -5.6751118004835766,
                40.978912415563045
              ],
              [
                -5.674594873830208,
                40.97823477986785
              ],
              [
                -5.674726222644219,
                40.97755714417264
              ],
              [
                -5.67426552772522,
                40.9771788509502
              ],
              [
                -5.673371386528015,
                40.97720531378616
              ],
              [
                -5.6728047004316196,
                40.976879508477445
              ],
              [
                -5.672650600227625,
                40.976653629912384
              ],
              [
                -5.672699887311156,
                40.97597599421718
              ],
              [
                -5.673165734009566,
                40.97552423708705
              ],
              [
                -5.67366943359375,
                40.9753183378143
              ],
              [
                -5.67426552772522,
                40.9753183378143
              ],
              [
                -5.675159668922424,
                40.97572516363884
              ],
              [
                -5.676053810119629,
                40.97577373027565
              ],
              [
                -5.6770650438952135,
                40.976653629912384
              ],
              [
                -5.677245998382569,
                40.97752084306338
              ]
            ],
            [
              [
                -5.675159668922424,
                40.957500887777975
              ],
              [
                -5.675401872226423,
                40.95790570901189
              ],
              [
                -5.675401872226423,
                40.95835746614202
              ],
              [
                -5.67486162185669,
                40.95886735422906
              ],
              [
                -5.673967480659485,
                40.958960525170056
              ],
              [
                -5.673371386528015,
                40.95867853410803
              ],
              [
                -5.673128925835088,
                40.95835746614202
              ],
              [
                -5.673208070893007,
                40.95767983044682
              ],
              [
                -5.67366943359375,
                40.95731377457079
              ],
              [
                -5.674563574790954,
                40.95721967962892
              ],
              [
                -5.675159668922424,
                40.957500887777975
              ]
            ],
            [
              [
                -5.67426552772522,
                40.95473739839115
              ],
              [
                -5.674354283123376,
                40.95542104479616
              ],
              [
                -5.674214475293203,
                40.95564692336122
              ],
              [
                -5.67366943359375,
                40.95599041136841
              ],
              [
                -5.67307333946228,
                40.95604258156867
              ],
              [
                -5.672179198265075,
                40.956708763165395
              ],
              [
                -5.6712850570678714,
                40.9566876565139
              ],
              [
                -5.670390915870667,
                40.956435965425285
              ],
              [
                -5.669794821739197,
                40.956025315025606
              ],
              [
                -5.669198727607727,
                40.95625392702873
              ],
              [
                -5.668304586410523,
                40.95624065263463
              ],
              [
                -5.667999889951246,
                40.95609868049136
              ],
              [
                -5.667622851657626,
                40.95564692336122
              ],
              [
                -5.66773983601567,
                40.954969287666025
              ],
              [
                -5.668304586410523,
                40.954589292228356
              ],
              [
                -5.669198727607727,
                40.95457599707046
              ],
              [
                -5.669794821739197,
                40.954955433967335
              ],
              [
                -5.670390915870667,
                40.954771310493186
              ],
              [
                -5.6712850570678714,
                40.95477054901958
              ],
              [
                -5.671881151199341,
                40.95497117402829
              ],
              [
                -5.672775292396546,
                40.95432516054386
              ],
              [
                -5.67366943359375,
                40.95432959115937
              ],
              [
                -5.67426552772522,
                40.95473739839115
              ]
            ],
            [
              [
                -5.67366943359375,
                40.97796417361236
              ],
              [
                -5.67378236176153,
                40.97868653699798
              ],
              [
                -5.673058110548914,
                40.979364172693174
              ],
              [
                -5.673157791622217,
                40.98004180838837
              ],
              [
                -5.673024207415887,
                40.98026768695344
              ],
              [
                -5.6724772453308105,
                40.98062178097312
              ],
              [
                -5.670987010002136,
                40.980634001329086
              ],
              [
                -5.670390915870667,
                40.980392210713596
              ],
              [
                -5.669794821739197,
                40.980901703038334
              ],
              [
                -5.6690067510590305,
                40.981171201213705
              ],
              [
                -5.669163214000727,
                40.98139707977877
              ],
              [
                -5.669191199699815,
                40.98207471547397
              ],
              [
                -5.668602633476257,
                40.98256662793625
              ],
              [
                -5.667708492279052,
                40.9826162979259
              ],
              [
                -5.667410445213318,
                40.982506660561725
              ],
              [
                -5.667112398147583,
                40.98228955469677
              ],
              [
                -5.6668143510818485,
                40.98178807899013
              ],
              [
                -5.665026068687439,
                40.981770827734806
              ],
              [
                -5.664429974555969,
                40.98213855333904
              ],
              [
                -5.6638338804245,
                40.98213807546497
              ],
              [
                -5.663237786293029,
                40.98195352961902
              ],
              [
                -5.662922494482862,
                40.981622958343834
              ],
              [
                -5.66292085845652,
                40.98094532264864
              ],
              [
                -5.663100781261116,
                40.980719444083576
              ],
              [
                -5.663535833358765,
                40.98046308885977
              ],
              [
                -5.664429974555969,
                40.98042122693289
              ],
              [
                -5.66475857097959,
                40.98004180838837
              ],
              [
                -5.664312189754468,
                40.97959005125824
              ],
              [
                -5.664222690909326,
                40.978912415563045
              ],
              [
                -5.664429974555969,
                40.97861680609771
              ],
              [
                -5.665026068687439,
                40.97830794399122
              ],
              [
                -5.665920209884644,
                40.978376485237874
              ],
              [
                -5.6668143510818485,
                40.97791198386732
              ],
              [
                -5.667708492279052,
                40.977950284212454
              ],
              [
                -5.668160013297097,
                40.97823477986785
              ],
              [
                -5.66832132566889,
                40.97846065843291
              ],
              [
                -5.66832132566889,
                40.978912415563045
              ],
              [
                -5.6680896795048,
                40.979364172693174
              ],
              [
                -5.667410445213318,
                40.979614337074246
              ],
              [
                -5.666516304016113,
                40.97950278243842
              ],
              [
                -5.666295754537857,
                40.97981592982331
              ],
              [
                -5.667282207310389,
                40.98026768695344
              ],
              [
                -5.667708492279052,
                40.98085352277115
              ],
              [
                -5.668072599882928,
                40.980719444083576
              ],
              [
                -5.667908087933355,
                40.98049356551851
              ],
              [
                -5.667908087933355,
                40.98004180838837
              ],
              [
                -5.668182363319081,
                40.97959005125824
              ],
              [
                -5.668602633476257,
                40.97937014877169
              ],
              [
                -5.669496774673462,
                40.97937222050109
              ],
              [
                -5.6700928688049315,
                40.97955491593376
              ],
              [
                -5.670398328811017,
                40.97913829412811
              ],
              [
                -5.671235308825224,
                40.97868653699798
              ],
              [
                -5.671275937364884,
                40.97823477986785
              ],
              [
                -5.67173359059751,
                40.97778302273771
              ],
              [
                -5.672179198265075,
                40.9775917762023
              ],
              [
                -5.67307333946228,
                40.97757934021395
              ],
              [
                -5.67366943359375,
                40.97796417361236
              ]
            ],
            [
              [
                -5.6712850570678714,
                40.97552043530344
              ],
              [
                -5.671489305947453,
                40.97575011565212
              ],
              [
                -5.671537883856852,
                40.976427751347316
              ],
              [
                -5.670987010002136,
                40.97692002560763
              ],
              [
                -5.6700928688049315,
                40.97699854677858
              ],
              [
                -5.669496774673462,
                40.97670324276159
              ],
              [
                -5.669288858628068,
                40.976427751347316
              ],
              [
                -5.669337229087725,
                40.97575011565212
              ],
              [
                -5.669794821739197,
                40.97536634428879
              ],
              [
                -5.670688962936401,
                40.97526692586024
              ],
              [
                -5.6712850570678714,
                40.97552043530344
              ]
            ],
            [
              [
                -5.661449503898621,
                40.98148918979177
              ],
              [
                -5.661703814324318,
                40.9818488369089
              ],
              [
                -5.661703814324318,
                40.98230059403904
              ],
              [
                -5.661151456832886,
                40.98284869681372
              ],
              [
                -5.6599592685699465,
                40.98301301884739
              ],
              [
                -5.659164054478393,
                40.9825264726041
              ],
              [
                -5.6591177334050675,
                40.9818488369089
              ],
              [
                -5.659661221504211,
                40.98136118483179
              ],
              [
                -5.660853409767151,
                40.981204144463256
              ],
              [
                -5.661449503898621,
                40.98148918979177
              ]
            ],
            [
              [
                -5.65340223312378,
                40.95871624080772
              ],
              [
                -5.653616398979328,
                40.959035101837216
              ],
              [
                -5.65349608800434,
                40.95971273753241
              ],
              [
                -5.652806138992309,
                40.960126159147414
              ],
              [
                -5.6521612238562335,
                40.96016449466255
              ],
              [
                -5.652236542866975,
                40.96084213035775
              ],
              [
                -5.651911997795105,
                40.96133283397301
              ],
              [
                -5.651315903663635,
                40.96152352890866
              ],
              [
                -5.649825668334961,
                40.96153292513328
              ],
              [
                -5.649229574203491,
                40.96131285355352
              ],
              [
                -5.648997468843831,
                40.961068008922815
              ],
              [
                -5.648937033058611,
                40.96039037322762
              ],
              [
                -5.6493932764082695,
                40.95993861609748
              ],
              [
                -5.6514320741405815,
                40.95971273753241
              ],
              [
                -5.6513102057663644,
                40.95948685896735
              ],
              [
                -5.650719809532165,
                40.95921995216249
              ],
              [
                -5.65024838151879,
                40.958809223272155
              ],
              [
                -5.650230588330651,
                40.95813158757695
              ],
              [
                -5.650719809532165,
                40.957687237549685
              ],
              [
                -5.651017856597901,
                40.95758910503803
              ],
              [
                -5.651911997795105,
                40.957665414864
              ],
              [
                -5.652281703678085,
                40.95790570901189
              ],
              [
                -5.6525746617526735,
                40.95835746614202
              ],
              [
                -5.65340223312378,
                40.95871624080772
              ]
            ],
            [
              [
                -5.653104186058044,
                40.980587107481725
              ],
              [
                -5.653150814347619,
                40.981171201213705
              ],
              [
                -5.652508091926575,
                40.981724928352655
              ],
              [
                -5.65161395072937,
                40.981755523316906
              ],
              [
                -5.651017856597901,
                40.98203873273987
              ],
              [
                -5.650123715400696,
                40.9820583558255
              ],
              [
                -5.649699504657558,
                40.9818488369089
              ],
              [
                -5.649404262906963,
                40.98139707977877
              ],
              [
                -5.649527621269226,
                40.98074575584917
              ],
              [
                -5.650123715400696,
                40.98037408158982
              ],
              [
                -5.651017856597901,
                40.980377990234025
              ],
              [
                -5.65161395072937,
                40.98006134647595
              ],
              [
                -5.65221004486084,
                40.98006134647595
              ],
              [
                -5.652806138992309,
                40.98020272156854
              ],
              [
                -5.653104186058044,
                40.980587107481725
              ]
            ],
            [
              [
                -5.645951056480408,
                40.965886145994006
              ],
              [
                -5.646216553335865,
                40.966263215919334
              ],
              [
                -5.646216553335865,
                40.96671497304947
              ],
              [
                -5.645653009414673,
                40.96726332559497
              ],
              [
                -5.644758868217468,
                40.96735109434239
              ],
              [
                -5.6441627740859985,
                40.96706209597611
              ],
              [
                -5.643916177258112,
                40.96671497304947
              ],
              [
                -5.644034068232713,
                40.96603733735427
              ],
              [
                -5.644460821151734,
                40.96571025761078
              ],
              [
                -5.645354962348938,
                40.96561402115416
              ],
              [
                -5.645951056480408,
                40.965886145994006
              ]
            ],
            [
              [
                -5.644460821151734,
                40.970903512828116
              ],
              [
                -5.644528484557647,
                40.97168430148093
              ],
              [
                -5.643864727020263,
                40.972177470280336
              ],
              [
                -5.642374491691589,
                40.972032060613586
              ],
              [
                -5.6417783975601195,
                40.97220426304957
              ],
              [
                -5.64058620929718,
                40.97220393238153
              ],
              [
                -5.639921789654853,
                40.97168430148093
              ],
              [
                -5.639809847426231,
                40.97100666578573
              ],
              [
                -5.640884256362915,
                40.970481139376126
              ],
              [
                -5.642076444625855,
                40.97046959551771
              ],
              [
                -5.642672538757324,
                40.970649950987415
              ],
              [
                -5.642970585823059,
                40.97051158461823
              ],
              [
                -5.643864727020263,
                40.97050502224296
              ],
              [
                -5.644460821151734,
                40.970903512828116
              ]
            ],
            [
              [
                -5.643864727020263,
                40.960607560206164
              ],
              [
                -5.643833501062254,
                40.96129388748788
              ],
              [
                -5.643619557403054,
                40.96174564461801
              ],
              [
                -5.642970585823059,
                40.96209482315438
              ],
              [
                -5.642374491691589,
                40.96209482315438
              ],
              [
                -5.6417783975601195,
                40.961841260424215
              ],
              [
                -5.641448085371316,
                40.96129388748788
              ],
              [
                -5.639990115165711,
                40.96050056308737
              ],
              [
                -5.639714087683015,
                40.96016449466255
              ],
              [
                -5.639714087683015,
                40.95971273753241
              ],
              [
                -5.639976752674033,
                40.959260980402284
              ],
              [
                -5.640288162231445,
                40.95908319969603
              ],
              [
                -5.64118230342865,
                40.95901602177509
              ],
              [
                -5.643566679954529,
                40.96016400570977
              ],
              [
                -5.643864727020263,
                40.960607560206164
              ]
            ],
            [
              [
                -5.64118230342865,
                40.97323212547211
              ],
              [
                -5.64139832165282,
                40.97349133000145
              ],
              [
                -5.641399046167054,
                40.974168965696656
              ],
              [
                -5.640884256362915,
                40.974612716329396
              ],
              [
                -5.639990115165711,
                40.974699425751325
              ],
              [
                -5.63939402103424,
                40.974415800710524
              ],
              [
                -5.639194261075658,
                40.974168965696656
              ],
              [
                -5.639194984447635,
                40.97349133000145
              ],
              [
                -5.639692068099976,
                40.97305663863182
              ],
              [
                -5.64058620929718,
                40.97296217066143
              ],
              [
                -5.64118230342865,
                40.97323212547211
              ]
            ],
            [
              [
                -5.639692068099976,
                40.97024549524681
              ],
              [
                -5.639776190939255,
                40.97078078722066
              ],
              [
                -5.639664797101869,
                40.97100666578573
              ],
              [
                -5.639095973968506,
                40.9714166141784
              ],
              [
                -5.638201832771301,
                40.97144454766708
              ],
              [
                -5.6377663681513255,
                40.97123254435079
              ],
              [
                -5.637468873049003,
                40.97078078722066
              ],
              [
                -5.637468873049003,
                40.970329030090525
              ],
              [
                -5.637605738639832,
                40.97010941350108
              ],
              [
                -5.638201832771301,
                40.96975289012011
              ],
              [
                -5.639095973968506,
                40.96978052138523
              ],
              [
                -5.639692068099976,
                40.97024549524681
              ]
            ],
            [
              [
                -5.639095973968506,
                40.97207941766646
              ],
              [
                -5.639146999853973,
                40.972813694306254
              ],
              [
                -5.6384998798370365,
                40.9733136522267
              ],
              [
                -5.637605738639832,
                40.97332216181443
              ],
              [
                -5.636931082782559,
                40.972813694306254
              ],
              [
                -5.636942116007489,
                40.972136058611056
              ],
              [
                -5.637605738639832,
                40.97164782827894
              ],
              [
                -5.6384998798370365,
                40.97153277488549
              ],
              [
                -5.639095973968506,
                40.97207941766646
              ]
            ],
            [
              [
                -5.638797926902771,
                40.95636754793153
              ],
              [
                -5.639079602667018,
                40.956776316186556
              ],
              [
                -5.639079602667018,
                40.957228073316685
              ],
              [
                -5.638797926902771,
                40.95759644575634
              ],
              [
                -5.638201832771301,
                40.95784676139319
              ],
              [
                -5.637605738639832,
                40.95784676139319
              ],
              [
                -5.637189992273686,
                40.95767983044682
              ],
              [
                -5.636789041978628,
                40.957228073316685
              ],
              [
                -5.636789041978628,
                40.956776316186556
              ],
              [
                -5.637105333444922,
                40.956324559056426
              ],
              [
                -5.636413550376892,
                40.95622532017922
              ],
              [
                -5.635849725093213,
                40.95587280192629
              ],
              [
                -5.635171134525408,
                40.954969287666025
              ],
              [
                -5.635210196753245,
                40.95429165197083
              ],
              [
                -5.635817456245422,
                40.95384227445462
              ],
              [
                -5.636711597442627,
                40.95382551818167
              ],
              [
                -5.637009644508362,
                40.95395257580998
              ],
              [
                -5.6379943383200475,
                40.95519516623109
              ],
              [
                -5.6379943383200475,
                40.95564692336122
              ],
              [
                -5.637585028317452,
                40.95609868049136
              ],
              [
                -5.638201832771301,
                40.95610797770204
              ],
              [
                -5.638797926902771,
                40.95636754793153
              ]
            ],
            [
              [
                -5.637903785705566,
                40.96017850359455
              ],
              [
                -5.638064692687565,
                40.96039037322762
              ],
              [
                -5.638061861347434,
                40.961068008922815
              ],
              [
                -5.637605738639832,
                40.961481389023795
              ],
              [
                -5.6373076915740965,
                40.96158662713309
              ],
              [
                -5.636413550376892,
                40.9615249103162
              ],
              [
                -5.635860715806125,
                40.961068008922815
              ],
              [
                -5.635857859587266,
                40.96039037322762
              ],
              [
                -5.636413550376892,
                40.95992841101921
              ],
              [
                -5.6373076915740965,
                40.959866599599664
              ],
              [
                -5.637903785705566,
                40.96017850359455
              ]
            ]
          ],
          [
            [
              [
                -5.669794821739197,
                40.965340919144914
              ],
              [
                -5.668602633476257,
                40.96531878589364
              ],
              [
                -5.668006539344788,
                40.96482655021732
              ],
              [
                -5.667881021280594,
                40.96490794452894
              ],
              [
                -5.667676751242184,
                40.965811458789204
              ],
              [
                -5.668900680541992,
                40.966107653395774
              ],
              [
                -5.669794821739197,
                40.96540895328975
              ],
              [
                -5.670140147627835,
                40.96535970165907
              ],
              [
                -5.669794821739197,
                40.965340919144914
              ]
            ]
          ],
          [
            [
              [
                -5.669176242194609,
                40.963326794573476
              ],
              [
                -5.668900680541992,
                40.963191879877975
              ],
              [
                -5.667708492279052,
                40.96338796838537
              ],
              [
                -5.667245023615334,
                40.96423030883374
              ],
              [
                -5.667708492279052,
                40.96483936343857
              ],
              [
                -5.6678991742906195,
                40.96468206596387
              ],
              [
                -5.668106935105702,
                40.96400443026867
              ],
              [
                -5.668602633476257,
                40.96368415259425
              ],
              [
                -5.669303882924696,
                40.963552673138544
              ],
              [
                -5.669176242194609,
                40.963326794573476
              ]
            ]
          ],
          [
            [
              [
                -5.666218256950378,
                40.96080067034263
              ],
              [
                -5.666207789466304,
                40.96084213035775
              ],
              [
                -5.666218256950378,
                40.96085395385318
              ],
              [
                -5.666516304016113,
                40.960862084887886
              ],
              [
                -5.666532457824065,
                40.96084213035775
              ],
              [
                -5.666516304016113,
                40.960829808558856
              ],
              [
                -5.666218256950378,
                40.96080067034263
              ]
            ]
          ],
          [
            [
              [
                -5.666018493378657,
                40.95858334470709
              ],
              [
                -5.666218256950378,
                40.95869928049812
              ],
              [
                -5.6665018013482475,
                40.95858334470709
              ],
              [
                -5.666018493378657,
                40.95858334470709
              ]
            ]
          ],
          [
            [
              [
                -5.6656221628189085,
                40.95862435471128
              ],
              [
                -5.66512894843099,
                40.958809223272155
              ],
              [
                -5.6656221628189085,
                40.95900051906759
              ],
              [
                -5.666013639788223,
                40.958809223272155
              ],
              [
                -5.6656221628189085,
                40.95862435471128
              ]
            ]
          ],
          [
            [
              [
                -5.665606760974714,
                40.96942551583026
              ],
              [
                -5.665460503568384,
                40.969877272960396
              ],
              [
                -5.6656221628189085,
                40.969979018583864
              ],
              [
                -5.665762678726289,
                40.969877272960396
              ],
              [
                -5.665606760974714,
                40.96942551583026
              ]
            ]
          ],
          [
            [
              [
                -5.659831371988534,
                40.96174564461801
              ],
              [
                -5.6599592685699465,
                40.96176255958067
              ],
              [
                -5.660013284491821,
                40.96174564461801
              ],
              [
                -5.6599592685699465,
                40.961674958512326
              ],
              [
                -5.659831371988534,
                40.96174564461801
              ]
            ]
          ],
          [
            [
              [
                -5.658170986175537,
                40.96547446401783
              ],
              [
                -5.657700503626937,
                40.96535970165907
              ],
              [
                -5.657276844978332,
                40.965025563460266
              ],
              [
                -5.657133300645899,
                40.965585580224136
              ],
              [
                -5.657574892044067,
                40.965995246563715
              ],
              [
                -5.658469033241272,
                40.966047819619924
              ],
              [
                -5.6585903854239366,
                40.965585580224136
              ],
              [
                -5.658170986175537,
                40.96547446401783
              ]
            ]
          ],
          [
            [
              [
                -5.657872939109803,
                40.97367560805359
              ],
              [
                -5.657632586401625,
                40.97371720856652
              ],
              [
                -5.657637460005168,
                40.97439484426172
              ],
              [
                -5.657738442333954,
                40.974620722826785
              ],
              [
                -5.658170986175537,
                40.97467127897625
              ],
              [
                -5.658389774496328,
                40.97371720856652
              ],
              [
                -5.657872939109803,
                40.97367560805359
              ]
            ]
          ],
          [
            [
              [
                -5.656382703781128,
                40.96773243908369
              ],
              [
                -5.656095971528646,
                40.9678443658748
              ],
              [
                -5.656680750846863,
                40.96837344814358
              ],
              [
                -5.656971031160428,
                40.96829612300493
              ],
              [
                -5.656876863676692,
                40.9678443658748
              ],
              [
                -5.656382703781128,
                40.96773243908369
              ]
            ]
          ],
          [
            [
              [
                -5.656382703781128,
                40.96991062330952
              ],
              [
                -5.656084656715393,
                40.96960746069088
              ],
              [
                -5.655754716714174,
                40.96965139439533
              ],
              [
                -5.655691295646679,
                40.970329030090525
              ],
              [
                -5.655786609649658,
                40.97040785585526
              ],
              [
                -5.656680750846863,
                40.970189261323526
              ],
              [
                -5.656784389890004,
                40.970103151525464
              ],
              [
                -5.656382703781128,
                40.96991062330952
              ]
            ]
          ],
          [
            [
              [
                -5.654892468452454,
                40.967651693839564
              ],
              [
                -5.653970661158501,
                40.967618487309736
              ],
              [
                -5.654594421386719,
                40.9680444024152
              ],
              [
                -5.65545984151523,
                40.9678443658748
              ],
              [
                -5.654892468452454,
                40.967651693839564
              ]
            ]
          ],
          [
            [
              [
                -5.652796850507913,
                40.9691996372652
              ],
              [
                -5.652806138992309,
                40.96920788616422
              ],
              [
                -5.652816534524573,
                40.9691996372652
              ],
              [
                -5.652806138992309,
                40.969195039129865
              ],
              [
                -5.652796850507913,
                40.9691996372652
              ]
            ]
          ],
          [
            [
              [
                -5.65088910300572,
                40.97349133000145
              ],
              [
                -5.650421762466431,
                40.97311506248624
              ],
              [
                -5.650123715400696,
                40.973079806150885
              ],
              [
                -5.649847067258111,
                40.97326545143639
              ],
              [
                -5.650421762466431,
                40.97373155519265
              ],
              [
                -5.651017856597901,
                40.973724295242725
              ],
              [
                -5.65088910300572,
                40.97349133000145
              ]
            ]
          ]
        ]
      }
    }
  ]
}