{
  "type": "FeatureCollection",
  "features": [
    {
      "type": "Feature",
      "properties": {},
      "geometry": {
        "type": "Polygon",
        "coordinates": [
          [
            [
              -5.690062022209167,
              40.95309136193355
            ],
            [
              -5.689507965830795,
              40.95293638058043
            ],
            [
              -5.689507965830795,
              40.952710502015364
            ],
            [
              -5.63075065612793,
              40.952710502015364
            ],
            [
              -5.63075065612793,
              40.983655865429434
            ],
            [
              -5.690360069274902,
              40.983655865429434
            ],
            [
              -5.690360069274902,
              40.95309136193355
            ],
            [
              -5.690062022209167,
              40.95309136193355
            ]
          ],
          [
            [
              -5.689465928077698,
              40.965345239791
            ],
            [
              -5.6895242314680345,
              40.96603733735427
            ],
            [
              -5.68942295588027,
              40.966263215919334
            ],
            [
              -5.688953845625451,
              40.96671497304947
            ],
            [
              -5.6883438835433715,
              40.96694085161454
            ],
            [
              -5.687677645683289,
              40.96695630165721
            ],
            [
              -5.6870815515518185,
              40.966785102633025
            ],
            [
              -5.686663393329536,
              40.9664890944844
            ],
            [
              -5.68638444652617,
              40.96603733735427
            ],
            [
              -5.68638444652617,
              40.965585580224136
            ],
            [
              -5.686577577833536,
              40.96513382309401
            ],
            [
              -5.687379598617554,
              40.9646274292125
            ],
            [
              -5.688571786880493,
              40.96464027405807
            ],
            [
              -5.689096023875019,
              40.96490794452894
            ],
            [
              -5.689465928077698,
              40.965345239791
            ]
          ],
          [
            [
              -5.687975692749023,
              40.95814819980864
            ],
            [
              -5.6881849477164454,
              40.95858334470709
            ],
            [
              -5.688142407833642,
              40.959260980402284
            ],
            [
              -5.687677645683289,
              40.9598657445518
            ],
            [
              -5.6870815515518185,
              40.96018593973303
            ],
            [
              -5.685591316223144,
              40.96021823787528
            ],
            [
              -5.68498825264167,
              40.95993861609748
            ],
            [
              -5.684427288804913,
              40.959260980402284
            ],
            [
              -5.68438488568525,
              40.95858334470709
            ],
            [
              -5.684606494918101,
              40.95813158757695
            ],
            [
              -5.684995222091675,
              40.95776962293224
            ],
            [
              -5.685591316223144,
              40.957492385847864
            ],
            [
              -5.6870815515518185,
              40.957525209483
            ],
            [
              -5.687975692749023,
              40.95814819980864
            ]
          ],
          [
            [
              -5.681716704368592,
              40.965494944962394
            ],
            [
              -5.68181425050012,
              40.965585580224136
            ],
            [
              -5.681716704368592,
              40.96631061215154
            ],
            [
              -5.680822563171387,
              40.966444349530704
            ],
            [
              -5.680518169754436,
              40.966263215919334
            ],
            [
              -5.680524516105652,
              40.96553913197772
            ],
            [
              -5.680822563171387,
              40.965356744199404
            ],
            [
              -5.6814186573028564,
              40.965356744199404
            ],
            [
              -5.681716704368592,
              40.965494944962394
            ]
          ],
          [
            [
              -5.675457715988159,
              40.97229697280292
            ],
            [
              -5.675727851781784,
              40.97258781574119
            ],
            [
              -5.675727851781784,
              40.97303957287132
            ],
            [
              -5.675457715988159,
              40.973419843402
            ],
            [
              -5.675159668922424,
              40.973561314483526
            ],
            [
              -5.674563574790954,
              40.973561314483526
            ],
            [
              -5.673951945483892,
              40.97326545143639
            ],
            [
              -5.673862052425197,
              40.97258781574119
            ],
            [
              -5.67426552772522,
              40.972220596844856
            ],
            [
              -5.675159668922424,
              40.972156056773876
            ],
            [
              -5.675457715988159,
              40.97229697280292
            ]
          ],
          [
            [
              -5.67486162185669,
              40.95774292543022
            ],
            [
              -5.674938897717678,
              40.95835746614202
            ],
            [
              -5.674563574790954,
              40.958667170067
            ],
            [
              -5.67366943359375,
              40.9586484166234
            ],
            [
              -5.6733350595989,
              40.95835746614202
            ],
            [
              -5.6733350595989,
              40.95790570901189
            ],
            [
              -5.67366943359375,
              40.957532660682425
            ],
            [
              -5.674563574790954,
              40.95751309407385
            ],
            [
              -5.67486162185669,
              40.95774292543022
            ]
          ],
          [
            [
              -5.67366943359375,
              40.97753697185935
            ],
            [
              -5.67366943359375,
              40.97802869481521
            ],
            [
              -5.673028670818243,
              40.97800890130278
            ],
            [
              -5.673028670818243,
              40.97755714417264
            ],
            [
              -5.67366943359375,
              40.97753697185935
            ]
          ],
          [
            [
              -5.673371386528015,
              40.96103313067732
            ],
            [
              -5.673433200443924,
              40.96174564461801
            ],
            [
              -5.672602398765121,
              40.96174564461801
            ],
            [
              -5.672632498262835,
              40.961068008922815
            ],
            [
              -5.673371386528015,
              40.96103313067732
            ]
          ],
          [
            [
              -5.668602633476257,
              40.97663849790077
            ],
            [
              -5.668602633476257,
              40.97711424175435
            ],
            [
              -5.667673914919627,
              40.97710538704251
            ],
            [
              -5.667708492279052,
              40.97660346876964
            ],
            [
              -5.668602633476257,
              40.97663849790077
            ]
          ],
          [
            [
              -5.666516304016113,
              40.96849209711092
            ],
            [
              -5.666582592506564,
              40.96897375870013
            ],
            [
              -5.665881045671223,
              40.96897375870013
            ],
            [
              -5.665920209884644,
              40.96849209711092
            ],
            [
              -5.666516304016113,
              40.96849209711092
            ]
          ],
          [
            [
              -5.666516304016113,
              40.97813098122106
            ],
            [
              -5.666789463022106,
              40.97823477986785
            ],
            [
              -5.666789463022106,
              40.97868653699798
            ],
            [
              -5.665846509343337,
              40.97868653699798
            ],
            [
              -5.665920209884644,
              40.97813098122106
            ],
            [
              -5.666516304016113,
              40.97813098122106
            ]
          ],
          [
            [
              -5.658469033241272,
              40.96196580536596
            ],
            [
              -5.658544159049913,
              40.96264915887828
            ],
            [
              -5.658225358194199,
              40.963326794573476
            ],
            [
              -5.657624285339601,
              40.963778551703605
            ],
            [
              -5.656978797912598,
              40.963992824842
            ],
            [
              -5.656084656715393,
              40.964011538703126
            ],
            [
              -5.655329097356371,
              40.963778551703605
            ],
            [
              -5.654725650189287,
              40.963326794573476
            ],
            [
              -5.654406024732279,
              40.96264915887828
            ],
            [
              -5.654478669397918,
              40.96197152318308
            ],
            [
              -5.654785162424626,
              40.961519766052945
            ],
            [
              -5.6554662439597445,
              40.961068008922815
            ],
            [
              -5.656084656715393,
              40.96089962623856
            ],
            [
              -5.656978797912598,
              40.96091841197977
            ],
            [
              -5.657574892044067,
              40.96110789213069
            ],
            [
              -5.658166900994607,
              40.961519766052945
            ],
            [
              -5.658469033241272,
              40.96196580536596
            ]
          ],
          [
            [
              -5.657872939109803,
              40.967441608147126
            ],
            [
              -5.658069872194048,
              40.967618487309736
            ],
            [
              -5.658087587508601,
              40.9678443658748
            ],
            [
              -5.658087587508601,
              40.96829612300493
            ],
            [
              -5.657872939109803,
              40.96849770580411
            ],
            [
              -5.656978797912598,
              40.96862710169347
            ],
            [
              -5.656463314199427,
              40.96829612300493
            ],
            [
              -5.656481043227154,
              40.967618487309736
            ],
            [
              -5.656680750846863,
              40.96743970874787
            ],
            [
              -5.657574892044067,
              40.96731043722162
            ],
            [
              -5.657872939109803,
              40.967441608147126
            ]
          ],
          [
            [
              -5.656978797912598,
              40.95567150214012
            ],
            [
              -5.657127537577107,
              40.95587280192629
            ],
            [
              -5.657127537577107,
              40.956324559056426
            ],
            [
              -5.656978797912598,
              40.95648321528161
            ],
            [
              -5.656084656715393,
              40.95661016872445
            ],
            [
              -5.65571057450179,
              40.956324559056426
            ],
            [
              -5.65571057450179,
              40.95587280192629
            ],
            [
              -5.656084656715393,
              40.955545874936504
            ],
            [
              -5.656978797912598,
              40.95567150214012
            ]
          ],
          [
            [
              -5.653998327255249,
              40.9749739523808
            ],
            [
              -5.654155015671916,
              40.97507247995692
            ],
            [
              -5.654155015671916,
              40.97552423708705
            ],
            [
              -5.653998327255249,
              40.97564768225527
            ],
            [
              -5.65340223312378,
              40.97564768225527
            ],
            [
              -5.653269881061843,
              40.97552423708705
            ],
            [
              -5.653269881061843,
              40.97507247995692
            ],
            [
              -5.653998327255249,
              40.9749739523808
            ]
          ],
          [
            [
              -5.65340223312378,
              40.98165918453986
            ],
            [
              -5.65347988119836,
              40.9825264726041
            ],
            [
              -5.652806138992309,
              40.983120747504245
            ],
            [
              -5.65161395072937,
              40.983189915458844
            ],
            [
              -5.651149809047027,
              40.982978229734236
            ],
            [
              -5.650740388592843,
              40.9825264726041
            ],
            [
              -5.65071461942242,
              40.9818488369089
            ],
            [
              -5.650842179832872,
              40.981622958343834
            ],
            [
              -5.65161395072937,
              40.981126217220876
            ],
            [
              -5.652508091926575,
              40.98110210534366
            ],
            [
              -5.653104186058044,
              40.98135813500366
            ],
            [
              -5.65340223312378,
              40.98165918453986
            ]
          ],
          [
            [
              -5.651315903663635,
              40.966850903536574
            ],
            [
              -5.651589602998693,
              40.9671667301796
            ],
            [
              -5.651589602998693,
              40.967618487309736
            ],
            [
              -5.651315903663635,
              40.96777311693413
            ],
            [
              -5.650719809532165,
              40.96777311693413
            ],
            [
              -5.650482094102325,
              40.967618487309736
            ],
            [
              -5.65056285930123,
              40.96694085161454
            ],
            [
              -5.651315903663635,
              40.966850903536574
            ]
          ],
          [
            [
              -5.650421762466431,
              40.96574811716231
            ],
            [
              -5.650421762466431,
              40.96632595678041
            ],
            [
              -5.649499133687534,
              40.966263215919334
            ],
            [
              -5.649527621269226,
              40.96578303888649
            ],
            [
              -5.650421762466431,
              40.96574811716231
            ]
          ],
          [
            [
              -5.647441291809082,
              40.95335153935667
            ],
            [
              -5.647441291809082,
              40.953966670900904
            ],
            [
              -5.646845197677612,
              40.953966670900904
            ],
            [
              -5.646704785865469,
              40.9538398948407
            ],
            [
              -5.646704785865469,
              40.95338813771056
            ],
            [
              -5.647441291809082,
              40.95335153935667
            ]
          ],
          [
            [
              -5.646547150611878,
              40.96014697045827
            ],
            [
              -5.646572139137191,
              40.96061625179268
            ],
            [
              -5.645940568959528,
              40.96061625179268
            ],
            [
              -5.645951056480408,
              40.96014697045827
            ],
            [
              -5.646547150611878,
              40.96014697045827
            ]
          ],
          [
            [
              -5.64058620929718,
              40.9720757272371
            ],
            [
              -5.640832770526866,
              40.972361937176125
            ],
            [
              -5.640832770526866,
              40.972813694306254
            ],
            [
              -5.64058620929718,
              40.97291606261658
            ],
            [
              -5.639838913003809,
              40.972813694306254
            ],
            [
              -5.639893216783295,
              40.972136058611056
            ],
            [
              -5.64058620929718,
              40.9720757272371
            ]
          ],
          [
            [
              -5.6373076915740965,
              40.96407672058144
            ],
            [
              -5.637420346633348,
              40.96490794452894
            ],
            [
              -5.63721616809282,
              40.96535970165907
            ],
            [
              -5.636711597442627,
              40.965833166511146
            ],
            [
              -5.635817456245422,
              40.966161861157424
            ],
            [
              -5.634923315048217,
              40.96615528671375
            ],
            [
              -5.634327220916748,
              40.96597204697778
            ],
            [
              -5.633731126785278,
              40.96556177686164
            ],
            [
              -5.633359368962391,
              40.96490794452894
            ],
            [
              -5.633400813570525,
              40.96423030883374
            ],
            [
              -5.633673153527655,
              40.963778551703605
            ],
            [
              -5.634284374656957,
              40.963326794573476
            ],
            [
              -5.634923315048217,
              40.96312291772346
            ],
            [
              -5.635817456245422,
              40.963116345324046
            ],
            [
              -5.636413550376892,
              40.963288527080245
            ],
            [
              -5.637009644508362,
              40.963680168271864
            ],
            [
              -5.6373076915740965,
              40.96407672058144
            ]
          ],
          [
            [
              -5.636115503311157,
              40.9707296158343
            ],
            [
              -5.636115503311157,
              40.97127987070647
            ],
            [
              -5.635519409179688,
              40.97177012655846
            ],
            [
              -5.634625267982483,
              40.97177331977137
            ],
            [
              -5.633993921496866,
              40.97123254435079
            ],
            [
              -5.6341214641751325,
              40.97055490865559
            ],
            [
              -5.634625267982483,
              40.970226481765394
            ],
            [
              -5.635519409179688,
              40.970229686721794
            ],
            [
              -5.636115503311157,
              40.9707296158343
            ]
          ],
          [
            [
              -5.635817456245422,
              40.953906112143564
            ],
            [
              -5.636101835951748,
              40.954517530535895
            ],
            [
              -5.636002027549843,
              40.95542104479616
            ],
            [
              -5.635464754765518,
              40.95609868049136
            ],
            [
              -5.634605664792722,
              40.95655043762149
            ],
            [
              -5.633433079719543,
              40.95667390166251
            ],
            [
              -5.632538938522339,
              40.95649865267105
            ],
            [
              -5.6316447973251345,
              40.95592851515191
            ],
            [
              -5.631211953369832,
              40.95519516623109
            ],
            [
              -5.631193483158195,
              40.954517530535895
            ],
            [
              -5.63152687333037,
              40.9538398948407
            ],
            [
              -5.632040252976202,
              40.95338813771056
            ],
            [
              -5.6328369855880736,
              40.953043646400616
            ],
            [
              -5.6340291738510135,
              40.95296293850314
            ],
            [
              -5.634625267982483,
              40.953092384930784
            ],
            [
              -5.635257011397093,
              40.95338813771056
            ],
            [
              -5.635817456245422,
              40.953906112143564
            ]
          ]
        ]
      }
    }
  ]
}