{
  "type": "FeatureCollection",
  "features": [
    {
      "type": "Feature",
      "properties": {},
      "geometry": {
        "type": "MultiPolygon",
        "coordinates": [
          [
            [
              [
                -5.690062022209167,
                40.95309136193355
              ],
              [
                -5.689507965830795,
                40.95293638058043
              ],
              [
                -5.689507965830795,
                40.952710502015364
              ],
              [
                -5.682461758137752,
                40.952710502015364
              ],
              [
                -5.682439783790699,
                40.95338813771056
              ],
              [
                -5.683504986763,
                40.95353946442269
              ],
              [
                -5.685065403705056,
                40.95429165197083
              ],
              [
                -5.685212818689367,
                40.954517530535895
              ],
              [
                -5.685212818689367,
                40.954969287666025
              ],
              [
                -5.684995222091675,
                40.95536604349953
              ],
              [
                -5.684399127960205,
                40.95566162884471
              ],
              [
                -5.6826108455657955,
                40.95560115617794
              ],
              [
                -5.682014751434326,
                40.95594967158659
              ],
              [
                -5.681120610237121,
                40.955887488291246
              ],
              [
                -5.680524516105652,
                40.955579669940064
              ],
              [
                -5.67968012089324,
                40.95587280192629
              ],
              [
                -5.67968012089324,
                40.95609868049136
              ],
              [
                -5.679332327842713,
                40.95619991657468
              ],
              [
                -5.679392906998436,
                40.957002194751624
              ],
              [
                -5.679066673778685,
                40.95745395188175
              ],
              [
                -5.678438186645508,
                40.95769076466112
              ],
              [
                -5.677842092514038,
                40.95769076466112
              ],
              [
                -5.6769479513168335,
                40.95755662571035
              ],
              [
                -5.676399551868337,
                40.957002194751624
              ],
              [
                -5.676527462024174,
                40.956324559056426
              ],
              [
                -5.677158918597261,
                40.95587280192629
              ],
              [
                -5.677224171552507,
                40.954517530535895
              ],
              [
                -5.677544045448303,
                40.95420660695048
              ],
              [
                -5.678140139579773,
                40.954004673285034
              ],
              [
                -5.680226469039917,
                40.95406536991991
              ],
              [
                -5.680822563171387,
                40.95440676078335
              ],
              [
                -5.681120610237121,
                40.95424226565322
              ],
              [
                -5.681382468972544,
                40.95406577340576
              ],
              [
                -5.6814186573028564,
                40.95384505712646
              ],
              [
                -5.68171938166223,
                40.9538398948407
              ],
              [
                -5.680822563171387,
                40.95380127543043
              ],
              [
                -5.6804774548576304,
                40.95361401627563
              ],
              [
                -5.680264571409831,
                40.95338813771056
              ],
              [
                -5.680198357540452,
                40.952710502015364
              ],
              [
                -5.665165306609877,
                40.952710502015364
              ],
              [
                -5.665199783735275,
                40.95338813771056
              ],
              [
                -5.665026068687439,
                40.95362736452096
              ],
              [
                -5.664429974555969,
                40.95394022359157
              ],
              [
                -5.6638338804245,
                40.95394022359157
              ],
              [
                -5.663237786293029,
                40.95371021034003
              ],
              [
                -5.662963245662162,
                40.95338813771056
              ],
              [
                -5.6629980450362645,
                40.952710502015364
              ],
              [
                -5.653604388445491,
                40.952710502015364
              ],
              [
                -5.653603007073153,
                40.95316225914549
              ],
              [
                -5.653104186058044,
                40.9536846344341
              ],
              [
                -5.65221004486084,
                40.95379244506019
              ],
              [
                -5.651315903663635,
                40.95346956210222
              ],
              [
                -5.650421762466431,
                40.95347927360072
              ],
              [
                -5.649961392329397,
                40.95406577340576
              ],
              [
                -5.649527621269226,
                40.9542943092353
              ],
              [
                -5.6486334800720215,
                40.95428898842861
              ],
              [
                -5.648216696238984,
                40.95406577340576
              ],
              [
                -5.647999206889029,
                40.9538398948407
              ],
              [
                -5.64789862641379,
                40.95316225914549
              ],
              [
                -5.647359093450464,
                40.95293638058043
              ],
              [
                -5.647359093450464,
                40.952710502015364
              ],
              [
                -5.63075065612793,
                40.952710502015364
              ],
              [
                -5.63075065612793,
                40.983655865429434
              ],
              [
                -5.663268485539672,
                40.983655865429434
              ],
              [
                -5.663237786293029,
                40.982976015434
              ],
              [
                -5.663535833358765,
                40.98263959134811
              ],
              [
                -5.664131927490234,
                40.98243463948326
              ],
              [
                -5.664728021621704,
                40.98243463948326
              ],
              [
                -5.665310889041885,
                40.98275235116917
              ],
              [
                -5.66547201093152,
                40.982978229734236
              ],
              [
                -5.665440317980074,
                40.983655865429434
              ],
              [
                -5.690360069274902,
                40.983655865429434
              ],
              [
                -5.690360069274902,
                40.95493745014401
              ],
              [
                -5.6896714470185685,
                40.95519516623109
              ],
              [
                -5.6897490182492625,
                40.95587280192629
              ],
              [
                -5.689465928077698,
                40.95624466517004
              ],
              [
                -5.688869833946228,
                40.95649473084436
              ],
              [
                -5.6882737398147585,
                40.95649473084436
              ],
              [
                -5.687587660496421,
                40.95609868049136
              ],
              [
                -5.687303497499105,
                40.95542104479616
              ],
              [
                -5.686364034983886,
                40.954969287666025
              ],
              [
                -5.686155334923934,
                40.954517530535895
              ],
              [
                -5.686187410354615,
                40.954016852440404
              ],
              [
                -5.686783504486084,
                40.95356620802728
              ],
              [
                -5.6882737398147585,
                40.953572461317954
              ],
              [
                -5.689763975143433,
                40.95330267580803
              ],
              [
                -5.690360069274902,
                40.95356881250058
              ],
              [
                -5.690360069274902,
                40.95309136193355
              ],
              [
                -5.690062022209167,
                40.95309136193355
              ]
            ],
            [
              [
                -5.689465928077698,
                40.965345239791
              ],
              [
                -5.6895242314680345,
                40.96603733735427
              ],
              [
                -5.68942295588027,
                40.966263215919334
              ],
              [
                -5.688953845625451,
                40.96671497304947
              ],
              [
                -5.6883438835433715,
                40.96694085161454
              ],
              [
                -5.687677645683289,
                40.96695630165721
              ],
              [
                -5.6870815515518185,
                40.966785102633025
              ],
              [
                -5.686663393329536,
                40.9664890944844
              ],
              [
                -5.68638444652617,
                40.96603733735427
              ],
              [
                -5.68638444652617,
                40.965585580224136
              ],
              [
                -5.686577577833536,
                40.96513382309401
              ],
              [
                -5.687379598617554,
                40.9646274292125
              ],
              [
                -5.688571786880493,
                40.96464027405807
              ],
              [
                -5.689096023875019,
                40.96490794452894
              ],
              [
                -5.689465928077698,
                40.965345239791
              ]
            ],
            [
              [
                -5.687975692749023,
                40.95814819980864
              ],
              [
                -5.6881849477164454,
                40.95858334470709
              ],
              [
                -5.6881849477164454,
                40.959035101837216
              ],
              [
                -5.688028182469787,
                40.95948685896735
              ],
              [
                -5.687677645683289,
                40.9598657445518
              ],
              [
                -5.686783504486084,
                40.96026617541625
              ],
              [
                -5.685699193616842,
                40.96039037322762
              ],
              [
                -5.685674386963948,
                40.96084213035775
              ],
              [
                -5.685134048139615,
                40.96129388748788
              ],
              [
                -5.68410108089447,
                40.961334253980716
              ],
              [
                -5.683464549963565,
                40.96084213035775
              ],
              [
                -5.68346967919554,
                40.96016449466255
              ],
              [
                -5.6838030338287355,
                40.95982384979321
              ],
              [
                -5.6845423670213915,
                40.95948685896735
              ],
              [
                -5.68438488568525,
                40.95858334470709
              ],
              [
                -5.684599874217159,
                40.95813158757695
              ],
              [
                -5.684399127960205,
                40.95791123635936
              ],
              [
                -5.6838030338287355,
                40.95831260994311
              ],
              [
                -5.682908892631531,
                40.95831346454325
              ],
              [
                -5.682312798500061,
                40.95807653214847
              ],
              [
                -5.6814186573028564,
                40.95808250179021
              ],
              [
                -5.680811980363749,
                40.95767983044682
              ],
              [
                -5.680682801230587,
                40.957002194751624
              ],
              [
                -5.680883315455283,
                40.95655043762149
              ],
              [
                -5.6814186573028564,
                40.95623555189285
              ],
              [
                -5.683206939697266,
                40.95621545934812
              ],
              [
                -5.6843615779202,
                40.957002194751624
              ],
              [
                -5.68469717502594,
                40.95780127635472
              ],
              [
                -5.684941825419856,
                40.95745395188175
              ],
              [
                -5.68529326915741,
                40.95725839207144
              ],
              [
                -5.686187410354615,
                40.95720364070204
              ],
              [
                -5.687379598617554,
                40.957651948075494
              ],
              [
                -5.687975692749023,
                40.95814819980864
              ]
            ],
            [
              [
                -5.6870815515518185,
                40.96348717516639
              ],
              [
                -5.687000783058041,
                40.96423030883374
              ],
              [
                -5.686485457420349,
                40.964595723563015
              ],
              [
                -5.68529326915741,
                40.96467100512173
              ],
              [
                -5.684674732937679,
                40.96423030883374
              ],
              [
                -5.6846836011198745,
                40.963326794573476
              ],
              [
                -5.68529326915741,
                40.96275693290416
              ],
              [
                -5.686187410354615,
                40.96269754277763
              ],
              [
                -5.686485457420349,
                40.9628047434201
              ],
              [
                -5.6870815515518185,
                40.96348717516639
              ]
            ],
            [
              [
                -5.682908892631531,
                40.972695910319175
              ],
              [
                -5.6831654365683235,
                40.97303957287132
              ],
              [
                -5.683067675166573,
                40.97371720856652
              ],
              [
                -5.682299950143074,
                40.974168965696656
              ],
              [
                -5.682070461522069,
                40.97484660139185
              ],
              [
                -5.6814186573028564,
                40.97523343948317
              ],
              [
                -5.680524516105652,
                40.97518082630426
              ],
              [
                -5.679894485512183,
                40.974620722826785
              ],
              [
                -5.679034280776977,
                40.974501659500795
              ],
              [
                -5.678438186645508,
                40.97421146189574
              ],
              [
                -5.677842092514038,
                40.974399387495005
              ],
              [
                -5.676351857185364,
                40.974395539291855
              ],
              [
                -5.676053810119629,
                40.974366070332465
              ],
              [
                -5.675755763053894,
                40.97411145365819
              ],
              [
                -5.675159668922424,
                40.97413780613829
              ],
              [
                -5.674324676482511,
                40.974620722826785
              ],
              [
                -5.67486162185669,
                40.97486113273404
              ],
              [
                -5.676649904251098,
                40.97506112068798
              ],
              [
                -5.677245998382569,
                40.97533511071003
              ],
              [
                -5.678736233711243,
                40.9752936409263
              ],
              [
                -5.679300664008033,
                40.97575011565212
              ],
              [
                -5.679474860193924,
                40.97620187278225
              ],
              [
                -5.679928421974182,
                40.97639991454911
              ],
              [
                -5.680489059774792,
                40.97575011565212
              ],
              [
                -5.680822563171387,
                40.975584781953145
              ],
              [
                -5.681716704368592,
                40.97556688892571
              ],
              [
                -5.682104218609512,
                40.97575011565212
              ],
              [
                -5.682443471250331,
                40.97620187278225
              ],
              [
                -5.682443471250331,
                40.97710538704251
              ],
              [
                -5.682312798500061,
                40.97724215215384
              ],
              [
                -5.681120610237121,
                40.97725986782654
              ],
              [
                -5.680475076222293,
                40.97710538704251
              ],
              [
                -5.679841640478417,
                40.97778302273771
              ],
              [
                -5.678887846810695,
                40.97800890130278
              ],
              [
                -5.678736233711243,
                40.978558807950684
              ],
              [
                -5.678393699906986,
                40.978912415563045
              ],
              [
                -5.677145126238414,
                40.97913829412811
              ],
              [
                -5.677297123883318,
                40.97959005125824
              ],
              [
                -5.677742088760147,
                40.98004180838837
              ],
              [
                -5.677841272090424,
                40.980719444083576
              ],
              [
                -5.677433565239162,
                40.981171201213705
              ],
              [
                -5.676351857185364,
                40.98159746557188
              ],
              [
                -5.675159668922424,
                40.98159576297364
              ],
              [
                -5.674768109311694,
                40.98094532264864
              ],
              [
                -5.674722287044241,
                40.97981592982331
              ],
              [
                -5.67426552772522,
                40.979390710624564
              ],
              [
                -5.673967480659485,
                40.97969086350128
              ],
              [
                -5.673166293614256,
                40.98004180838837
              ],
              [
                -5.672800847398678,
                40.98049356551851
              ],
              [
                -5.6726827265344175,
                40.98094532264864
              ],
              [
                -5.672179198265075,
                40.981348318503166
              ],
              [
                -5.6712850570678714,
                40.98142620199014
              ],
              [
                -5.670987010002136,
                40.98132615955649
              ],
              [
                -5.670532814665342,
                40.98094532264864
              ],
              [
                -5.670390915870667,
                40.98049756914606
              ],
              [
                -5.669712268358811,
                40.98094532264864
              ],
              [
                -5.6690067510590305,
                40.981171201213705
              ],
              [
                -5.669163214000727,
                40.98139707977877
              ],
              [
                -5.669191199699815,
                40.98207471547397
              ],
              [
                -5.668602633476257,
                40.98256662793625
              ],
              [
                -5.667708492279052,
                40.98263464325752
              ],
              [
                -5.667410445213318,
                40.98251285865787
              ],
              [
                -5.6668143510818485,
                40.98178807899013
              ],
              [
                -5.665324115753174,
                40.98181602032485
              ],
              [
                -5.664429974555969,
                40.982170685492896
              ],
              [
                -5.6638338804245,
                40.98217010868732
              ],
              [
                -5.663237786293029,
                40.98195352961902
              ],
              [
                -5.662922494482862,
                40.981622958343834
              ],
              [
                -5.66292085845652,
                40.98094532264864
              ],
              [
                -5.66324107777658,
                40.98049356551851
              ],
              [
                -5.663078412553476,
                40.98026768695344
              ],
              [
                -5.663103931300907,
                40.97959005125824
              ],
              [
                -5.663535833358765,
                40.97920433384782
              ],
              [
                -5.664131927490234,
                40.97899539327228
              ],
              [
                -5.664728021621704,
                40.97841062331201
              ],
              [
                -5.6656221628189085,
                40.9782974610502
              ],
              [
                -5.666132188442905,
                40.97800890130278
              ],
              [
                -5.6668143510818485,
                40.97791198386732
              ],
              [
                -5.667708492279052,
                40.97793831515995
              ],
              [
                -5.668006539344788,
                40.97810549815534
              ],
              [
                -5.66832132566889,
                40.97846065843291
              ],
              [
                -5.668394208613854,
                40.97913829412811
              ],
              [
                -5.667708492279052,
                40.97957487441369
              ],
              [
                -5.6668143510818485,
                40.979621572570885
              ],
              [
                -5.666582994375191,
                40.97981592982331
              ],
              [
                -5.6668143510818485,
                40.97999539775803
              ],
              [
                -5.667708492279052,
                40.98004324781627
              ],
              [
                -5.668304586410523,
                40.9794524741522
              ],
              [
                -5.668602633476257,
                40.97937014877169
              ],
              [
                -5.669496774673462,
                40.97937222050109
              ],
              [
                -5.6700928688049315,
                40.979528101835434
              ],
              [
                -5.670558290992362,
                40.97868653699798
              ],
              [
                -5.67004054392315,
                40.97823477986785
              ],
              [
                -5.670058706247422,
                40.97755714417264
              ],
              [
                -5.6706267769974525,
                40.97710538704251
              ],
              [
                -5.669794821739197,
                40.976900892505576
              ],
              [
                -5.669444003539788,
                40.976653629912384
              ],
              [
                -5.669097493559837,
                40.97597599421718
              ],
              [
                -5.669097493559837,
                40.97552423708705
              ],
              [
                -5.6700928688049315,
                40.97526692586024
              ],
              [
                -5.6712850570678714,
                40.97536525687942
              ],
              [
                -5.671368635082771,
                40.97507247995692
              ],
              [
                -5.671241089849341,
                40.97484660139185
              ],
              [
                -5.670688962936401,
                40.97450062140628
              ],
              [
                -5.669496774673462,
                40.974316257463094
              ],
              [
                -5.668900680541992,
                40.974009554796915
              ],
              [
                -5.668739732942969,
                40.974168965696656
              ],
              [
                -5.668714764339796,
                40.974620722826785
              ],
              [
                -5.668304586410523,
                40.97506439772438
              ],
              [
                -5.667410445213318,
                40.9751901627065
              ],
              [
                -5.6668143510818485,
                40.97506198920124
              ],
              [
                -5.666745528457481,
                40.97552423708705
              ],
              [
                -5.666516304016113,
                40.97580887265854
              ],
              [
                -5.665920209884644,
                40.9760822254675
              ],
              [
                -5.665324115753174,
                40.9760822254675
              ],
              [
                -5.664728021621704,
                40.975797928742914
              ],
              [
                -5.66451216918113,
                40.97552423708705
              ],
              [
                -5.664542877052834,
                40.97484660139185
              ],
              [
                -5.665026068687439,
                40.974439152081075
              ],
              [
                -5.665324115753174,
                40.97434419371075
              ],
              [
                -5.666218256950378,
                40.9744331409869
              ],
              [
                -5.666390571175284,
                40.974168965696656
              ],
              [
                -5.666218256950378,
                40.97393943471348
              ],
              [
                -5.665026068687439,
                40.97382057643288
              ],
              [
                -5.664728021621704,
                40.973843761259815
              ],
              [
                -5.664326158534591,
                40.974168965696656
              ],
              [
                -5.664101337817428,
                40.97484660139185
              ],
              [
                -5.663617531609363,
                40.97529835852198
              ],
              [
                -5.663692044013539,
                40.97597599421718
              ],
              [
                -5.6643398572520836,
                40.976653629912384
              ],
              [
                -5.664293827428282,
                40.97733126560758
              ],
              [
                -5.66409295655183,
                40.97755714417264
              ],
              [
                -5.663535833358765,
                40.977816772951655
              ],
              [
                -5.661449503898621,
                40.977760937462946
              ],
              [
                -5.660555362701416,
                40.97735665099165
              ],
              [
                -5.6599592685699465,
                40.97731402712933
              ],
              [
                -5.659210713304641,
                40.976879508477445
              ],
              [
                -5.657276844978332,
                40.9763592726384
              ],
              [
                -5.657234281061177,
                40.976879508477445
              ],
              [
                -5.656978797912598,
                40.97728411565632
              ],
              [
                -5.655873108377246,
                40.97778302273771
              ],
              [
                -5.655869902350226,
                40.97800890130278
              ],
              [
                -5.65644502184459,
                40.97868653699798
              ],
              [
                -5.6563075832499194,
                40.979364172693174
              ],
              [
                -5.655190515518188,
                40.98009591056477
              ],
              [
                -5.6542963743209835,
                40.980055854871146
              ],
              [
                -5.653700280189514,
                40.979807811718
              ],
              [
                -5.652846928764259,
                40.98026768695344
              ],
              [
                -5.653150814347619,
                40.980719444083576
              ],
              [
                -5.6531563745280025,
                40.98139707977877
              ],
              [
                -5.653505509690202,
                40.9818488369089
              ],
              [
                -5.65347988119836,
                40.9825264726041
              ],
              [
                -5.652806138992309,
                40.983120747504245
              ],
              [
                -5.651911997795105,
                40.983214111576686
              ],
              [
                -5.651149809047027,
                40.982978229734236
              ],
              [
                -5.650668140476193,
                40.98230059403904
              ],
              [
                -5.649825668334961,
                40.98193301189622
              ],
              [
                -5.649229574203491,
                40.98134822968371
              ],
              [
                -5.648931527137757,
                40.98163333210484
              ],
              [
                -5.648335433006286,
                40.9817756876199
              ],
              [
                -5.647739338874817,
                40.9817756876199
              ],
              [
                -5.647143244743347,
                40.98138783693918
              ],
              [
                -5.647024040654171,
                40.980719444083576
              ],
              [
                -5.647386815655123,
                40.98026768695344
              ],
              [
                -5.647739338874817,
                40.9801032426007
              ],
              [
                -5.6486334800720215,
                40.980110689038
              ],
              [
                -5.649527621269226,
                40.98074575584917
              ],
              [
                -5.650123715400696,
                40.98037408158982
              ],
              [
                -5.651017856597901,
                40.980377990234025
              ],
              [
                -5.651739097447551,
                40.98004180838837
              ],
              [
                -5.650719809532165,
                40.979832003280684
              ],
              [
                -5.649825668334961,
                40.97909055844295
              ],
              [
                -5.648931527137757,
                40.97904138250444
              ],
              [
                -5.648037385940552,
                40.978307592866635
              ],
              [
                -5.647864187692729,
                40.97800890130278
              ],
              [
                -5.647739338874817,
                40.977175895891214
              ],
              [
                -5.646939084659365,
                40.976653629912384
              ],
              [
                -5.646763994656376,
                40.976427751347316
              ],
              [
                -5.646717404378811,
                40.97575011565212
              ],
              [
                -5.646249103546142,
                40.97548509692054
              ],
              [
                -5.6459285626487485,
                40.97507247995692
              ],
              [
                -5.6459285626487485,
                40.974620722826785
              ],
              [
                -5.646299018944472,
                40.974168965696656
              ],
              [
                -5.645951629320173,
                40.97371720856652
              ],
              [
                -5.645934183920344,
                40.97303957287132
              ],
              [
                -5.646249103546142,
                40.97269789271131
              ],
              [
                -5.646935530013066,
                40.972361937176125
              ],
              [
                -5.6471547250282565,
                40.97168430148093
              ],
              [
                -5.648335433006286,
                40.97082510951075
              ],
              [
                -5.649229574203491,
                40.97073654511713
              ],
              [
                -5.649825668334961,
                40.97087187607494
              ],
              [
                -5.650567198915197,
                40.97123254435079
              ],
              [
                -5.650719809532165,
                40.97149464716706
              ],
              [
                -5.65084269272352,
                40.97078078722066
              ],
              [
                -5.651007220656145,
                40.97055490865559
              ],
              [
                -5.65161395072937,
                40.97023738534078
              ],
              [
                -5.65221004486084,
                40.970167207529364
              ],
              [
                -5.652325173150893,
                40.96965139439533
              ],
              [
                -5.650421762466431,
                40.96951461062252
              ],
              [
                -5.649527621269226,
                40.96959852041989
              ],
              [
                -5.648931527137757,
                40.97000317288502
              ],
              [
                -5.648037385940552,
                40.970039829244975
              ],
              [
                -5.647441291809082,
                40.97035111858101
              ],
              [
                -5.646547150611878,
                40.97032343198532
              ],
              [
                -5.645951056480408,
                40.97055458529432
              ],
              [
                -5.645056915283203,
                40.97049217576196
              ],
              [
                -5.644960103908287,
                40.97055490865559
              ],
              [
                -5.645089233082209,
                40.97078078722066
              ],
              [
                -5.645091050968571,
                40.97145842291586
              ],
              [
                -5.644758868217468,
                40.9718024210543
              ],
              [
                -5.642970585823059,
                40.972539060250156
              ],
              [
                -5.64118230342865,
                40.97249551338322
              ],
              [
                -5.640848207788791,
                40.972813694306254
              ],
              [
                -5.6408561084133835,
                40.97303957287132
              ],
              [
                -5.64139832165282,
                40.97349133000145
              ],
              [
                -5.641399046167054,
                40.974168965696656
              ],
              [
                -5.64118230342865,
                40.97442939565024
              ],
              [
                -5.64058620929718,
                40.974699425751325
              ],
              [
                -5.639692068099976,
                40.97460501625551
              ],
              [
                -5.639194261075658,
                40.974168965696656
              ],
              [
                -5.639194984447635,
                40.97349133000145
              ],
              [
                -5.63973930515973,
                40.97303957287132
              ],
              [
                -5.639523981445931,
                40.972813694306254
              ],
              [
                -5.63922035566634,
                40.972813694306254
              ],
              [
                -5.6384998798370365,
                40.9733136522267
              ],
              [
                -5.6373076915740965,
                40.973389573271966
              ],
              [
                -5.636711597442627,
                40.972982380981605
              ],
              [
                -5.63661348759516,
                40.972361937176125
              ],
              [
                -5.636711597442627,
                40.97212439125881
              ],
              [
                -5.6377663681513255,
                40.97123254435079
              ],
              [
                -5.637468873049003,
                40.97078078722066
              ],
              [
                -5.637468873049003,
                40.970329030090525
              ],
              [
                -5.637903785705566,
                40.96987137609083
              ],
              [
                -5.638797926902771,
                40.96975289012011
              ],
              [
                -5.63939402103424,
                40.969928397399016
              ],
              [
                -5.6397403816534775,
                40.970329030090525
              ],
              [
                -5.639692068099976,
                40.971173647746404
              ],
              [
                -5.640288162231445,
                40.97067789725575
              ],
              [
                -5.641471493405332,
                40.970103151525464
              ],
              [
                -5.6413161564730885,
                40.969877272960396
              ],
              [
                -5.641359837156322,
                40.9691996372652
              ],
              [
                -5.642672538757324,
                40.96810066851232
              ],
              [
                -5.642970585823059,
                40.96798320282151
              ],
              [
                -5.643864727020263,
                40.96801622301088
              ],
              [
                -5.644290417076273,
                40.9678443658748
              ],
              [
                -5.644265730692443,
                40.9671667301796
              ],
              [
                -5.643916177258112,
                40.96671497304947
              ],
              [
                -5.643864727020263,
                40.96620723861002
              ],
              [
                -5.642672538757324,
                40.96638835301872
              ],
              [
                -5.642350180919371,
                40.966263215919334
              ],
              [
                -5.64191445770474,
                40.965811458789204
              ],
              [
                -5.641983016611239,
                40.96513382309401
              ],
              [
                -5.642374491691589,
                40.96479595621673
              ],
              [
                -5.642672538757324,
                40.96468169049461
              ],
              [
                -5.643566679954529,
                40.96472733361986
              ],
              [
                -5.6441112506532995,
                40.96513382309401
              ],
              [
                -5.644194320978371,
                40.965585580224136
              ],
              [
                -5.644460821151734,
                40.96571025761078
              ],
              [
                -5.645354962348938,
                40.96561402115416
              ],
              [
                -5.645851598198958,
                40.965811458789204
              ],
              [
                -5.646216553335865,
                40.966263215919334
              ],
              [
                -5.646216553335865,
                40.96671497304947
              ],
              [
                -5.646597425723978,
                40.96739260874467
              ],
              [
                -5.646845197677612,
                40.967536431029984
              ],
              [
                -5.6479554786981625,
                40.96694085161454
              ],
              [
                -5.647086054924193,
                40.966263215919334
              ],
              [
                -5.647073037416077,
                40.965585580224136
              ],
              [
                -5.647441291809082,
                40.96521136336177
              ],
              [
                -5.647739338874817,
                40.96506521394976
              ],
              [
                -5.6486334800720215,
                40.96508087358458
              ],
              [
                -5.649527621269226,
                40.9657551503545
              ],
              [
                -5.650421762466431,
                40.96549275154779
              ],
              [
                -5.650995970731126,
                40.96490794452894
              ],
              [
                -5.650421762466431,
                40.964144424824255
              ],
              [
                -5.649527621269226,
                40.96370079449006
              ],
              [
                -5.6486334800720215,
                40.96381026924584
              ],
              [
                -5.648458005483076,
                40.963552673138544
              ],
              [
                -5.648389226718773,
                40.96264915887828
              ],
              [
                -5.648610727271508,
                40.96219740174814
              ],
              [
                -5.6487230430328434,
                40.96129388748788
              ],
              [
                -5.648525316941624,
                40.96084213035775
              ],
              [
                -5.6486334800720215,
                40.95959948612713
              ],
              [
                -5.649825668334961,
                40.95952774906422
              ],
              [
                -5.650421762466431,
                40.959816835796104
              ],
              [
                -5.650812234437279,
                40.95971273753241
              ],
              [
                -5.650719809532165,
                40.95954412492878
              ],
              [
                -5.649527621269226,
                40.959380325742394
              ],
              [
                -5.649229574203491,
                40.95905586045342
              ],
              [
                -5.649165754166228,
                40.95835746614202
              ],
              [
                -5.649527621269226,
                40.95796349193064
              ],
              [
                -5.65221004486084,
                40.95690239171586
              ],
              [
                -5.653104186058044,
                40.95697814686238
              ],
              [
                -5.6534843339563094,
                40.957228073316685
              ],
              [
                -5.654178250525705,
                40.95835746614202
              ],
              [
                -5.654174418263647,
                40.959260980402284
              ],
              [
                -5.653579742670051,
                40.95971273753241
              ],
              [
                -5.653596836935966,
                40.95993861609748
              ],
              [
                -5.6540875289044505,
                40.96039037322762
              ],
              [
                -5.654085093507244,
                40.961068008922815
              ],
              [
                -5.6542963743209835,
                40.96126364512751
              ],
              [
                -5.654594421386719,
                40.96147912685742
              ],
              [
                -5.654917681014373,
                40.961068008922815
              ],
              [
                -5.6554885625839235,
                40.96085872244447
              ],
              [
                -5.656680750846863,
                40.96087948434788
              ],
              [
                -5.657574892044067,
                40.96110789213069
              ],
              [
                -5.6582698299215535,
                40.96061625179268
              ],
              [
                -5.6586115737804095,
                40.96016449466255
              ],
              [
                -5.657276169100298,
                40.959035101837216
              ],
              [
                -5.657234147589418,
                40.95835746614202
              ],
              [
                -5.657393996004133,
                40.95813158757695
              ],
              [
                -5.658469033241272,
                40.9574301112014
              ],
              [
                -5.659363174438477,
                40.95732050890109
              ],
              [
                -5.660124043442942,
                40.95767983044682
              ],
              [
                -5.660333939561241,
                40.95835746614202
              ],
              [
                -5.660555362701416,
                40.95845110929054
              ],
              [
                -5.660853409767151,
                40.95850074245362
              ],
              [
                -5.661266546522813,
                40.95790570901189
              ],
              [
                -5.661747550964355,
                40.95767306345324
              ],
              [
                -5.66264169216156,
                40.95771879739913
              ],
              [
                -5.663237786293029,
                40.958186199740275
              ],
              [
                -5.664131927490234,
                40.9584414257817
              ],
              [
                -5.664270497291655,
                40.95835746614202
              ],
              [
                -5.664270497291655,
                40.95790570901189
              ],
              [
                -5.66464517049729,
                40.957002194751624
              ],
              [
                -5.6639448449481105,
                40.95655043762149
              ],
              [
                -5.663799781035994,
                40.956324559056426
              ],
              [
                -5.663799781035994,
                40.95587280192629
              ],
              [
                -5.6640945196315275,
                40.95542104479616
              ],
              [
                -5.664429974555969,
                40.95524253623716
              ],
              [
                -5.665324115753174,
                40.95520561721478
              ],
              [
                -5.6656221628189085,
                40.95532349190026
              ],
              [
                -5.665995079012827,
                40.95564692336122
              ],
              [
                -5.666071228571783,
                40.956324559056426
              ],
              [
                -5.666218256950378,
                40.956444904837696
              ],
              [
                -5.667708492279052,
                40.956711844124115
              ],
              [
                -5.668900680541992,
                40.95763829171848
              ],
              [
                -5.669496774673462,
                40.95698065267242
              ],
              [
                -5.670259951898293,
                40.956776316186556
              ],
              [
                -5.670124697923018,
                40.956324559056426
              ],
              [
                -5.669794821739197,
                40.956025315025606
              ],
              [
                -5.669198727607727,
                40.95625392702873
              ],
              [
                -5.667112398147583,
                40.956037313225934
              ],
              [
                -5.666636535263188,
                40.95564692336122
              ],
              [
                -5.666495334141071,
                40.95519516623109
              ],
              [
                -5.665924546595974,
                40.95474340910096
              ],
              [
                -5.6659077031694025,
                40.95406577340576
              ],
              [
                -5.666218256950378,
                40.953574063123696
              ],
              [
                -5.667410445213318,
                40.95354028046634
              ],
              [
                -5.667959221999594,
                40.9538398948407
              ],
              [
                -5.668304586410523,
                40.95445315775554
              ],
              [
                -5.669198727607727,
                40.95457599707046
              ],
              [
                -5.669291352366326,
                40.954517530535895
              ],
              [
                -5.6692335465805686,
                40.95361401627563
              ],
              [
                -5.669395937901528,
                40.95338813771056
              ],
              [
                -5.669794821739197,
                40.95312630735966
              ],
              [
                -5.670688962936401,
                40.95305786602852
              ],
              [
                -5.671311777011379,
                40.95338813771056
              ],
              [
                -5.671583104133606,
                40.9539623057712
              ],
              [
                -5.6724772453308105,
                40.954405616217045
              ],
              [
                -5.673967480659485,
                40.95407397571435
              ],
              [
                -5.67486162185669,
                40.95405306669906
              ],
              [
                -5.675324100801157,
                40.95429165197083
              ],
              [
                -5.675570782425781,
                40.95474340910096
              ],
              [
                -5.675570782425781,
                40.95519516623109
              ],
              [
                -5.674797465767075,
                40.956324559056426
              ],
              [
                -5.67426552772522,
                40.95652562971353
              ],
              [
                -5.67307333946228,
                40.956436207487926
              ],
              [
                -5.671881151199341,
                40.95715470227598
              ],
              [
                -5.671279343272963,
                40.957228073316685
              ],
              [
                -5.671392017456248,
                40.95790570901189
              ],
              [
                -5.6712712987106695,
                40.95813158757695
              ],
              [
                -5.670987010002136,
                40.95838146374017
              ],
              [
                -5.670292632610279,
                40.95858334470709
              ],
              [
                -5.670282015125813,
                40.958809223272155
              ],
              [
                -5.670715307508892,
                40.959260980402284
              ],
              [
                -5.6707765437299305,
                40.96016449466255
              ],
              [
                -5.671193781502174,
                40.96061625179268
              ],
              [
                -5.671193781502174,
                40.961068008922815
              ],
              [
                -5.670688962936401,
                40.961633403427584
              ],
              [
                -5.669794821739197,
                40.961810878183975
              ],
              [
                -5.669636065633168,
                40.96197152318308
              ],
              [
                -5.669697701811752,
                40.96219740174814
              ],
              [
                -5.670688962936401,
                40.962184031041936
              ],
              [
                -5.6712850570678714,
                40.96252682246585
              ],
              [
                -5.672265256169443,
                40.96242328031321
              ],
              [
                -5.672363158128973,
                40.96129388748788
              ],
              [
                -5.672017576228134,
                40.96061625179268
              ],
              [
                -5.672017576228134,
                40.96016449466255
              ],
              [
                -5.67237837087384,
                40.95971273753241
              ],
              [
                -5.672775292396546,
                40.95953359196943
              ],
              [
                -5.67366943359375,
                40.95956840122879
              ],
              [
                -5.673967480659485,
                40.95971696621464
              ],
              [
                -5.674663504646838,
                40.96084213035775
              ],
              [
                -5.674558140760792,
                40.96219740174814
              ],
              [
                -5.674409659555091,
                40.96242328031321
              ],
              [
                -5.673967480659485,
                40.96272090444693
              ],
              [
                -5.672996657155439,
                40.96287503744335
              ],
              [
                -5.673112108383021,
                40.963552673138544
              ],
              [
                -5.672727218830214,
                40.96400443026867
              ],
              [
                -5.672179198265075,
                40.96416996448414
              ],
              [
                -5.6712850570678714,
                40.964065337915855
              ],
              [
                -5.671122887538187,
                40.96423030883374
              ],
              [
                -5.671140270110829,
                40.96445618739881
              ],
              [
                -5.6712850570678714,
                40.96458710136554
              ],
              [
                -5.671881151199341,
                40.96431205877128
              ],
              [
                -5.672775292396546,
                40.96438464221396
              ],
              [
                -5.673371386528015,
                40.964861702627594
              ],
              [
                -5.673421776718037,
                40.96535970165907
              ],
              [
                -5.6731406722089615,
                40.965811458789204
              ],
              [
                -5.673365536833962,
                40.966263215919334
              ],
              [
                -5.673345609673134,
                40.96694085161454
              ],
              [
                -5.673089487800513,
                40.96739260874467
              ],
              [
                -5.673449091550971,
                40.9678443658748
              ],
              [
                -5.675159668922424,
                40.96786059275784
              ],
              [
                -5.676053810119629,
                40.96742470061149
              ],
              [
                -5.6769479513168335,
                40.96750361515002
              ],
              [
                -5.677530099916086,
                40.968070244439865
              ],
              [
                -5.677712149920617,
                40.96852200157
              ],
              [
                -5.677715862787094,
                40.9691996372652
              ],
              [
                -5.677343876058968,
                40.96965139439533
              ],
              [
                -5.677526585244026,
                40.97055490865559
              ],
              [
                -5.677262365563155,
                40.97100666578573
              ],
              [
                -5.676786507610313,
                40.97123254435079
              ],
              [
                -5.676053810119629,
                40.97133761310309
              ],
              [
                -5.675159668922424,
                40.97202014038704
              ],
              [
                -5.67426552772522,
                40.972017116795655
              ],
              [
                -5.674091325382446,
                40.972136058611056
              ],
              [
                -5.675159668922424,
                40.972156056773876
              ],
              [
                -5.675755763053894,
                40.97236989391047
              ],
              [
                -5.6769479513168335,
                40.97197920412779
              ],
              [
                -5.677544045448303,
                40.97197920412779
              ],
              [
                -5.678140139579773,
                40.97225614228731
              ],
              [
                -5.678404869316374,
                40.972136058611056
              ],
              [
                -5.678424438205743,
                40.97168430148093
              ],
              [
                -5.678736233711243,
                40.97130135144497
              ],
              [
                -5.679034280776977,
                40.971139153586094
              ],
              [
                -5.679928421974182,
                40.971086906214346
              ],
              [
                -5.6814186573028564,
                40.97132610426618
              ],
              [
                -5.681897870455188,
                40.97168430148093
              ],
              [
                -5.682014751434326,
                40.97237403036764
              ],
              [
                -5.682908892631531,
                40.972695910319175
              ]
            ],
            [
              [
                -5.6826108455657955,
                40.96389682095601
              ],
              [
                -5.682890573593968,
                40.96423030883374
              ],
              [
                -5.6828423228331495,
                40.96490794452894
              ],
              [
                -5.68181425050012,
                40.965585580224136
              ],
              [
                -5.681772466338399,
                40.966263215919334
              ],
              [
                -5.6814186573028564,
                40.966444349530704
              ],
              [
                -5.680822563171387,
                40.966444349530704
              ],
              [
                -5.680524516105652,
                40.96626896131035
              ],
              [
                -5.680477607964006,
                40.965585580224136
              ],
              [
                -5.680815843109122,
                40.96535970165907
              ],
              [
                -5.680893436672408,
                40.96513382309401
              ],
              [
                -5.680642002830619,
                40.96468206596387
              ],
              [
                -5.680642002830619,
                40.96423030883374
              ],
              [
                -5.680796272942799,
                40.96400443026867
              ],
              [
                -5.6814186573028564,
                40.963665892993106
              ],
              [
                -5.682014751434326,
                40.963665892993106
              ],
              [
                -5.6826108455657955,
                40.96389682095601
              ]
            ],
            [
              [
                -5.679034280776977,
                40.96619387212771
              ],
              [
                -5.679257124937415,
                40.9664890944844
              ],
              [
                -5.679257124937415,
                40.96694085161454
              ],
              [
                -5.679194972922468,
                40.9671667301796
              ],
              [
                -5.678736233711243,
                40.96754224073675
              ],
              [
                -5.677842092514038,
                40.96763987293969
              ],
              [
                -5.677059387091889,
                40.9671667301796
              ],
              [
                -5.676997076058306,
                40.9664890944844
              ],
              [
                -5.677544045448303,
                40.96598854128609
              ],
              [
                -5.678438186645508,
                40.96590389240554
              ],
              [
                -5.679034280776977,
                40.96619387212771
              ]
            ],
            [
              [
                -5.675755763053894,
                40.96520221630474
              ],
              [
                -5.676006601459878,
                40.965585580224136
              ],
              [
                -5.676006601459878,
                40.96603733735427
              ],
              [
                -5.675457715988159,
                40.966567639769714
              ],
              [
                -5.674563574790954,
                40.96666110434255
              ],
              [
                -5.673967480659485,
                40.96637861325398
              ],
              [
                -5.673716799679436,
                40.96603733735427
              ],
              [
                -5.673818945157215,
                40.96535970165907
              ],
              [
                -5.67426552772522,
                40.96501436861054
              ],
              [
                -5.675159668922424,
                40.964920230331664
              ],
              [
                -5.675755763053894,
                40.96520221630474
              ]
            ],
            [
              [
                -5.675159668922424,
                40.957500887777975
              ],
              [
                -5.675401872226423,
                40.95790570901189
              ],
              [
                -5.675401872226423,
                40.95835746614202
              ],
              [
                -5.67486162185669,
                40.95886735422906
              ],
              [
                -5.673967480659485,
                40.958960525170056
              ],
              [
                -5.673371386528015,
                40.95867853410803
              ],
              [
                -5.673128925835088,
                40.95835746614202
              ],
              [
                -5.673208070893007,
                40.95767983044682
              ],
              [
                -5.67366943359375,
                40.95731377457079
              ],
              [
                -5.674563574790954,
                40.95721967962892
              ],
              [
                -5.675159668922424,
                40.957500887777975
              ]
            ],
            [
              [
                -5.668602633476257,
                40.97663849790077
              ],
              [
                -5.668602633476257,
                40.97711424175435
              ],
              [
                -5.667673914919627,
                40.97710538704251
              ],
              [
                -5.667708492279052,
                40.97660346876964
              ],
              [
                -5.668602633476257,
                40.97663849790077
              ]
            ],
            [
              [
                -5.661449503898621,
                40.98148918979177
              ],
              [
                -5.661703814324318,
                40.9818488369089
              ],
              [
                -5.661703814324318,
                40.98230059403904
              ],
              [
                -5.661151456832886,
                40.98287239925891
              ],
              [
                -5.660555362701416,
                40.983076498109085
              ],
              [
                -5.6599592685699465,
                40.983076498109085
              ],
              [
                -5.659363174438477,
                40.9828177909979
              ],
              [
                -5.6591220533512505,
                40.9825264726041
              ],
              [
                -5.6591177334050675,
                40.9818488369089
              ],
              [
                -5.659488687905722,
                40.98139707977877
              ],
              [
                -5.660853409767151,
                40.981204144463256
              ],
              [
                -5.661449503898621,
                40.98148918979177
              ]
            ],
            [
              [
                -5.656978797912598,
                40.95567150214012
              ],
              [
                -5.657127537577107,
                40.95587280192629
              ],
              [
                -5.657127537577107,
                40.956324559056426
              ],
              [
                -5.656978797912598,
                40.95648321528161
              ],
              [
                -5.656084656715393,
                40.95661016872445
              ],
              [
                -5.65571057450179,
                40.956324559056426
              ],
              [
                -5.65571057450179,
                40.95587280192629
              ],
              [
                -5.656084656715393,
                40.955545874936504
              ],
              [
                -5.656978797912598,
                40.95567150214012
              ]
            ],
            [
              [
                -5.656978797912598,
                40.98041775550974
              ],
              [
                -5.657188352884525,
                40.980719444083576
              ],
              [
                -5.657188352884525,
                40.981171201213705
              ],
              [
                -5.656680750846863,
                40.98172826415772
              ],
              [
                -5.656382703781128,
                40.981832326062516
              ],
              [
                -5.6554885625839235,
                40.98176351854054
              ],
              [
                -5.655190515518188,
                40.98159402938183
              ],
              [
                -5.654901048257652,
                40.981171201213705
              ],
              [
                -5.654901048257652,
                40.980719444083576
              ],
              [
                -5.6554885625839235,
                40.980160681697384
              ],
              [
                -5.656382703781128,
                40.98010822722756
              ],
              [
                -5.656978797912598,
                40.98041775550974
              ]
            ],
            [
              [
                -5.647441291809082,
                40.9533506112928
              ],
              [
                -5.647441291809082,
                40.953966670900904
              ],
              [
                -5.646845197677612,
                40.953966670900904
              ],
              [
                -5.646704785865469,
                40.9538398948407
              ],
              [
                -5.646704785865469,
                40.95338813771056
              ],
              [
                -5.647441291809082,
                40.9533506112928
              ]
            ],
            [
              [
                -5.646547150611878,
                40.96014697045827
              ],
              [
                -5.646572139137191,
                40.96061625179268
              ],
              [
                -5.645940568959528,
                40.96061625179268
              ],
              [
                -5.645951056480408,
                40.96014697045827
              ],
              [
                -5.646547150611878,
                40.96014697045827
              ]
            ],
            [
              [
                -5.643864727020263,
                40.960607560206164
              ],
              [
                -5.643833501062254,
                40.96129388748788
              ],
              [
                -5.643619557403054,
                40.96174564461801
              ],
              [
                -5.642970585823059,
                40.96209482315438
              ],
              [
                -5.642374491691589,
                40.96209482315438
              ],
              [
                -5.6417783975601195,
                40.961841260424215
              ],
              [
                -5.641448085371316,
                40.96129388748788
              ],
              [
                -5.639990115165711,
                40.96050056308737
              ],
              [
                -5.639714087683015,
                40.96016449466255
              ],
              [
                -5.639714087683015,
                40.95971273753241
              ],
              [
                -5.639976752674033,
                40.959260980402284
              ],
              [
                -5.640288162231445,
                40.95908319969603
              ],
              [
                -5.64118230342865,
                40.95901602177509
              ],
              [
                -5.643566679954529,
                40.96016400570977
              ],
              [
                -5.643864727020263,
                40.960607560206164
              ]
            ],
            [
              [
                -5.642374491691589,
                40.95382606290534
              ],
              [
                -5.642507714149328,
                40.954517530535895
              ],
              [
                -5.64213235480104,
                40.954969287666025
              ],
              [
                -5.6417783975601195,
                40.955130218218514
              ],
              [
                -5.640884256362915,
                40.95511466441229
              ],
              [
                -5.6405764107667125,
                40.954969287666025
              ],
              [
                -5.640204537618075,
                40.954517530535895
              ],
              [
                -5.640326908145105,
                40.9538398948407
              ],
              [
                -5.640884256362915,
                40.95346572441828
              ],
              [
                -5.6417783975601195,
                40.95345016446658
              ],
              [
                -5.642374491691589,
                40.95382606290534
              ]
            ],
            [
              [
                -5.638797926902771,
                40.95636754793153
              ],
              [
                -5.639079602667018,
                40.956776316186556
              ],
              [
                -5.638945386039732,
                40.95745395188175
              ],
              [
                -5.6384998798370365,
                40.957772417710146
              ],
              [
                -5.637605738639832,
                40.95784676139319
              ],
              [
                -5.637009644508362,
                40.957543289254836
              ],
              [
                -5.636789041978628,
                40.957228073316685
              ],
              [
                -5.636789041978628,
                40.956776316186556
              ],
              [
                -5.637105333444922,
                40.956324559056426
              ],
              [
                -5.636413550376892,
                40.95622532017922
              ],
              [
                -5.635817456245422,
                40.95582627158199
              ],
              [
                -5.634923315048217,
                40.95642919976746
              ],
              [
                -5.6340291738510135,
                40.95667390166251
              ],
              [
                -5.633135032653809,
                40.956655744193995
              ],
              [
                -5.632240891456604,
                40.956366055809134
              ],
              [
                -5.631417040393231,
                40.95564692336122
              ],
              [
                -5.631211953369832,
                40.95519516623109
              ],
              [
                -5.631193483158195,
                40.954517530535895
              ],
              [
                -5.63152687333037,
                40.9538398948407
              ],
              [
                -5.632240891456604,
                40.95327142576181
              ],
              [
                -5.633135032653809,
                40.95298109630259
              ],
              [
                -5.634327220916748,
                40.953012412339504
              ],
              [
                -5.635221362113953,
                40.95336527739988
              ],
              [
                -5.635817456245422,
                40.95384227445462
              ],
              [
                -5.636711597442627,
                40.95382551818167
              ],
              [
                -5.6371719063714405,
                40.95406577340576
              ],
              [
                -5.6379943383200475,
                40.95519516623109
              ],
              [
                -5.6379943383200475,
                40.95564692336122
              ],
              [
                -5.637585028317452,
                40.95609868049136
              ],
              [
                -5.638201832771301,
                40.95610797770204
              ],
              [
                -5.638797926902771,
                40.95636754793153
              ]
            ],
            [
              [
                -5.637903785705566,
                40.96017850359455
              ],
              [
                -5.638064692687565,
                40.96039037322762
              ],
              [
                -5.638061861347434,
                40.961068008922815
              ],
              [
                -5.637605738639832,
                40.961481389023795
              ],
              [
                -5.6373076915740965,
                40.96158662713309
              ],
              [
                -5.636413550376892,
                40.9615249103162
              ],
              [
                -5.635860715806125,
                40.961068008922815
              ],
              [
                -5.635857859587266,
                40.96039037322762
              ],
              [
                -5.636413550376892,
                40.95992841101921
              ],
              [
                -5.6373076915740965,
                40.959866599599664
              ],
              [
                -5.637903785705566,
                40.96017850359455
              ]
            ],
            [
              [
                -5.6373076915740965,
                40.96407672058144
              ],
              [
                -5.637420346633348,
                40.96490794452894
              ],
              [
                -5.63721616809282,
                40.96535970165907
              ],
              [
                -5.636711597442627,
                40.965833166511146
              ],
              [
                -5.635817456245422,
                40.966161861157424
              ],
              [
                -5.634923315048217,
                40.96615528671375
              ],
              [
                -5.634327220916748,
                40.96597204697778
              ],
              [
                -5.633731126785278,
                40.96556177686164
              ],
              [
                -5.633359368962391,
                40.96490794452894
              ],
              [
                -5.633400813570525,
                40.96423030883374
              ],
              [
                -5.633673153527655,
                40.963778551703605
              ],
              [
                -5.634284374656957,
                40.963326794573476
              ],
              [
                -5.634923315048217,
                40.96312291772346
              ],
              [
                -5.635817456245422,
                40.963116345324046
              ],
              [
                -5.636413550376892,
                40.963288527080245
              ],
              [
                -5.637009644508362,
                40.963680168271864
              ],
              [
                -5.6373076915740965,
                40.96407672058144
              ]
            ],
            [
              [
                -5.636115503311157,
                40.9707296158343
              ],
              [
                -5.636115503311157,
                40.97127987070647
              ],
              [
                -5.635221362113953,
                40.972141694215146
              ],
              [
                -5.634923315048217,
                40.97224794053477
              ],
              [
                -5.6340291738510135,
                40.972191866180395
              ],
              [
                -5.63344130151318,
                40.97168430148093
              ],
              [
                -5.633491123662404,
                40.97100666578573
              ],
              [
                -5.634625267982483,
                40.970226481765394
              ],
              [
                -5.635519409179688,
                40.970229686721794
              ],
              [
                -5.636115503311157,
                40.9707296158343
              ]
            ],
            [
              [
                -5.634625267982483,
                40.973307898050706
              ],
              [
                -5.63474755531408,
                40.97349133000145
              ],
              [
                -5.634704087275818,
                40.974168965696656
              ],
              [
                -5.634072017138701,
                40.974620722826785
              ],
              [
                -5.633135032653809,
                40.974609466659
              ],
              [
                -5.632545001303908,
                40.974168965696656
              ],
              [
                -5.632502020727433,
                40.97349133000145
              ],
              [
                -5.633135032653809,
                40.97297145124403
              ],
              [
                -5.6340291738510135,
                40.972944932982756
              ],
              [
                -5.634625267982483,
                40.973307898050706
              ]
            ]
          ],
          [
            [
              [
                -5.678452948521647,
                40.972813694306254
              ],
              [
                -5.678881309656587,
                40.972813694306254
              ],
              [
                -5.678736233711243,
                40.972590335296566
              ],
              [
                -5.678452948521647,
                40.972813694306254
              ]
            ]
          ],
          [
            [
              [
                -5.678315216489163,
                40.972361937176125
              ],
              [
                -5.678438186645508,
                40.97279993938011
              ],
              [
                -5.678732107960183,
                40.97258781574119
              ],
              [
                -5.678438186645508,
                40.972174234294904
              ],
              [
                -5.678315216489163,
                40.972361937176125
              ]
            ]
          ],
          [
            [
              [
                -5.677755722249823,
                40.97710538704251
              ],
              [
                -5.677842092514038,
                40.977327989031686
              ],
              [
                -5.67789208282557,
                40.97710538704251
              ],
              [
                -5.677755722249823,
                40.97710538704251
              ]
            ]
          ],
          [
            [
              [
                -5.67441067846641,
                40.97755714417264
              ],
              [
                -5.674563574790954,
                40.97777034408801
              ],
              [
                -5.674694878614864,
                40.97755714417264
              ],
              [
                -5.674563574790954,
                40.977361928274064
              ],
              [
                -5.67441067846641,
                40.97755714417264
              ]
            ]
          ],
          [
            [
              [
                -5.674532022897905,
                40.97846065843291
              ],
              [
                -5.674563574790954,
                40.97856814506361
              ],
              [
                -5.674594266471563,
                40.97846065843291
              ],
              [
                -5.674563574790954,
                40.978281254366166
              ],
              [
                -5.674532022897905,
                40.97846065843291
              ]
            ]
          ],
          [
            [
              [
                -5.674085629110071,
                40.97733126560758
              ],
              [
                -5.67426552772522,
                40.97743551832485
              ],
              [
                -5.674515352622342,
                40.97733126560758
              ],
              [
                -5.67426552772522,
                40.97723540490761
              ],
              [
                -5.674085629110071,
                40.97733126560758
              ]
            ]
          ],
          [
            [
              [
                -5.673792339255744,
                40.972361937176125
              ],
              [
                -5.674046761122329,
                40.972361937176125
              ],
              [
                -5.673967480659485,
                40.97225800584005
              ],
              [
                -5.673792339255744,
                40.972361937176125
              ]
            ]
          ],
          [
            [
              [
                -5.670358476343391,
                40.9678443658748
              ],
              [
                -5.670390915870667,
                40.96786502719234
              ],
              [
                -5.670404546722709,
                40.9678443658748
              ],
              [
                -5.670390915870667,
                40.967830304709004
              ],
              [
                -5.670358476343391,
                40.9678443658748
              ]
            ]
          ],
          [
            [
              [
                -5.669496774673462,
                40.96797879367947
              ],
              [
                -5.669496774673462,
                40.9681670212755
              ],
              [
                -5.669794821739197,
                40.96827348929095
              ],
              [
                -5.670082662019079,
                40.968070244439865
              ],
              [
                -5.669496774673462,
                40.96797879367947
              ]
            ]
          ],
          [
            [
              [
                -5.669179148790224,
                40.95813158757695
              ],
              [
                -5.669198727607727,
                40.95814426242496
              ],
              [
                -5.669209792287408,
                40.95813158757695
              ],
              [
                -5.669198727607727,
                40.958113609573296
              ],
              [
                -5.669179148790224,
                40.95813158757695
              ]
            ]
          ],
          [
            [
              [
                -5.654534092061716,
                40.963326794573476
              ],
              [
                -5.654594421386719,
                40.96333615638268
              ],
              [
                -5.654616606538305,
                40.963326794573476
              ],
              [
                -5.654594421386719,
                40.963309050348094
              ],
              [
                -5.654534092061716,
                40.963326794573476
              ]
            ]
          ],
          [
            [
              [
                -5.654292983591718,
                40.97191018004599
              ],
              [
                -5.6542963743209835,
                40.97191588701491
              ],
              [
                -5.654301668232184,
                40.97191018004599
              ],
              [
                -5.6542963743209835,
                40.97186071425736
              ],
              [
                -5.654292983591718,
                40.97191018004599
              ]
            ]
          ],
          [
            [
              [
                -5.653634637289752,
                40.97145842291586
              ],
              [
                -5.653700280189514,
                40.971491790836026
              ],
              [
                -5.653850356068811,
                40.97145842291586
              ],
              [
                -5.653700280189514,
                40.9714284835077
              ],
              [
                -5.653634637289752,
                40.97145842291586
              ]
            ]
          ],
          [
            [
              [
                -5.653104186058044,
                40.96325151632492
              ],
              [
                -5.653008796763172,
                40.963326794573476
              ],
              [
                -5.653104186058044,
                40.96335625032675
              ],
              [
                -5.65356118141156,
                40.963326794573476
              ],
              [
                -5.653104186058044,
                40.96325151632492
              ]
            ]
          ],
          [
            [
              [
                -5.651486034321257,
                40.96174564461801
              ],
              [
                -5.650974973158746,
                40.96174564461801
              ],
              [
                -5.650928464437964,
                40.96219740174814
              ],
              [
                -5.65161395072937,
                40.96268083147519
              ],
              [
                -5.65163696562268,
                40.96197152318308
              ],
              [
                -5.651486034321257,
                40.96174564461801
              ]
            ]
          ],
          [
            [
              [
                -5.650781723207851,
                40.95948685896735
              ],
              [
                -5.651017856597901,
                40.95956997812915
              ],
              [
                -5.6511001982935385,
                40.95948685896735
              ],
              [
                -5.651017856597901,
                40.9594475723944
              ],
              [
                -5.650781723207851,
                40.95948685896735
              ]
            ]
          ],
          [
            [
              [
                -5.644146133570156,
                40.96965139439533
              ],
              [
                -5.6441627740859985,
                40.96966943332714
              ],
              [
                -5.644236742253178,
                40.96965139439533
              ],
              [
                -5.6441627740859985,
                40.96962823615491
              ],
              [
                -5.644146133570156,
                40.96965139439533
              ]
            ]
          ],
          [
            [
              [
                -5.639088411634408,
                40.97145842291586
              ],
              [
                -5.639095973968506,
                40.97146413312203
              ],
              [
                -5.639110110875387,
                40.97145842291586
              ],
              [
                -5.639095973968506,
                40.97145357419208
              ],
              [
                -5.639088411634408,
                40.97145842291586
              ]
            ]
          ]
        ]
      }
    }
  ]
}