{
  "type": "FeatureCollection",
  "features": [
    {
      "type": "Feature",
      "properties": {},
      "geometry": {
        "type": "Polygon",
        "coordinates": [
          [
            [
              -2.8681182861328125,
              43.22882141920823
            ],
            [
              -2.8681182861328125,
              43.36561974741949
            ],
            [
              -3.0442428588867188,
              43.36561974741949
            ],
            [
              -3.0442428588867188,
              43.22882141920823
            ],
            [
              -2.8681182861328125,
              43.22882141920823
            ]
          ],
          [
            [
              -3.0336753845214846,
              43.32834030119653
            ],
            [
              -3.033931255225174,
              43.32868419880245
            ],
            [
              -3.033983018480592,
              43.3293681904435
            ],
            [
              -3.033983018480592,
              43.33005218208456
            ],
            [
              -3.0336753845214846,
              43.330291125524695
            ],
            [
              -3.0327947616577147,
              43.33038487611876
            ],
            [
              -3.0319141387939452,
              43.33107057163776
            ],
            [
              -3.031033515930176,
              43.33120913778649
            ],
            [
              -3.029272270202637,
              43.33120913778649
            ],
            [
              -3.0287749288374095,
              43.33073617372562
            ],
            [
              -3.0288647979665906,
              43.32868419880245
            ],
            [
              -3.028391647338867,
              43.32821372429437
            ],
            [
              -3.0275110244750976,
              43.32866978094646
            ],
            [
              -3.026630401611328,
              43.32866978094646
            ],
            [
              -3.0257497787475587,
              43.327989806847235
            ],
            [
              -3.0248691558837892,
              43.32846225166157
            ],
            [
              -3.02310791015625,
              43.32829577534446
            ],
            [
              -3.0228444975581823,
              43.328000207161395
            ],
            [
              -3.0228444975581823,
              43.32663222387928
            ],
            [
              -3.02310791015625,
              43.32629643308289
            ],
            [
              -3.0239885330200194,
              43.3257537733738
            ],
            [
              -3.0275110244750976,
              43.32562056228198
            ],
            [
              -3.029118171150442,
              43.32663222387928
            ],
            [
              -3.029118171150442,
              43.328000207161395
            ],
            [
              -3.029272270202637,
              43.32806897441611
            ],
            [
              -3.0301528930664063,
              43.32823318685009
            ],
            [
              -3.031033515930176,
              43.32759163230631
            ],
            [
              -3.0327947616577147,
              43.32756193224527
            ],
            [
              -3.0336753845214846,
              43.32834030119653
            ]
          ],
          [
            [
              -3.021346664428711,
              43.31817910243563
            ],
            [
              -3.021662381562724,
              43.3184243241866
            ],
            [
              -3.021502088726658,
              43.31979230746872
            ],
            [
              -3.020661159786194,
              43.32047629910977
            ],
            [
              -3.0206217236636306,
              43.321160290750825
            ],
            [
              -3.0196014444468218,
              43.321844282391886
            ],
            [
              -3.0195992887853134,
              43.32252827403294
            ],
            [
              -3.019177435055012,
              43.323212265673995
            ],
            [
              -3.0187047958374023,
              43.323571889975106
            ],
            [
              -3.0169435501098634,
              43.323571889975106
            ],
            [
              -3.0165181550756195,
              43.323212265673995
            ],
            [
              -3.0163950664486996,
              43.32252827403294
            ],
            [
              -3.015694142230692,
              43.321844282391886
            ],
            [
              -3.015398722975857,
              43.32047629910977
            ],
            [
              -3.015398722975857,
              43.31979230746872
            ],
            [
              -3.016062927246094,
              43.31927641106461
            ],
            [
              -3.0169435501098634,
              43.319260052623704
            ],
            [
              -3.017824172973633,
              43.318910812276386
            ],
            [
              -3.0187047958374023,
              43.318902849286474
            ],
            [
              -3.0195854187011717,
              43.31817910243563
            ],
            [
              -3.021346664428711,
              43.31817910243563
            ]
          ],
          [
            [
              -2.994927978515625,
              43.293007933338274
            ],
            [
              -2.995087122536477,
              43.29311663346752
            ],
            [
              -2.995087122536477,
              43.294484616749635
            ],
            [
              -2.994927978515625,
              43.29457031190744
            ],
            [
              -2.991405487060547,
              43.29452977739204
            ],
            [
              -2.99121548616071,
              43.293800625108574
            ],
            [
              -2.99121548616071,
              43.29311663346752
            ],
            [
              -2.9907530158563893,
              43.292432641826466
            ],
            [
              -2.991405487060547,
              43.29192585865284
            ],
            [
              -2.9931667327880858,
              43.29202503985829
            ],
            [
              -2.9943814712842594,
              43.292432641826466
            ],
            [
              -2.994927978515625,
              43.293007933338274
            ]
          ],
          [
            [
              -2.9905248641967774,
              43.29577410439188
            ],
            [
              -2.990559543414955,
              43.29722058331386
            ],
            [
              -2.9886497149543203,
              43.29722058331386
            ],
            [
              -2.9886497149543203,
              43.29585260003174
            ],
            [
              -2.988763618469238,
              43.29576412963733
            ],
            [
              -2.9905248641967774,
              43.29577410439188
            ]
          ],
          [
            [
              -2.976434898376465,
              43.30262016446259
            ],
            [
              -2.9765003911708328,
              43.30406049972442
            ],
            [
              -2.9746736526489257,
              43.304086398252224
            ],
            [
              -2.9746736526489257,
              43.30262016446259
            ],
            [
              -2.976434898376465,
              43.30262016446259
            ]
          ],
          [
            [
              -2.972912406921387,
              43.302617772325725
            ],
            [
              -2.972912406921387,
              43.30420031620572
            ],
            [
              -2.9711511611938475,
              43.30420031620572
            ],
            [
              -2.971044609156197,
              43.30406049972442
            ],
            [
              -2.9710520109125063,
              43.302692516442306
            ],
            [
              -2.972912406921387,
              43.302617772325725
            ]
          ],
          [
            [
              -2.946493721008301,
              43.266033392891586
            ],
            [
              -2.947130843434324,
              43.26644095946632
            ],
            [
              -2.9471211349068733,
              43.26849293438949
            ],
            [
              -2.946493721008301,
              43.26931187950557
            ],
            [
              -2.9447324752807615,
              43.26931187950557
            ],
            [
              -2.943851852416992,
              43.26868990763854
            ],
            [
              -2.942090606689453,
              43.268814031780096
            ],
            [
              -2.9412099838256838,
              43.26862969332475
            ],
            [
              -2.941040193363579,
              43.26644095946632
            ],
            [
              -2.942090606689453,
              43.2659023264824
            ],
            [
              -2.943851852416992,
              43.26584565567703
            ],
            [
              -2.9447324752807615,
              43.266033392891586
            ],
            [
              -2.946493721008301,
              43.266033392891586
            ]
          ],
          [
            [
              -2.9394487380981444,
              43.26413575714752
            ],
            [
              -2.9396504604134748,
              43.26438898454316
            ],
            [
              -2.939687147511134,
              43.265072976184214
            ],
            [
              -2.9399311154363534,
              43.26575696782527
            ],
            [
              -2.9399311154363534,
              43.26644095946632
            ],
            [
              -2.9394487380981444,
              43.26681562844296
            ],
            [
              -2.9376874923706056,
              43.26696767135112
            ],
            [
              -2.9374849984495355,
              43.267124951107384
            ],
            [
              -2.9375509421793287,
              43.26780894274844
            ],
            [
              -2.9376874923706056,
              43.26791055579361
            ],
            [
              -2.938568115234375,
              43.26834391844466
            ],
            [
              -2.939602911416683,
              43.26849293438949
            ],
            [
              -2.939602911416683,
              43.26986091767161
            ],
            [
              -2.9394487380981444,
              43.26995363832991
            ],
            [
              -2.938568115234375,
              43.2700254072107
            ],
            [
              -2.9376874923706056,
              43.270299235882014
            ],
            [
              -2.9359262466430662,
              43.270299235882014
            ],
            [
              -2.935045623779297,
              43.26998908752644
            ],
            [
              -2.933284378051758,
              43.27001493353256
            ],
            [
              -2.9324037551879885,
              43.27026907266615
            ],
            [
              -2.930642509460449,
              43.27026907266615
            ],
            [
              -2.9297618865966797,
              43.270094580389234
            ],
            [
              -2.9288812637329102,
              43.2696841691008
            ],
            [
              -2.9285747838190406,
              43.26917692603055
            ],
            [
              -2.928452103398794,
              43.26780894274844
            ],
            [
              -2.928000640869141,
              43.26740945564904
            ],
            [
              -2.927120018005371,
              43.267356324084545
            ],
            [
              -2.9263268216628595,
              43.267124951107384
            ],
            [
              -2.9263268216628595,
              43.26575696782527
            ],
            [
              -2.927120018005371,
              43.26533150521477
            ],
            [
              -2.928000640869141,
              43.26546645904345
            ],
            [
              -2.930642509460449,
              43.26542464224451
            ],
            [
              -2.930944775719982,
              43.26575696782527
            ],
            [
              -2.930863426837847,
              43.267124951107384
            ],
            [
              -2.9315231323242186,
              43.26761295273999
            ],
            [
              -2.9324037551879885,
              43.26788925264684
            ],
            [
              -2.933284378051758,
              43.267516290918365
            ],
            [
              -2.9336268553102256,
              43.267124951107384
            ],
            [
              -2.9340409972981796,
              43.26575696782527
            ],
            [
              -2.9330546417810366,
              43.265072976184214
            ],
            [
              -2.9329101839048564,
              43.2637049929021
            ],
            [
              -2.933284378051758,
              43.263304006968916
            ],
            [
              -2.9341650009155273,
              43.263486732592675
            ],
            [
              -2.93458043835479,
              43.263021001261045
            ],
            [
              -2.9346104479330903,
              43.26233700961999
            ],
            [
              -2.935045623779297,
              43.2620111789977
            ],
            [
              -2.936806869506836,
              43.26124094392793
            ],
            [
              -2.938568115234375,
              43.26124094392793
            ],
            [
              -2.939028565960864,
              43.26165301797893
            ],
            [
              -2.9389090308295533,
              43.2637049929021
            ],
            [
              -2.9394487380981444,
              43.26413575714752
            ]
          ],
          [
            [
              -2.9262393951416015,
              43.25661077474506
            ],
            [
              -2.9263655344910156,
              43.256865076491536
            ],
            [
              -2.92631120121189,
              43.25823305977365
            ],
            [
              -2.925358772277832,
              43.258556253556286
            ],
            [
              -2.9247786081334355,
              43.258917051414706
            ],
            [
              -2.9244781494140626,
              43.25939293543412
            ],
            [
              -2.9209556579589844,
              43.25939293543412
            ],
            [
              -2.920075035095215,
              43.25924362723012
            ],
            [
              -2.919654576550777,
              43.258917051414706
            ],
            [
              -2.919728191093872,
              43.2575490681326
            ],
            [
              -2.920075035095215,
              43.25689675427531
            ],
            [
              -2.9209556579589844,
              43.25652809408409
            ],
            [
              -2.921836280822754,
              43.25652809408409
            ],
            [
              -2.923597526550293,
              43.255671228801184
            ],
            [
              -2.925358772277832,
              43.255671228801184
            ],
            [
              -2.926026922805422,
              43.25618108485048
            ],
            [
              -2.9262393951416015,
              43.25661077474506
            ]
          ],
          [
            [
              -2.925358772277832,
              43.261549662470074
            ],
            [
              -2.9258356716293825,
              43.26233700961999
            ],
            [
              -2.925810724588376,
              43.263021001261045
            ],
            [
              -2.925358772277832,
              43.26390236612908
            ],
            [
              -2.923597526550293,
              43.26403306584293
            ],
            [
              -2.9231751404927246,
              43.2637049929021
            ],
            [
              -2.9232868620202366,
              43.26233700961999
            ],
            [
              -2.9229213453830782,
              43.26165301797893
            ],
            [
              -2.923597526550293,
              43.2611278189576
            ],
            [
              -2.9244781494140626,
              43.2611278189576
            ],
            [
              -2.925358772277832,
              43.261549662470074
            ]
          ],
          [
            [
              -2.9112688064575196,
              43.268304259562875
            ],
            [
              -2.9115117207801027,
              43.26849293438949
            ],
            [
              -2.9114207632235205,
              43.26986091767161
            ],
            [
              -2.9112688064575196,
              43.2699869240862
            ],
            [
              -2.9083945731969467,
              43.26986091767161
            ],
            [
              -2.9083945731969467,
              43.26849293438949
            ],
            [
              -2.9112688064575196,
              43.268304259562875
            ]
          ]
        ]
      }
    }
  ]
}