{
  "type": "FeatureCollection",
  "features": [
    {
      "type": "Feature",
      "properties": {},
      "geometry": {
        "type": "MultiPolygon",
        "coordinates": [
          [
            [
              [
                -2.8841429968494263,
                43.22882141920823
              ],
              [
                -2.8841429968494263,
                43.229505410849285
              ],
              [
                -2.8839694976806642,
                43.229681924615186
              ],
              [
                -2.882208251953125,
                43.2296306015512
              ],
              [
                -2.8820636894244793,
                43.229505410849285
              ],
              [
                -2.8820636894244793,
                43.22882141920823
              ],
              [
                -2.8681182861328125,
                43.22882141920823
              ],
              [
                -2.8681182861328125,
                43.36561974741949
              ],
              [
                -3.0081035405504224,
                43.36561974741949
              ],
              [
                -3.008137321472168,
                43.3649029711931
              ],
              [
                -3.009898567199707,
                43.3649029711931
              ],
              [
                -3.009954607774684,
                43.36561974741949
              ],
              [
                -3.0442428588867188,
                43.36561974741949
              ],
              [
                -3.0442428588867188,
                43.22882141920823
              ],
              [
                -2.8841429968494263,
                43.22882141920823
              ]
            ],
            [
              [
                -3.04160099029541,
                43.30499022506881
              ],
              [
                -3.042165236898755,
                43.30542848300654
              ],
              [
                -3.042165236898755,
                43.30611247464759
              ],
              [
                -3.04160099029541,
                43.30688477439036
              ],
              [
                -3.038773951017383,
                43.306796466288645
              ],
              [
                -3.0385785843924444,
                43.30611247464759
              ],
              [
                -3.0385785843924444,
                43.30542848300654
              ],
              [
                -3.0389591217041017,
                43.3051329145504
              ],
              [
                -3.039839744567871,
                43.30530611159009
              ],
              [
                -3.0407203674316405,
                43.30499022506881
              ],
              [
                -3.04160099029541,
                43.30499022506881
              ]
            ],
            [
              [
                -3.0407203674316405,
                43.33163206828696
              ],
              [
                -3.0408479464196705,
                43.33210415700773
              ],
              [
                -3.0408479464196705,
                43.33347214028984
              ],
              [
                -3.0407203674316405,
                43.333541694371675
              ],
              [
                -3.036317253112793,
                43.33359410445056
              ],
              [
                -3.036117162114041,
                43.33347214028984
              ],
              [
                -3.0356933698295276,
                43.33210415700773
              ],
              [
                -3.0354366302490234,
                43.331856860427905
              ],
              [
                -3.0336753845214846,
                43.332031082449454
              ],
              [
                -3.0301528930664063,
                43.33152658599892
              ],
              [
                -3.0299583601417495,
                43.33142016536667
              ],
              [
                -3.0299522983365224,
                43.33005218208456
              ],
              [
                -3.0301528930664063,
                43.32966099992815
              ],
              [
                -3.031033515930176,
                43.32956423122113
              ],
              [
                -3.031157237934466,
                43.3293681904435
              ],
              [
                -3.031033515930176,
                43.32914278136244
              ],
              [
                -3.0301528930664063,
                43.32914278136244
              ],
              [
                -3.029272270202637,
                43.3287071192767
              ],
              [
                -3.0292073946877456,
                43.32663222387928
              ],
              [
                -3.0301528930664063,
                43.326389370335136
              ],
              [
                -3.0319141387939452,
                43.32656389267055
              ],
              [
                -3.033362854820803,
                43.327316215520334
              ],
              [
                -3.034556007385254,
                43.32858173022072
              ],
              [
                -3.036317253112793,
                43.32849012658896
              ],
              [
                -3.0366383313281733,
                43.32868419880245
              ],
              [
                -3.0366383313281733,
                43.33005218208456
              ],
              [
                -3.0371978759765623,
                43.33019554538885
              ],
              [
                -3.0376676098883046,
                43.33005218208456
              ],
              [
                -3.038078498840332,
                43.32973303910048
              ],
              [
                -3.039839744567871,
                43.329907588963636
              ],
              [
                -3.0399614528221854,
                43.33005218208456
              ],
              [
                -3.0399614528221854,
                43.33073617372562
              ],
              [
                -3.040670755147538,
                43.33142016536667
              ],
              [
                -3.0407203674316405,
                43.33163206828696
              ]
            ],
            [
              [
                -3.038078498840332,
                43.302331677858376
              ],
              [
                -3.0388110735106446,
                43.302692516442306
              ],
              [
                -3.038850656932755,
                43.30406049972442
              ],
              [
                -3.0371978759765623,
                43.305291283275764
              ],
              [
                -3.036317253112793,
                43.305291283275764
              ],
              [
                -3.034556007385254,
                43.304854886585275
              ],
              [
                -3.0330736276115218,
                43.30406049972442
              ],
              [
                -3.032823628672997,
                43.30337650808337
              ],
              [
                -3.0319141387939452,
                43.3021276694996
              ],
              [
                -3.031606656326535,
                43.30200852480125
              ],
              [
                -3.031606656326535,
                43.300640541519144
              ],
              [
                -3.0336753845214846,
                43.30054216259965
              ],
              [
                -3.0354366302490234,
                43.30088553516813
              ],
              [
                -3.0359775863340404,
                43.3013245331602
              ],
              [
                -3.036317253112793,
                43.301906620988575
              ],
              [
                -3.0371978759765623,
                43.302233186253
              ],
              [
                -3.038078498840332,
                43.302331677858376
              ]
            ],
            [
              [
                -3.036317253112793,
                43.32080241838366
              ],
              [
                -3.036589883603806,
                43.321160290750825
              ],
              [
                -3.036589883603806,
                43.32252827403294
              ],
              [
                -3.036317253112793,
                43.32285844061081
              ],
              [
                -3.034556007385254,
                43.32285844061081
              ],
              [
                -3.0337944693629257,
                43.321844282391886
              ],
              [
                -3.0337944693629257,
                43.321160290750825
              ],
              [
                -3.034556007385254,
                43.3205687939103
              ],
              [
                -3.0354366302490234,
                43.3205687939103
              ],
              [
                -3.036317253112793,
                43.32080241838366
              ]
            ],
            [
              [
                -3.029272270202637,
                43.31625522579901
              ],
              [
                -3.0297981657444515,
                43.31637234926343
              ],
              [
                -3.0297981657444515,
                43.31774033254555
              ],
              [
                -3.029272270202637,
                43.318005426271505
              ],
              [
                -3.0275110244750976,
                43.318005426271505
              ],
              [
                -3.0273040599319243,
                43.31774033254555
              ],
              [
                -3.0273040599319243,
                43.31637234926343
              ],
              [
                -3.0275110244750976,
                43.316250386354575
              ],
              [
                -3.029272270202637,
                43.31625522579901
              ]
            ],
            [
              [
                -3.0275110244750976,
                43.321925722409844
              ],
              [
                -3.0282867952653394,
                43.32252827403294
              ],
              [
                -3.028275649532533,
                43.323896257315056
              ],
              [
                -3.0275110244750976,
                43.324362220355894
              ],
              [
                -3.026630401611328,
                43.32473329358321
              ],
              [
                -3.0248691558837892,
                43.32473329358321
              ],
              [
                -3.0239885330200194,
                43.32427010756434
              ],
              [
                -3.0222272872924805,
                43.32420792281144
              ],
              [
                -3.021346664428711,
                43.323611458922656
              ],
              [
                -3.0204660415649416,
                43.324423867654616
              ],
              [
                -3.0187047958374023,
                43.324423867654616
              ],
              [
                -3.017824172973633,
                43.32413093189565
              ],
              [
                -3.0162503109541903,
                43.325264240597164
              ],
              [
                -3.0158760818609807,
                43.325948232238225
              ],
              [
                -3.0158045661413335,
                43.32663222387928
              ],
              [
                -3.015182304382324,
                43.32744242977336
              ],
              [
                -3.0143016815185546,
                43.327662506184154
              ],
              [
                -3.0125404357910157,
                43.3284852932302
              ],
              [
                -3.0116598129272463,
                43.3284852932302
              ],
              [
                -3.0107791900634764,
                43.329223405459906
              ],
              [
                -3.009898567199707,
                43.329344251353824
              ],
              [
                -3.0090179443359375,
                43.33027995113349
              ],
              [
                -3.0072566986083986,
                43.33027995113349
              ],
              [
                -3.0068110969606674,
                43.33005218208456
              ],
              [
                -3.0065986161100224,
                43.3293681904435
              ],
              [
                -3.0065986161100224,
                43.32868419880245
              ],
              [
                -3.0063760757446287,
                43.32845612735777
              ],
              [
                -3.0054954528808593,
                43.32844936950617
              ],
              [
                -3.0048961937192558,
                43.328000207161395
              ],
              [
                -3.0048579007688585,
                43.32663222387928
              ],
              [
                -3.0050277885661814,
                43.325948232238225
              ],
              [
                -3.0058976813875566,
                43.32458024895611
              ],
              [
                -3.0063760757446287,
                43.32415436666296
              ],
              [
                -3.008137321472168,
                43.32415436666296
              ],
              [
                -3.0089945722090774,
                43.32458024895611
              ],
              [
                -3.0090179443359375,
                43.32527370431628
              ],
              [
                -3.009898567199707,
                43.32460831160875
              ],
              [
                -3.0107791900634764,
                43.32460831160875
              ],
              [
                -3.0116598129272463,
                43.32490042429607
              ],
              [
                -3.012498189946567,
                43.323896257315056
              ],
              [
                -3.0141296859219273,
                43.323212265673995
              ],
              [
                -3.0141296859219273,
                43.32252827403294
              ],
              [
                -3.0143016815185546,
                43.32228266580303
              ],
              [
                -3.016062927246094,
                43.32228266580303
              ],
              [
                -3.0161827155299834,
                43.321844282391886
              ],
              [
                -3.0157745849493343,
                43.321160290750825
              ],
              [
                -3.015647256556958,
                43.32047629910977
              ],
              [
                -3.015647256556958,
                43.31979230746872
              ],
              [
                -3.016062927246094,
                43.319379088394975
              ],
              [
                -3.0169435501098634,
                43.31928366043888
              ],
              [
                -3.017824172973633,
                43.3183762591697
              ],
              [
                -3.020148521856399,
                43.31774033254555
              ],
              [
                -3.0188320631046275,
                43.31705634090449
              ],
              [
                -3.018796882607128,
                43.31568835762238
              ],
              [
                -3.0191983356063226,
                43.31500436598132
              ],
              [
                -3.0195854187011717,
                43.31469277786942
              ],
              [
                -3.021346664428711,
                43.31460873102431
              ],
              [
                -3.0220144674015055,
                43.31432037434027
              ],
              [
                -3.021992689584531,
                43.31363638269921
              ],
              [
                -3.0215938161554092,
                43.312952391058154
              ],
              [
                -3.0204660415649416,
                43.31254531884756
              ],
              [
                -3.0201198632192527,
                43.3122683994171
              ],
              [
                -3.0201198632192527,
                43.310900416134984
              ],
              [
                -3.0204660415649416,
                43.31062065116443
              ],
              [
                -3.0222272872924805,
                43.31062065116443
              ],
              [
                -3.02310791015625,
                43.310868064589634
              ],
              [
                -3.0231841962337973,
                43.31158440777604
              ],
              [
                -3.0239885330200194,
                43.3120004318055
              ],
              [
                -3.0242186887857514,
                43.3122683994171
              ],
              [
                -3.0242186887857514,
                43.31363638269921
              ],
              [
                -3.024081071529844,
                43.31432037434027
              ],
              [
                -3.02310791015625,
                43.31442463627183
              ],
              [
                -3.022337826155097,
                43.31500436598132
              ],
              [
                -3.02310791015625,
                43.31580693346689
              ],
              [
                -3.0239885330200194,
                43.31595277018836
              ],
              [
                -3.024679431863997,
                43.31637234926343
              ],
              [
                -3.024837802735306,
                43.31705634090449
              ],
              [
                -3.024821047108217,
                43.3184243241866
              ],
              [
                -3.0239885330200194,
                43.31893433169356
              ],
              [
                -3.0231363817917125,
                43.31979230746872
              ],
              [
                -3.0245698231002502,
                43.32047629910977
              ],
              [
                -3.024510910125371,
                43.321844282391886
              ],
              [
                -3.0248691558837892,
                43.32215742940337
              ],
              [
                -3.0275110244750976,
                43.321925722409844
              ]
            ],
            [
              [
                -3.017824172973633,
                43.31421442498077
              ],
              [
                -3.0186101154932783,
                43.31568835762238
              ],
              [
                -3.0186101154932783,
                43.31637234926343
              ],
              [
                -3.017824172973633,
                43.31679395191104
              ],
              [
                -3.0169435501098634,
                43.31701572959827
              ],
              [
                -3.016062927246094,
                43.31701572959827
              ],
              [
                -3.0152345904668914,
                43.31637234926343
              ],
              [
                -3.015347465757014,
                43.31432037434027
              ],
              [
                -3.016062927246094,
                43.3137646657638
              ],
              [
                -3.0169435501098634,
                43.3137646657638
              ],
              [
                -3.017824172973633,
                43.31421442498077
              ]
            ],
            [
              [
                -3.016062927246094,
                43.29089327871547
              ],
              [
                -3.01628357467311,
                43.29106465854435
              ],
              [
                -3.016278574631144,
                43.292432641826466
              ],
              [
                -3.016062927246094,
                43.29267362912956
              ],
              [
                -3.0143016815185546,
                43.29267362912956
              ],
              [
                -3.014043321850049,
                43.292432641826466
              ],
              [
                -3.014043321850049,
                43.29106465854435
              ],
              [
                -3.0143016815185546,
                43.29089327871547
              ],
              [
                -3.016062927246094,
                43.29089327871547
              ]
            ],
            [
              [
                -3.015182304382324,
                43.34850045166708
              ],
              [
                -3.015182304382324,
                43.34995651291212
              ],
              [
                -3.0143016815185546,
                43.35017564922646
              ],
              [
                -3.013421058654785,
                43.35017564922646
              ],
              [
                -3.013421058654785,
                43.35069340644852
              ],
              [
                -3.0143016815185546,
                43.35069340644852
              ],
              [
                -3.0147004610774584,
                43.35193991459836
              ],
              [
                -3.0147004610774584,
                43.352623906239415
              ],
              [
                -3.0143016815185546,
                43.35293364369473
              ],
              [
                -3.0125404357910157,
                43.35276976763795
              ],
              [
                -3.0107791900634764,
                43.353179225745
              ],
              [
                -3.0090179443359375,
                43.353179225745
              ],
              [
                -3.0078659092496474,
                43.352623906239415
              ],
              [
                -3.0076421217114033,
                43.35193991459836
              ],
              [
                -3.0076421217114033,
                43.350571931316246
              ],
              [
                -3.008137321472168,
                43.35004981348069
              ],
              [
                -3.008854686203735,
                43.34988793967519
              ],
              [
                -3.008137321472168,
                43.349669937193376
              ],
              [
                -3.0072566986083986,
                43.348710693079454
              ],
              [
                -3.0066409852608955,
                43.348519956393076
              ],
              [
                -3.0070634357408244,
                43.34783596475202
              ],
              [
                -3.0072566986083986,
                43.345607128279866
              ],
              [
                -3.0090179443359375,
                43.345607128279866
              ],
              [
                -3.009118663213513,
                43.346467981469914
              ],
              [
                -3.009898567199707,
                43.34679598920071
              ],
              [
                -3.0105396821274293,
                43.346467981469914
              ],
              [
                -3.0107791900634764,
                43.3427846813728
              ],
              [
                -3.0125404357910157,
                43.3427846813728
              ],
              [
                -3.012765186396861,
                43.34304802326463
              ],
              [
                -3.0127203032342305,
                43.34715197311097
              ],
              [
                -3.011820884432079,
                43.34783596475202
              ],
              [
                -3.0125404357910157,
                43.348526267117585
              ],
              [
                -3.015182304382324,
                43.34850045166708
              ]
            ],
            [
              [
                -3.013421058654785,
                43.35595559690047
              ],
              [
                -3.014037364359816,
                43.3560438644447
              ],
              [
                -3.014037364359816,
                43.35741184772681
              ],
              [
                -3.013421058654785,
                43.35763751254614
              ],
              [
                -3.0125404357910157,
                43.35763751254614
              ],
              [
                -3.012056117355846,
                43.35809583936787
              ],
              [
                -3.012056117355846,
                43.35946382264998
              ],
              [
                -3.0116598129272463,
                43.35970309760267
              ],
              [
                -3.009898567199707,
                43.35970095442684
              ],
              [
                -3.0090179443359375,
                43.3591356311242
              ],
              [
                -3.008137321472168,
                43.35892054073425
              ],
              [
                -3.0080413834336435,
                43.358779831008924
              ],
              [
                -3.008137321472168,
                43.35729454971007
              ],
              [
                -3.0090179443359375,
                43.35711419463532
              ],
              [
                -3.0107791900634764,
                43.357026640508614
              ],
              [
                -3.0112751034142837,
                43.356727856085755
              ],
              [
                -3.0112751034142837,
                43.3560438644447
              ],
              [
                -3.0116598129272463,
                43.3559113597738
              ],
              [
                -3.013421058654785,
                43.35595559690047
              ]
            ],
            [
              [
                -3.0107791900634764,
                43.30798577542885
              ],
              [
                -3.0109522137070384,
                43.30816444957076
              ],
              [
                -3.0111108925609162,
                43.31021642449393
              ],
              [
                -3.0107791900634764,
                43.310474062292016
              ],
              [
                -3.008137321472168,
                43.31052820516842
              ],
              [
                -3.0069524022528595,
                43.31158440777604
              ],
              [
                -3.0063760757446287,
                43.31238943952814
              ],
              [
                -3.00461483001709,
                43.31238943952814
              ],
              [
                -3.0037342071533204,
                43.312149367852335
              ],
              [
                -3.001972961425781,
                43.311943174196124
              ],
              [
                -3.0014141006842814,
                43.31158440777604
              ],
              [
                -3.0010923385620116,
                43.30989256414941
              ],
              [
                -3.000211715698242,
                43.31009258529785
              ],
              [
                -2.9984504699707033,
                43.31009258529785
              ],
              [
                -2.998084324868631,
                43.30953243285287
              ],
              [
                -2.997981448109689,
                43.308848441211815
              ],
              [
                -2.9980153707109967,
                43.3074804579297
              ],
              [
                -2.9984504699707033,
                43.30721931285402
              ],
              [
                -3.0010923385620116,
                43.30737101779764
              ],
              [
                -3.002853584289551,
                43.30700686502105
              ],
              [
                -3.0054954528808593,
                43.30685695010786
              ],
              [
                -3.0072566986083986,
                43.30613041654089
              ],
              [
                -3.0090179443359375,
                43.3061661046528
              ],
              [
                -3.0094066495736453,
                43.3074804579297
              ],
              [
                -3.0107791900634764,
                43.30798577542885
              ]
            ],
            [
              [
                -3.0090179443359375,
                43.28741429712734
              ],
              [
                -3.009210676530456,
                43.28764470033907
              ],
              [
                -3.009210676530456,
                43.28901268362118
              ],
              [
                -3.0090179443359375,
                43.28954440208731
              ],
              [
                -3.0072566986083986,
                43.28954440208731
              ],
              [
                -3.00682210206574,
                43.28901268362118
              ],
              [
                -3.00682210206574,
                43.28764470033907
              ],
              [
                -3.0072566986083986,
                43.28730714334999
              ],
              [
                -3.0090179443359375,
                43.28741429712734
              ]
            ],
            [
              [
                -3.008137321472168,
                43.3395193696139
              ],
              [
                -3.0083208632716962,
                43.33962806505935
              ],
              [
                -3.0083208632716962,
                43.34099604834146
              ],
              [
                -3.008137321472168,
                43.341114233469746
              ],
              [
                -3.0063760757446287,
                43.341114233469746
              ],
              [
                -3.0062309545908765,
                43.34099604834146
              ],
              [
                -3.0062309545908765,
                43.33962806505935
              ],
              [
                -3.008137321472168,
                43.3395193696139
              ]
            ],
            [
              [
                -3.0072566986083986,
                43.30042694411942
              ],
              [
                -3.007388336252641,
                43.30200852480125
              ],
              [
                -3.0072566986083986,
                43.30211076953281
              ],
              [
                -3.0054014871892782,
                43.30200852480125
              ],
              [
                -3.0054954528808593,
                43.30042694411942
              ],
              [
                -3.0072566986083986,
                43.30042694411942
              ]
            ],
            [
              [
                -3.0054954528808593,
                43.29330938587725
              ],
              [
                -3.005720645259581,
                43.293800625108574
              ],
              [
                -3.0056563945968993,
                43.29516860839069
              ],
              [
                -3.00461483001709,
                43.29543087704095
              ],
              [
                -3.0037342071533204,
                43.29543087704095
              ],
              [
                -3.0033965425445674,
                43.29516860839069
              ],
              [
                -3.0034329911829554,
                43.293800625108574
              ],
              [
                -3.0037342071533204,
                43.29330938587725
              ],
              [
                -3.0054954528808593,
                43.29330938587725
              ]
            ],
            [
              [
                -3.0054954528808593,
                43.34834423116973
              ],
              [
                -3.0060908266034483,
                43.348519956393076
              ],
              [
                -3.006099441847852,
                43.35125592295731
              ],
              [
                -3.0054954528808593,
                43.35172504932423
              ],
              [
                -3.00461483001709,
                43.35185026558497
              ],
              [
                -3.002853584289551,
                43.35159844519929
              ],
              [
                -3.0024028773298537,
                43.35125592295731
              ],
              [
                -3.0024028773298537,
                43.34988793967519
              ],
              [
                -3.0026309226420125,
                43.34920394803414
              ],
              [
                -3.0026309226420125,
                43.34783596475202
              ],
              [
                -3.002853584289551,
                43.34771067166484
              ],
              [
                -3.00461483001709,
                43.34771067166484
              ],
              [
                -3.0054954528808593,
                43.34834423116973
              ]
            ],
            [
              [
                -3.002853584289551,
                43.32113625597053
              ],
              [
                -3.0029347102037365,
                43.32252827403294
              ],
              [
                -3.0010135849199093,
                43.32252827403294
              ],
              [
                -3.0010135849199093,
                43.321160290750825
              ],
              [
                -3.002853584289551,
                43.32113625597053
              ]
            ],
            [
              [
                -2.9993310928344727,
                43.288152465850786
              ],
              [
                -2.9995579797573226,
                43.28832869198013
              ],
              [
                -2.9995216308203934,
                43.29106465854435
              ],
              [
                -2.9975698471069334,
                43.29180767224916
              ],
              [
                -2.9958086013793945,
                43.29191324485088
              ],
              [
                -2.994927978515625,
                43.292152268869394
              ],
              [
                -2.9927981505298615,
                43.29311663346752
              ],
              [
                -2.9931667327880858,
                43.29346634829179
              ],
              [
                -2.9940473556518556,
                43.2937450504466
              ],
              [
                -2.996689224243164,
                43.293751239346186
              ],
              [
                -2.9975698471069334,
                43.29406022919856
              ],
              [
                -2.9993310928344727,
                43.2940485809212
              ],
              [
                -2.999892478525313,
                43.294484616749635
              ],
              [
                -2.999945316597088,
                43.29585260003174
              ],
              [
                -2.999757121030597,
                43.296536591672805
              ],
              [
                -2.9993310928344727,
                43.29705493410603
              ],
              [
                -2.9958086013793945,
                43.29705281031815
              ],
              [
                -2.9940473556518556,
                43.29638285851824
              ],
              [
                -2.9931667327880858,
                43.29638319772166
              ],
              [
                -2.99301944870244,
                43.296536591672805
              ],
              [
                -2.9948060773555882,
                43.29790457495491
              ],
              [
                -2.9948060773555882,
                43.29927255823703
              ],
              [
                -2.994392708425897,
                43.29995654987808
              ],
              [
                -2.9948839984746436,
                43.300640541519144
              ],
              [
                -2.9948839984746436,
                43.30200852480125
              ],
              [
                -2.9940473556518556,
                43.302323440284205
              ],
              [
                -2.9922861099243163,
                43.30239056221362
              ],
              [
                -2.991405487060547,
                43.30197986268532
              ],
              [
                -2.989644241333008,
                43.30195772290186
              ],
              [
                -2.9887404939359725,
                43.3013245331602
              ],
              [
                -2.9878829956054687,
                43.30124820457551
              ],
              [
                -2.9872607353564273,
                43.3013245331602
              ],
              [
                -2.987002372741699,
                43.302732942245136
              ],
              [
                -2.9825992584228516,
                43.30278632915756
              ],
              [
                -2.981718635559082,
                43.30257689497953
              ],
              [
                -2.981484598854863,
                43.30200852480125
              ],
              [
                -2.981484598854863,
                43.300640541519144
              ],
              [
                -2.981718635559082,
                43.30008227672128
              ],
              [
                -2.982089112453888,
                43.29995654987808
              ],
              [
                -2.9825992584228516,
                43.299360759366536
              ],
              [
                -2.9827002298291854,
                43.29722058331386
              ],
              [
                -2.983479881286621,
                43.29645712258216
              ],
              [
                -2.9844816153346434,
                43.29585260003174
              ],
              [
                -2.9837426638568934,
                43.29516860839069
              ],
              [
                -2.983703013124431,
                43.294484616749635
              ],
              [
                -2.9837877044007044,
                43.29311663346752
              ],
              [
                -2.9843605041503904,
                43.29251928461954
              ],
              [
                -2.9861217498779298,
                43.29251928461954
              ],
              [
                -2.9878829956054687,
                43.291791904471744
              ],
              [
                -2.9884441386812854,
                43.29106465854435
              ],
              [
                -2.988763618469238,
                43.29035980115773
              ],
              [
                -2.989644241333008,
                43.289824640008895
              ],
              [
                -2.9915696445373903,
                43.28969667526224
              ],
              [
                -2.992205600573357,
                43.28901268362118
              ],
              [
                -2.9922861099243163,
                43.28816871474917
              ],
              [
                -2.9940473556518556,
                43.28816871474917
              ],
              [
                -2.994183053171352,
                43.28901268362118
              ],
              [
                -2.994927978515625,
                43.2893729677593
              ],
              [
                -2.9958086013793945,
                43.289009294002724
              ],
              [
                -2.996689224243164,
                43.288232332426006
              ],
              [
                -2.9993310928344727,
                43.288152465850786
              ]
            ],
            [
              [
                -2.9975698471069334,
                43.28260861511424
              ],
              [
                -2.9978903389471325,
                43.28285675885168
              ],
              [
                -2.998007968972328,
                43.28422474213379
              ],
              [
                -2.997811510025736,
                43.2855927254159
              ],
              [
                -2.9975698471069334,
                43.28595850454916
              ],
              [
                -2.996689224243164,
                43.28636147206007
              ],
              [
                -2.99476529223171,
                43.28627671705696
              ],
              [
                -2.9942684344368478,
                43.2855927254159
              ],
              [
                -2.994115575525274,
                43.28285675885168
              ],
              [
                -2.994927978515625,
                43.282439939895596
              ],
              [
                -2.996689224243164,
                43.282439939895596
              ],
              [
                -2.9975698471069334,
                43.28260861511424
              ]
            ],
            [
              [
                -2.991405487060547,
                43.326599026701636
              ],
              [
                -2.991405487060547,
                43.32817477631482
              ],
              [
                -2.989644241333008,
                43.32817477631482
              ],
              [
                -2.987002372741699,
                43.32764056540494
              ],
              [
                -2.9852411270141603,
                43.32764475027345
              ],
              [
                -2.984540159884935,
                43.327316215520334
              ],
              [
                -2.9834617103240983,
                43.325948232238225
              ],
              [
                -2.983360979297756,
                43.32458024895611
              ],
              [
                -2.9844930555035725,
                43.323896257315056
              ],
              [
                -2.9835634618648763,
                43.323212265673995
              ],
              [
                -2.9835634618648763,
                43.321844282391886
              ],
              [
                -2.985145473539189,
                43.321160290750825
              ],
              [
                -2.9855020717478236,
                43.31979230746872
              ],
              [
                -2.9861217498779298,
                43.31945266526953
              ],
              [
                -2.987002372741699,
                43.31945266526953
              ],
              [
                -2.9878829956054687,
                43.31921144793605
              ],
              [
                -2.9886982255798826,
                43.31979230746872
              ],
              [
                -2.9886982255798826,
                43.321160290750825
              ],
              [
                -2.988274251095413,
                43.321844282391886
              ],
              [
                -2.98858296507328,
                43.32458024895611
              ],
              [
                -2.9905248641967774,
                43.32523977452113
              ],
              [
                -2.990567604768288,
                43.325948232238225
              ],
              [
                -2.991405487060547,
                43.326599026701636
              ]
            ],
            [
              [
                -2.987002372741699,
                43.27838422284413
              ],
              [
                -2.987838079358952,
                43.279436800646394
              ],
              [
                -2.987838079358952,
                43.28012079228745
              ],
              [
                -2.987002372741699,
                43.28076989687478
              ],
              [
                -2.9860385951919075,
                43.28080478392851
              ],
              [
                -2.9852411270141603,
                43.28167908485579
              ],
              [
                -2.9845157527292097,
                43.28217276721062
              ],
              [
                -2.984955112442743,
                43.28285675885168
              ],
              [
                -2.984955112442743,
                43.28422474213379
              ],
              [
                -2.984639686462042,
                43.28490873377485
              ],
              [
                -2.9843605041503904,
                43.28512557843714
              ],
              [
                -2.9825992584228516,
                43.285043788510684
              ],
              [
                -2.981718635559082,
                43.28428075755427
              ],
              [
                -2.980570871066703,
                43.28285675885168
              ],
              [
                -2.980570871066703,
                43.28080478392851
              ],
              [
                -2.9808380126953127,
                43.28056981167455
              ],
              [
                -2.981718635559082,
                43.28029982331747
              ],
              [
                -2.9825992584228516,
                43.279490506676396
              ],
              [
                -2.9844937322198763,
                43.279436800646394
              ],
              [
                -2.9852411270141603,
                43.27838422284413
              ],
              [
                -2.987002372741699,
                43.27838422284413
              ]
            ],
            [
              [
                -2.9852411270141603,
                43.31408686908864
              ],
              [
                -2.9854715835427075,
                43.31432037434027
              ],
              [
                -2.9854867329523165,
                43.31500436598132
              ],
              [
                -2.985409410484755,
                43.31774033254555
              ],
              [
                -2.9852411270141603,
                43.31805395761391
              ],
              [
                -2.983479881286621,
                43.31805395761391
              ],
              [
                -2.9825992584228516,
                43.31777062830571
              ],
              [
                -2.981718635559082,
                43.31722862526999
              ],
              [
                -2.9796910416339486,
                43.31705634090449
              ],
              [
                -2.9790767669677733,
                43.31669516794395
              ],
              [
                -2.9788966392811673,
                43.31637234926343
              ],
              [
                -2.9788966392811673,
                43.31500436598132
              ],
              [
                -2.9790767669677733,
                43.31458066507214
              ],
              [
                -2.9808380126953127,
                43.31458066507214
              ],
              [
                -2.981165168474206,
                43.31500436598132
              ],
              [
                -2.981718635559082,
                43.31536324788546
              ],
              [
                -2.983479881286621,
                43.31408686908864
              ],
              [
                -2.9852411270141603,
                43.31408686908864
              ]
            ],
            [
              [
                -2.979957389831543,
                43.28930092720269
              ],
              [
                -2.980323445906198,
                43.28969667526224
              ],
              [
                -2.980323445906198,
                43.290380666903296
              ],
              [
                -2.980093269803743,
                43.29106465854435
              ],
              [
                -2.979957389831543,
                43.29112674768438
              ],
              [
                -2.9773155212402345,
                43.29111477215216
              ],
              [
                -2.9771353537069722,
                43.29106465854435
              ],
              [
                -2.976581776168525,
                43.290380666903296
              ],
              [
                -2.976581776168525,
                43.28969667526224
              ],
              [
                -2.9773155212402345,
                43.289126765580846
              ],
              [
                -2.979957389831543,
                43.28930092720269
              ]
            ],
            [
              [
                -2.9773155212402345,
                43.302474883363836
              ],
              [
                -2.977651326968542,
                43.302692516442306
              ],
              [
                -2.977651326968542,
                43.30406049972442
              ],
              [
                -2.9759592764348013,
                43.304744491365476
              ],
              [
                -2.9750160980916127,
                43.30542848300654
              ],
              [
                -2.9748477756360248,
                43.30611247464759
              ],
              [
                -2.972912406921387,
                43.30622811902372
              ],
              [
                -2.9711511611938475,
                43.30622811902372
              ],
              [
                -2.970653367452915,
                43.30611247464759
              ],
              [
                -2.970653367452915,
                43.30337650808337
              ],
              [
                -2.9711511611938475,
                43.30317638773337
              ],
              [
                -2.972912406921387,
                43.30317638773337
              ],
              [
                -2.9732763123429873,
                43.302692516442306
              ],
              [
                -2.9732763123429873,
                43.30200852480125
              ],
              [
                -2.973555939290743,
                43.3013245331602
              ],
              [
                -2.9737930297851562,
                43.301218844194345
              ],
              [
                -2.975554275512695,
                43.301218844194345
              ],
              [
                -2.976434898376465,
                43.301697640464255
              ],
              [
                -2.9773155212402345,
                43.302474883363836
              ]
            ],
            [
              [
                -2.975554275512695,
                43.275270314200505
              ],
              [
                -2.9755739309991247,
                43.27670083408217
              ],
              [
                -2.9737930297851562,
                43.27852514173707
              ],
              [
                -2.9720317840576174,
                43.27852514173707
              ],
              [
                -2.9710171729619477,
                43.277384825723225
              ],
              [
                -2.970840075170788,
                43.27670083408217
              ],
              [
                -2.970840075170788,
                43.275332850800055
              ],
              [
                -2.9720317840576174,
                43.274179607100464
              ],
              [
                -2.972912406921387,
                43.27385096154585
              ],
              [
                -2.9746736526489257,
                43.27385096154585
              ],
              [
                -2.975382735672882,
                43.274648859159
              ],
              [
                -2.975554275512695,
                43.275270314200505
              ]
            ],
            [
              [
                -2.968509292602539,
                43.33071218038506
              ],
              [
                -2.9687243451928937,
                43.33073617372562
              ],
              [
                -2.9687243451928937,
                43.33210415700773
              ],
              [
                -2.9667121576879745,
                43.33210415700773
              ],
              [
                -2.9667121576879745,
                43.33073617372562
              ],
              [
                -2.968509292602539,
                43.33071218038506
              ]
            ],
            [
              [
                -2.9658674240112304,
                43.281048805689174
              ],
              [
                -2.9664274116191147,
                43.281488775569564
              ],
              [
                -2.966705373423258,
                43.28217276721062
              ],
              [
                -2.966670455387862,
                43.28354075049273
              ],
              [
                -2.9658674240112304,
                43.2841644757805
              ],
              [
                -2.964986801147461,
                43.2841644757805
              ],
              [
                -2.963225555419922,
                43.284055545170524
              ],
              [
                -2.9614643096923827,
                43.282979128191826
              ],
              [
                -2.9604792415132075,
                43.28217276721062
              ],
              [
                -2.96031736567491,
                43.281488775569564
              ],
              [
                -2.959703063964844,
                43.28113696562191
              ],
              [
                -2.9579418182373045,
                43.280994877452194
              ],
              [
                -2.957061195373535,
                43.279686904158105
              ],
              [
                -2.9569595197960887,
                43.278068817364286
              ],
              [
                -2.9557066196007487,
                43.277384825723225
              ],
              [
                -2.955048926382669,
                43.27670083408217
              ],
              [
                -2.9549249207480504,
                43.275332850800055
              ],
              [
                -2.9550515403683457,
                43.274648859159
              ],
              [
                -2.955911947739998,
                43.27396486751795
              ],
              [
                -2.9561805725097656,
                43.273387244564184
              ],
              [
                -2.9579418182373045,
                43.273387244564184
              ],
              [
                -2.95862973500247,
                43.27396486751795
              ],
              [
                -2.9587049561514775,
                43.275332850800055
              ],
              [
                -2.9588224411010744,
                43.275413028075384
              ],
              [
                -2.959703063964844,
                43.275006490294594
              ],
              [
                -2.9614643096923827,
                43.27506121811322
              ],
              [
                -2.9624373918246234,
                43.276016842441116
              ],
              [
                -2.9625947864426276,
                43.27875280900534
              ],
              [
                -2.963472871497965,
                43.279436800646394
              ],
              [
                -2.96357894918295,
                43.28012079228745
              ],
              [
                -2.9642799286845505,
                43.28080478392851
              ],
              [
                -2.9658674240112304,
                43.281048805689174
              ]
            ],
            [
              [
                -2.9641061782836915,
                43.26162474159602
              ],
              [
                -2.964144075516102,
                43.263021001261045
              ],
              [
                -2.962275287961533,
                43.263021001261045
              ],
              [
                -2.962275287961533,
                43.26165301797893
              ],
              [
                -2.9641061782836915,
                43.26162474159602
              ]
            ],
            [
              [
                -2.957061195373535,
                43.254756705664946
              ],
              [
                -2.957181310957065,
                43.25481310156837
              ],
              [
                -2.9571766933477943,
                43.25618108485048
              ],
              [
                -2.955201378931595,
                43.25618108485048
              ],
              [
                -2.955201378931595,
                43.25481310156837
              ],
              [
                -2.957061195373535,
                43.254756705664946
              ]
            ],
            [
              [
                -2.953538703918457,
                43.2681679235848
              ],
              [
                -2.953958174533736,
                43.26849293438949
              ],
              [
                -2.953958174533736,
                43.26986091767161
              ],
              [
                -2.9537723834029808,
                43.27122890095372
              ],
              [
                -2.953538703918457,
                43.27140070671985
              ],
              [
                -2.9526580810546874,
                43.27148772061475
              ],
              [
                -2.951777458190918,
                43.27231376066094
              ],
              [
                -2.9508968353271485,
                43.2726011444113
              ],
              [
                -2.949135589599609,
                43.2726011444113
              ],
              [
                -2.9482549667358398,
                43.27182408437815
              ],
              [
                -2.9473743438720703,
                43.27253397935092
              ],
              [
                -2.946493721008301,
                43.272584742655546
              ],
              [
                -2.9456130981445314,
                43.27314942664452
              ],
              [
                -2.943851852416992,
                43.27314942664452
              ],
              [
                -2.9429712295532227,
                43.27271977101207
              ],
              [
                -2.942090606689453,
                43.27271977101207
              ],
              [
                -2.941836944049031,
                43.27259688423583
              ],
              [
                -2.9416284242575523,
                43.27191289259478
              ],
              [
                -2.9416284242575523,
                43.27122890095372
              ],
              [
                -2.9406960537876836,
                43.27054490931266
              ],
              [
                -2.9406628741251386,
                43.26917692603055
              ],
              [
                -2.940329360961914,
                43.26893199410718
              ],
              [
                -2.9394487380981444,
                43.26868256451403
              ],
              [
                -2.937043676504518,
                43.26849293438949
              ],
              [
                -2.936806869506836,
                43.267752831525264
              ],
              [
                -2.9366040828433606,
                43.26780894274844
              ],
              [
                -2.9366040828433606,
                43.26917692603055
              ],
              [
                -2.935045623779297,
                43.26947923672504
              ],
              [
                -2.934354587947394,
                43.26986091767161
              ],
              [
                -2.9341650009155273,
                43.27060380813595
              ],
              [
                -2.933284378051758,
                43.27072138533075
              ],
              [
                -2.9315231323242186,
                43.27072138533075
              ],
              [
                -2.9309735493518647,
                43.27054490931266
              ],
              [
                -2.9309735493518647,
                43.26917692603055
              ],
              [
                -2.930642509460449,
                43.269009848520675
              ],
              [
                -2.9297618865966797,
                43.268954013116804
              ],
              [
                -2.929168258773046,
                43.26849293438949
              ],
              [
                -2.9291413974516525,
                43.26780894274844
              ],
              [
                -2.9288812637329102,
                43.26762429255614
              ],
              [
                -2.9287312728261075,
                43.26780894274844
              ],
              [
                -2.9286072321634378,
                43.26917692603055
              ],
              [
                -2.928000640869141,
                43.26964807366015
              ],
              [
                -2.927120018005371,
                43.26932890292627
              ],
              [
                -2.9262393951416015,
                43.26932890292627
              ],
              [
                -2.923597526550293,
                43.268964237971005
              ],
              [
                -2.9228627175378685,
                43.26849293438949
              ],
              [
                -2.9224579118886425,
                43.26780894274844
              ],
              [
                -2.9213812630846365,
                43.267124951107384
              ],
              [
                -2.921052257864418,
                43.26644095946632
              ],
              [
                -2.9209498888732877,
                43.2637049929021
              ],
              [
                -2.9214726443004975,
                43.263021001261045
              ],
              [
                -2.921416035863484,
                43.26233700961999
              ],
              [
                -2.9207228436640253,
                43.25960104305577
              ],
              [
                -2.920075035095215,
                43.25903285986416
              ],
              [
                -2.9192253014056524,
                43.25960104305577
              ],
              [
                -2.91922053205401,
                43.26028503469682
              ],
              [
                -2.9183137893676756,
                43.26123185835473
              ],
              [
                -2.9172301810702974,
                43.26165301797893
              ],
              [
                -2.9172301810702974,
                43.263021001261045
              ],
              [
                -2.9165525436401367,
                43.26324444539681
              ],
              [
                -2.914791297912598,
                43.2632317382493
              ],
              [
                -2.91451650525147,
                43.263021001261045
              ],
              [
                -2.914376346326353,
                43.260969026337875
              ],
              [
                -2.914791297912598,
                43.260646727851075
              ],
              [
                -2.9156719207763673,
                43.260646727851075
              ],
              [
                -2.9161518689625536,
                43.26028503469682
              ],
              [
                -2.9161518689625536,
                43.25960104305577
              ],
              [
                -2.9165525436401367,
                43.25919406339456
              ],
              [
                -2.917316225458323,
                43.258917051414706
              ],
              [
                -2.9165525436401367,
                43.2586038867266
              ],
              [
                -2.9163336574703753,
                43.25823305977365
              ],
              [
                -2.9163460295904913,
                43.2575490681326
              ],
              [
                -2.9156719207763673,
                43.25709952046821
              ],
              [
                -2.914791297912598,
                43.257598894164225
              ],
              [
                -2.9112688064575196,
                43.25756778453382
              ],
              [
                -2.91038818359375,
                43.25703851501321
              ],
              [
                -2.908626937866211,
                43.25703385787761
              ],
              [
                -2.9078972047819316,
                43.256865076491536
              ],
              [
                -2.9078972047819316,
                43.25549709320943
              ],
              [
                -2.9092859728983167,
                43.25481310156837
              ],
              [
                -2.909350637983277,
                43.2527611266452
              ],
              [
                -2.9095075607299803,
                43.25266921833315
              ],
              [
                -2.9112688064575196,
                43.25244217886517
              ],
              [
                -2.912149429321289,
                43.252117780895325
              ],
              [
                -2.913910675048828,
                43.252117780895325
              ],
              [
                -2.914791297912598,
                43.251488027771444
              ],
              [
                -2.9156719207763673,
                43.251488027771444
              ],
              [
                -2.917433166503906,
                43.251801966688404
              ],
              [
                -2.9177722758587654,
                43.25207713500414
              ],
              [
                -2.917687524749798,
                43.25412910992731
              ],
              [
                -2.9180391966078845,
                43.25481310156837
              ],
              [
                -2.9183137893676756,
                43.255115878086485
              ],
              [
                -2.9191944122314455,
                43.25477463378376
              ],
              [
                -2.9200684696607437,
                43.25412910992731
              ],
              [
                -2.920075035095215,
                43.25343338791551
              ],
              [
                -2.9209556579589844,
                43.25284708417924
              ],
              [
                -2.9219880439348263,
                43.2527611266452
              ],
              [
                -2.922548528872535,
                43.25207713500414
              ],
              [
                -2.9225364712982786,
                43.250709151722035
              ],
              [
                -2.9227169036865233,
                43.2505690074555
              ],
              [
                -2.925358772277832,
                43.25054503781561
              ],
              [
                -2.9258034705263185,
                43.25002516008097
              ],
              [
                -2.9259969428008623,
                43.248657176798865
              ],
              [
                -2.9262393951416015,
                43.24835074921614
              ],
              [
                -2.928000640869141,
                43.24835074921614
              ],
              [
                -2.928784501247605,
                43.247973185157804
              ],
              [
                -2.9288287717535173,
                43.246605201875695
              ],
              [
                -2.9297618865966797,
                43.246033198980676
              ],
              [
                -2.9315231323242186,
                43.246033198980676
              ],
              [
                -2.9324037551879885,
                43.24704780247973
              ],
              [
                -2.9341650009155273,
                43.24717331086599
              ],
              [
                -2.935419073423083,
                43.247973185157804
              ],
              [
                -2.935572189794803,
                43.24934116843992
              ],
              [
                -2.9359262466430662,
                43.24991006824554
              ],
              [
                -2.936806869506836,
                43.25012318376211
              ],
              [
                -2.9394286070602753,
                43.25139314336309
              ],
              [
                -2.9394286070602753,
                43.2527611266452
              ],
              [
                -2.938568115234375,
                43.253236036877716
              ],
              [
                -2.9359262466430662,
                43.25334320206724
              ],
              [
                -2.935045623779297,
                43.253157742116116
              ],
              [
                -2.934534990855077,
                43.2527611266452
              ],
              [
                -2.934534990855077,
                43.25207713500414
              ],
              [
                -2.933284378051758,
                43.25162356891185
              ],
              [
                -2.9315231323242186,
                43.252840235886815
              ],
              [
                -2.9297618865966797,
                43.252840235886815
              ],
              [
                -2.9286836367554305,
                43.25207713500414
              ],
              [
                -2.928373184999789,
                43.25139314336309
              ],
              [
                -2.928000640869141,
                43.25112437756042
              ],
              [
                -2.927120018005371,
                43.25104774024301
              ],
              [
                -2.9262393951416015,
                43.251050249023045
              ],
              [
                -2.9255724302608983,
                43.25139314336309
              ],
              [
                -2.9255137878502504,
                43.2527611266452
              ],
              [
                -2.927120018005371,
                43.25407811445337
              ],
              [
                -2.9297618865966797,
                43.254862839251814
              ],
              [
                -2.9315231323242186,
                43.25592234840323
              ],
              [
                -2.9324037551879885,
                43.25578755827104
              ],
              [
                -2.9341650009155273,
                43.25587396760038
              ],
              [
                -2.934577806921378,
                43.25549709320943
              ],
              [
                -2.934645528293297,
                43.25481310156837
              ],
              [
                -2.9344467639542815,
                43.25412910992731
              ],
              [
                -2.935045623779297,
                43.25354721722941
              ],
              [
                -2.9359262466430662,
                43.25354721722941
              ],
              [
                -2.936806869506836,
                43.25365450543812
              ],
              [
                -2.9374179114251024,
                43.25412910992731
              ],
              [
                -2.937313242635854,
                43.25549709320943
              ],
              [
                -2.9376874923706056,
                43.25595615381869
              ],
              [
                -2.9379481396274225,
                43.25549709320943
              ],
              [
                -2.9394487380981444,
                43.25435439699681
              ],
              [
                -2.942090606689453,
                43.25438558457522
              ],
              [
                -2.9429712295532227,
                43.254586839103595
              ],
              [
                -2.943851852416992,
                43.254281771475696
              ],
              [
                -2.944435626682072,
                43.25481310156837
              ],
              [
                -2.9440893474291,
                43.25549709320943
              ],
              [
                -2.9447324752807615,
                43.255997945747886
              ],
              [
                -2.946493721008301,
                43.256005557911344
              ],
              [
                -2.94686110969828,
                43.25618108485048
              ],
              [
                -2.9482549667358398,
                43.25741585206391
              ],
              [
                -2.950016212463379,
                43.25665013370382
              ],
              [
                -2.951777458190918,
                43.25665013370382
              ],
              [
                -2.952148021381051,
                43.25823305977365
              ],
              [
                -2.952148021381051,
                43.26028503469682
              ],
              [
                -2.9511810833125383,
                43.260969026337875
              ],
              [
                -2.9508968353271485,
                43.261681119440574
              ],
              [
                -2.949406109422157,
                43.26233700961999
              ],
              [
                -2.949406109422157,
                43.2637049929021
              ],
              [
                -2.949135589599609,
                43.263943650558076
              ],
              [
                -2.9482549667358398,
                43.264006851273585
              ],
              [
                -2.9473743438720703,
                43.26454457353396
              ],
              [
                -2.946493721008301,
                43.264719540949436
              ],
              [
                -2.9461368010512863,
                43.265072976184214
              ],
              [
                -2.946253561622507,
                43.26644095946632
              ],
              [
                -2.9456130981445314,
                43.26693841607728
              ],
              [
                -2.943851852416992,
                43.26698640230389
              ],
              [
                -2.942397538131735,
                43.26575696782527
              ],
              [
                -2.9412099838256838,
                43.26547859437124
              ],
              [
                -2.940329360961914,
                43.26508986200757
              ],
              [
                -2.9394487380981444,
                43.265529013160275
              ],
              [
                -2.938566052002402,
                43.26575696782527
              ],
              [
                -2.9394487380981444,
                43.2659258746576
              ],
              [
                -2.9412099838256838,
                43.26656346967066
              ],
              [
                -2.9429712295532227,
                43.2666423614512
              ],
              [
                -2.9435925521828388,
                43.267124951107384
              ],
              [
                -2.943285219345226,
                43.26780894274844
              ],
              [
                -2.943851852416992,
                43.26837791316367
              ],
              [
                -2.9456130981445314,
                43.26926449463134
              ],
              [
                -2.9482549667358398,
                43.269172749050426
              ],
              [
                -2.950016212463379,
                43.26881421016172
              ],
              [
                -2.9508968353271485,
                43.268083889345505
              ],
              [
                -2.953538703918457,
                43.2681679235848
              ]
            ],
            [
              [
                -2.9473743438720703,
                43.24859837933299
              ],
              [
                -2.947702643750841,
                43.248657176798865
              ],
              [
                -2.9479206375052396,
                43.24934116843992
              ],
              [
                -2.9477797279042126,
                43.25139314336309
              ],
              [
                -2.9474603362029805,
                43.2527611266452
              ],
              [
                -2.946493721008301,
                43.253830052439916
              ],
              [
                -2.9447324752807615,
                43.25390533515797
              ],
              [
                -2.943851852416992,
                43.25327844189753
              ],
              [
                -2.9433277074717417,
                43.25207713500414
              ],
              [
                -2.9433277074717417,
                43.25139314336309
              ],
              [
                -2.943851852416992,
                43.25098603292342
              ],
              [
                -2.9447324752807615,
                43.25098603292342
              ],
              [
                -2.944983028566603,
                43.250709151722035
              ],
              [
                -2.9453275117750244,
                43.25002516008097
              ],
              [
                -2.9453098227354455,
                43.24934116843992
              ],
              [
                -2.945471820614541,
                43.248657176798865
              ],
              [
                -2.9456130981445314,
                43.248547444638184
              ],
              [
                -2.9473743438720703,
                43.24859837933299
              ]
            ],
            [
              [
                -2.9262393951416015,
                43.24171349441156
              ],
              [
                -2.9263902004665616,
                43.242501252029356
              ],
              [
                -2.926247503433353,
                43.244553226952526
              ],
              [
                -2.9244781494140626,
                43.24456246179375
              ],
              [
                -2.9243258993409285,
                43.24318524367041
              ],
              [
                -2.9227169036865233,
                43.24208935177544
              ],
              [
                -2.920075035095215,
                43.241964261943146
              ],
              [
                -2.919852502067968,
                43.2418172603883
              ],
              [
                -2.9195630403912056,
                43.24044927710619
              ],
              [
                -2.920075035095215,
                43.239906470966545
              ],
              [
                -2.9204144710495537,
                43.23976528546513
              ],
              [
                -2.9234110476578796,
                43.23976528546513
              ],
              [
                -2.923597526550293,
                43.23980807023767
              ],
              [
                -2.9239790084221275,
                43.24044927710619
              ],
              [
                -2.9244781494140626,
                43.24093167909598
              ],
              [
                -2.925358772277832,
                43.2409760019226
              ],
              [
                -2.9262393951416015,
                43.24171349441156
              ]
            ],
            [
              [
                -2.9191944122314455,
                43.265672297416835
              ],
              [
                -2.9193489651773294,
                43.26575696782527
              ],
              [
                -2.9193489651773294,
                43.267124951107384
              ],
              [
                -2.917808424905414,
                43.26780894274844
              ],
              [
                -2.917736576834464,
                43.26849293438949
              ],
              [
                -2.917433166503906,
                43.26908357723462
              ],
              [
                -2.9156719207763673,
                43.26908357723462
              ],
              [
                -2.915229140733673,
                43.26849293438949
              ],
              [
                -2.915229140733673,
                43.267124951107384
              ],
              [
                -2.91606502867334,
                43.26644095946632
              ],
              [
                -2.9159563602521965,
                43.26575696782527
              ],
              [
                -2.9163087118721,
                43.265072976184214
              ],
              [
                -2.9165525436401367,
                43.26488358876535
              ],
              [
                -2.9183137893676756,
                43.26501611686668
              ],
              [
                -2.9191944122314455,
                43.265672297416835
              ]
            ],
            [
              [
                -2.897178840637207,
                43.25923445060763
              ],
              [
                -2.8974939448054395,
                43.26028503469682
              ],
              [
                -2.8974939448054395,
                43.260969026337875
              ],
              [
                -2.897178840637207,
                43.26121377199007
              ],
              [
                -2.895417594909668,
                43.26110794474651
              ],
              [
                -2.895264567462891,
                43.260969026337875
              ],
              [
                -2.895264567462891,
                43.25960104305577
              ],
              [
                -2.895417594909668,
                43.25923445060763
              ],
              [
                -2.897178840637207,
                43.25923445060763
              ]
            ],
            [
              [
                -2.8945369720458984,
                43.24464767872687
              ],
              [
                -2.8952959905112796,
                43.24523721859358
              ],
              [
                -2.894842933958795,
                43.24592121023464
              ],
              [
                -2.894842933958795,
                43.246605201875695
              ],
              [
                -2.894418529352152,
                43.24728919351675
              ],
              [
                -2.893656349182129,
                43.24813203149039
              ],
              [
                -2.8918951034545897,
                43.24814476570626
              ],
              [
                -2.891674197605928,
                43.247973185157804
              ],
              [
                -2.8913122566922884,
                43.24728919351675
              ],
              [
                -2.891228719175728,
                43.246605201875695
              ],
              [
                -2.891228719175728,
                43.24592121023464
              ],
              [
                -2.891413641779053,
                43.24523721859358
              ],
              [
                -2.8918951034545897,
                43.24498798462758
              ],
              [
                -2.893656349182129,
                43.245002319365
              ],
              [
                -2.8945369720458984,
                43.24464767872687
              ]
            ],
            [
              [
                -2.8910144805908202,
                43.23553226638185
              ],
              [
                -2.891385042960803,
                43.23566133561879
              ],
              [
                -2.891385042960803,
                43.23771331054196
              ],
              [
                -2.8910144805908202,
                43.23793932936898
              ],
              [
                -2.890133857727051,
                43.23793932936898
              ],
              [
                -2.889826464122797,
                43.23839730218302
              ],
              [
                -2.888372611999512,
                43.23897142318278
              ],
              [
                -2.8866113662719726,
                43.23897142318278
              ],
              [
                -2.885730743408203,
                43.23813757036248
              ],
              [
                -2.8841706195879064,
                43.23702931890091
              ],
              [
                -2.882208251953125,
                43.236806227951895
              ],
              [
                -2.8815734100432806,
                43.23702931890091
              ],
              [
                -2.8814918526484323,
                43.23908129382407
              ],
              [
                -2.8813276290893555,
                43.23929185533367
              ],
              [
                -2.8795663833618166,
                43.23929185533367
              ],
              [
                -2.8793932901828696,
                43.23908129382407
              ],
              [
                -2.879409368826389,
                43.23839730218302
              ],
              [
                -2.8790928145296566,
                43.23771331054196
              ],
              [
                -2.8791008504070614,
                43.23566133561879
              ],
              [
                -2.8795663833618166,
                43.23520712445657
              ],
              [
                -2.880447006225586,
                43.23520712445657
              ],
              [
                -2.880810671600558,
                43.23497734397774
              ],
              [
                -2.8813276290893555,
                43.234914427303124
              ],
              [
                -2.882208251953125,
                43.234239938582235
              ],
              [
                -2.8839694976806642,
                43.234239938582235
              ],
              [
                -2.8848501205444337,
                43.23457504860613
              ],
              [
                -2.885730743408203,
                43.23546024341967
              ],
              [
                -2.887491989135742,
                43.235474875129924
              ],
              [
                -2.888372611999512,
                43.23598526787161
              ],
              [
                -2.8892532348632813,
                43.23553226638185
              ],
              [
                -2.8910144805908202,
                43.23553226638185
              ]
            ],
            [
              [
                -2.888372611999512,
                43.29014479359091
              ],
              [
                -2.8886348355842046,
                43.290380666903296
              ],
              [
                -2.8887953695891047,
                43.29106465854435
              ],
              [
                -2.8887953695891047,
                43.292432641826466
              ],
              [
                -2.888372611999512,
                43.292707622802105
              ],
              [
                -2.885730743408203,
                43.29274424669631
              ],
              [
                -2.884558812361396,
                43.29174865018541
              ],
              [
                -2.884558812361396,
                43.290380666903296
              ],
              [
                -2.8848501205444337,
                43.29020909475715
              ],
              [
                -2.888372611999512,
                43.29014479359091
              ]
            ],
            [
              [
                -2.8866113662719726,
                43.29658461399182
              ],
              [
                -2.8871575866414285,
                43.29790457495491
              ],
              [
                -2.887150620889847,
                43.29927255823703
              ],
              [
                -2.8866113662719726,
                43.299590143164835
              ],
              [
                -2.8848501205444337,
                43.299590143164835
              ],
              [
                -2.8845768831559297,
                43.29927255823703
              ],
              [
                -2.8844877914863916,
                43.298588566595974
              ],
              [
                -2.8844877914863916,
                43.29722058331386
              ],
              [
                -2.8848501205444337,
                43.29658461399182
              ],
              [
                -2.8866113662719726,
                43.29658461399182
              ]
            ]
          ],
          [
            [
              [
                -2.9857967218810857,
                43.300640541519144
              ],
              [
                -2.9861217498779298,
                43.30101561622708
              ],
              [
                -2.9862816069442237,
                43.300640541519144
              ],
              [
                -2.9861217498779298,
                43.30052367424856
              ],
              [
                -2.9857967218810857,
                43.300640541519144
              ]
            ]
          ],
          [
            [
              [
                -2.9602451896895734,
                43.28012079228745
              ],
              [
                -2.9605836868286133,
                43.28059792870084
              ],
              [
                -2.960943759041308,
                43.28012079228745
              ],
              [
                -2.9605836868286133,
                43.27978293434734
              ],
              [
                -2.9602451896895734,
                43.28012079228745
              ]
            ]
          ],
          [
            [
              [
                -2.9288812637329102,
                43.248023273369235
              ],
              [
                -2.9283017140190526,
                43.248657176798865
              ],
              [
                -2.9283713870168993,
                43.24934116843992
              ],
              [
                -2.9288812637329102,
                43.249757758751436
              ],
              [
                -2.929606535024934,
                43.24934116843992
              ],
              [
                -2.930270588194484,
                43.248657176798865
              ],
              [
                -2.9288812637329102,
                43.248023273369235
              ]
            ]
          ],
          [
            [
              [
                -2.9281700466397322,
                43.258917051414706
              ],
              [
                -2.928000640869141,
                43.259292357802806
              ],
              [
                -2.927372999565717,
                43.25960104305577
              ],
              [
                -2.928000640869141,
                43.259662827509324
              ],
              [
                -2.9294524971532425,
                43.258917051414706
              ],
              [
                -2.9288812637329102,
                43.25843384753788
              ],
              [
                -2.9281700466397322,
                43.258917051414706
              ]
            ]
          ]
        ]
      }
    }
  ]
}