{
  "type": "FeatureCollection",
  "features": [
    {
      "type": "Feature",
      "properties": {},
      "geometry": {
        "type": "Polygon",
        "coordinates": [
          [
            [
              -2.8681182861328125,
              43.22882141920823
            ],
            [
              -2.8681182861328125,
              43.36561974741949
            ],
            [
              -3.0442428588867188,
              43.36561974741949
            ],
            [
              -3.0442428588867188,
              43.294285098337916
            ],
            [
              -3.0433622360229493,
              43.294285098337916
            ],
            [
              -3.04248161315918,
              43.2939996745234
            ],
            [
              -3.0414711270131782,
              43.29311663346752
            ],
            [
              -3.0414711270131782,
              43.29174865018541
            ],
            [
              -3.0419074030359043,
              43.29106465854435
            ],
            [
              -3.04248161315918,
              43.290688206114346
            ],
            [
              -3.0433622360229493,
              43.2903981877892
            ],
            [
              -3.0442428588867188,
              43.2903981877892
            ],
            [
              -3.0442428588867188,
              43.22882141920823
            ],
            [
              -2.8681182861328125,
              43.22882141920823
            ]
          ],
          [
            [
              -3.029272270202637,
              43.320150257301314
            ],
            [
              -3.029460279366553,
              43.32047629910977
            ],
            [
              -3.029460279366553,
              43.321844282391886
            ],
            [
              -3.029272270202637,
              43.32193580909135
            ],
            [
              -3.027186356563629,
              43.321844282391886
            ],
            [
              -3.0271137872630445,
              43.32047629910977
            ],
            [
              -3.0275110244750976,
              43.320150257301314
            ],
            [
              -3.029272270202637,
              43.320150257301314
            ]
          ],
          [
            [
              -3.0143016815185546,
              43.30707273315794
            ],
            [
              -3.014806656547936,
              43.3074804579297
            ],
            [
              -3.014806656547936,
              43.308848441211815
            ],
            [
              -3.0144886254262233,
              43.30953243285287
            ],
            [
              -3.013421058654785,
              43.30975067733725
            ],
            [
              -3.0116598129272463,
              43.309687380108954
            ],
            [
              -3.011402476724814,
              43.30953243285287
            ],
            [
              -3.0110032851902027,
              43.308848441211815
            ],
            [
              -3.0110032851902027,
              43.3074804579297
            ],
            [
              -3.0116598129272463,
              43.30698752011428
            ],
            [
              -3.0143016815185546,
              43.30707273315794
            ]
          ],
          [
            [
              -3.0037342071533204,
              43.32877085081948
            ],
            [
              -3.0042192732010413,
              43.3293681904435
            ],
            [
              -3.0042192732010413,
              43.33073617372562
            ],
            [
              -3.0037342071533204,
              43.3314616387036
            ],
            [
              -3.002853584289551,
              43.33183526648214
            ],
            [
              -3.000211715698242,
              43.331737313923554
            ],
            [
              -2.999683955489385,
              43.33142016536667
            ],
            [
              -2.9990815849197614,
              43.33073617372562
            ],
            [
              -2.9990813677178294,
              43.3293681904435
            ],
            [
              -2.999681335959827,
              43.32868419880245
            ],
            [
              -3.000211715698242,
              43.328365134209534
            ],
            [
              -3.002853584289551,
              43.32826714754691
            ],
            [
              -3.0037342071533204,
              43.32877085081948
            ]
          ],
          [
            [
              -3.002853584289551,
              43.288945045983276
            ],
            [
              -3.002949361358697,
              43.28901268362118
            ],
            [
              -3.002853584289551,
              43.29048989426453
            ],
            [
              -3.0010923385620116,
              43.29048989426453
            ],
            [
              -3.0009213535996495,
              43.290380666903296
            ],
            [
              -3.0009213535996495,
              43.28901268362118
            ],
            [
              -3.002853584289551,
              43.288945045983276
            ]
          ],
          [
            [
              -2.9975698471069334,
              43.32649839589436
            ],
            [
              -2.997839512266537,
              43.32663222387928
            ],
            [
              -2.99830381398857,
              43.327316215520334
            ],
            [
              -2.99830381398857,
              43.32868419880245
            ],
            [
              -2.9975698471069334,
              43.32914114903292
            ],
            [
              -2.9958086013793945,
              43.32914114903292
            ],
            [
              -2.9950444996840395,
              43.32868419880245
            ],
            [
              -2.9950444996840395,
              43.327316215520334
            ],
            [
              -2.9955273685444914,
              43.32663222387928
            ],
            [
              -2.9958086013793945,
              43.32649839589436
            ],
            [
              -2.9975698471069334,
              43.32649839589436
            ]
          ],
          [
            [
              -2.9940473556518556,
              43.27779939642145
            ],
            [
              -2.994686604189605,
              43.27875280900534
            ],
            [
              -2.994686604189605,
              43.28012079228745
            ],
            [
              -2.9941929943810424,
              43.28080478392851
            ],
            [
              -2.9931667327880858,
              43.28146392810129
            ],
            [
              -2.9922861099243163,
              43.281656556860476
            ],
            [
              -2.9905248641967774,
              43.281656556860476
            ],
            [
              -2.989644241333008,
              43.28133195614929
            ],
            [
              -2.9888932928759844,
              43.28080478392851
            ],
            [
              -2.9883983768992377,
              43.28012079228745
            ],
            [
              -2.9883983768992377,
              43.27875280900534
            ],
            [
              -2.9887426576738454,
              43.278068817364286
            ],
            [
              -2.989644241333008,
              43.27738195105558
            ],
            [
              -2.9905248641967774,
              43.277065958247725
            ],
            [
              -2.9922861099243163,
              43.277065958247725
            ],
            [
              -2.9931667327880858,
              43.27726005668334
            ],
            [
              -2.9940473556518556,
              43.27779939642145
            ]
          ],
          [
            [
              -2.9931667327880858,
              43.29308523170932
            ],
            [
              -2.9932223049133935,
              43.294484616749635
            ],
            [
              -2.9913825116130943,
              43.294484616749635
            ],
            [
              -2.991405487060547,
              43.29308523170932
            ],
            [
              -2.9931667327880858,
              43.29308523170932
            ]
          ],
          [
            [
              -2.9843605041503904,
              43.28689922845097
            ],
            [
              -2.9843605041503904,
              43.2883927945232
            ],
            [
              -2.9824814543770284,
              43.28832869198013
            ],
            [
              -2.9824814543770284,
              43.28696070869802
            ],
            [
              -2.9843605041503904,
              43.28689922845097
            ]
          ],
          [
            [
              -2.9790767669677733,
              43.28352034720712
            ],
            [
              -2.9793460413892365,
              43.28354075049273
            ],
            [
              -2.9793460413892365,
              43.28490873377485
            ],
            [
              -2.9773155212402345,
              43.285005787279914
            ],
            [
              -2.9772902153802905,
              43.28354075049273
            ],
            [
              -2.9790767669677733,
              43.28352034720712
            ]
          ],
          [
            [
              -2.9790767669677733,
              43.29551411515029
            ],
            [
              -2.9793281644681464,
              43.29585260003174
            ],
            [
              -2.9793281644681464,
              43.29722058331386
            ],
            [
              -2.9790767669677733,
              43.29743845018019
            ],
            [
              -2.978196144104004,
              43.2976109822214
            ],
            [
              -2.976434898376465,
              43.2976109822214
            ],
            [
              -2.975921689813243,
              43.29722058331386
            ],
            [
              -2.975921689813243,
              43.29585260003174
            ],
            [
              -2.976434898376465,
              43.29525196925156
            ],
            [
              -2.978196144104004,
              43.29525196925156
            ],
            [
              -2.9790767669677733,
              43.29551411515029
            ]
          ],
          [
            [
              -2.9711511611938475,
              43.32776886803002
            ],
            [
              -2.9714742626341213,
              43.328000207161395
            ],
            [
              -2.9715937100505743,
              43.32868419880245
            ],
            [
              -2.9715937100505743,
              43.33005218208456
            ],
            [
              -2.9711511611938475,
              43.33039265403876
            ],
            [
              -2.970270538330078,
              43.330543611428546
            ],
            [
              -2.968509292602539,
              43.330543611428546
            ],
            [
              -2.967775199951425,
              43.33005218208456
            ],
            [
              -2.967902315113922,
              43.328000207161395
            ],
            [
              -2.968509292602539,
              43.327622237397556
            ],
            [
              -2.970270538330078,
              43.327622237397556
            ],
            [
              -2.9711511611938475,
              43.32776886803002
            ]
          ],
          [
            [
              -2.964986801147461,
              43.257150667949695
            ],
            [
              -2.9656197122486834,
              43.2575490681326
            ],
            [
              -2.965824715633388,
              43.25823305977365
            ],
            [
              -2.965824715633388,
              43.25960104305577
            ],
            [
              -2.964986801147461,
              43.260198460137275
            ],
            [
              -2.962344932556152,
              43.260119965122904
            ],
            [
              -2.9616698150309775,
              43.25960104305577
            ],
            [
              -2.9616698150309775,
              43.25823305977365
            ],
            [
              -2.9618690847577906,
              43.2575490681326
            ],
            [
              -2.962344932556152,
              43.257226013255156
            ],
            [
              -2.964986801147461,
              43.257150667949695
            ]
          ],
          [
            [
              -2.963225555419922,
              43.245832285231586
            ],
            [
              -2.9634179245183194,
              43.246605201875695
            ],
            [
              -2.9634179245183194,
              43.247973185157804
            ],
            [
              -2.962829824485865,
              43.248657176798865
            ],
            [
              -2.96151376777559,
              43.24934116843992
            ],
            [
              -2.9588224411010744,
              43.24927620320882
            ],
            [
              -2.95771317703483,
              43.248657176798865
            ],
            [
              -2.9571291074120403,
              43.247973185157804
            ],
            [
              -2.9572509789970947,
              43.24592121023464
            ],
            [
              -2.9579418182373045,
              43.24524373101177
            ],
            [
              -2.9588224411010744,
              43.244809749845444
            ],
            [
              -2.9614643096923827,
              43.244727161090466
            ],
            [
              -2.962344932556152,
              43.245087433767225
            ],
            [
              -2.963225555419922,
              43.245832285231586
            ]
          ],
          [
            [
              -2.943851852416992,
              43.26504530746969
            ],
            [
              -2.943882345162262,
              43.26644095946632
            ],
            [
              -2.9429712295532227,
              43.26719303010096
            ],
            [
              -2.9412099838256838,
              43.26719303010096
            ],
            [
              -2.94059695328977,
              43.26644095946632
            ],
            [
              -2.94059695328977,
              43.265072976184214
            ],
            [
              -2.9412099838256838,
              43.26465836705014
            ],
            [
              -2.9429712295532227,
              43.26465836705014
            ],
            [
              -2.943851852416992,
              43.26504530746969
            ]
          ],
          [
            [
              -2.943851852416992,
              43.32396493619589
            ],
            [
              -2.9445036223080665,
              43.32458024895611
            ],
            [
              -2.9445810720853403,
              43.325264240597164
            ],
            [
              -2.9445810720853403,
              43.32663222387928
            ],
            [
              -2.943851852416992,
              43.327361295990094
            ],
            [
              -2.9429712295532227,
              43.32777843915164
            ],
            [
              -2.940329360961914,
              43.32774780647021
            ],
            [
              -2.9394487380981444,
              43.32730008379687
            ],
            [
              -2.9388104900907854,
              43.32663222387928
            ],
            [
              -2.9388875485313553,
              43.32458024895611
            ],
            [
              -2.9396564865910846,
              43.323896257315056
            ],
            [
              -2.940329360961914,
              43.323574660404425
            ],
            [
              -2.9429712295532227,
              43.32354431532677
            ],
            [
              -2.943851852416992,
              43.32396493619589
            ]
          ],
          [
            [
              -2.9244781494140626,
              43.24222773289335
            ],
            [
              -2.924804733478804,
              43.242501252029356
            ],
            [
              -2.924804733478804,
              43.24386923531147
            ],
            [
              -2.9244781494140626,
              43.24414822325969
            ],
            [
              -2.9227169036865233,
              43.24414822325969
            ],
            [
              -2.921629614775048,
              43.24386923531147
            ],
            [
              -2.921718310943846,
              43.242501252029356
            ],
            [
              -2.921836280822754,
              43.24239132073126
            ],
            [
              -2.9227169036865233,
              43.24222773289335
            ],
            [
              -2.9244781494140626,
              43.24222773289335
            ]
          ],
          [
            [
              -2.9209556579589844,
              43.26032970591835
            ],
            [
              -2.921633416781439,
              43.260969026337875
            ],
            [
              -2.921633416781439,
              43.26233700961999
            ],
            [
              -2.921433939080816,
              43.263021001261045
            ],
            [
              -2.9209556579589844,
              43.263407277972256
            ],
            [
              -2.920075035095215,
              43.26379849885588
            ],
            [
              -2.9183137893676756,
              43.26379849885588
            ],
            [
              -2.917433166503906,
              43.26350179512323
            ],
            [
              -2.916799948903737,
              43.263021001261045
            ],
            [
              -2.9165974671872,
              43.26233700961999
            ],
            [
              -2.9165974671872,
              43.260969026337875
            ],
            [
              -2.917353989847288,
              43.26028503469682
            ],
            [
              -2.9183137893676756,
              43.25995261567939
            ],
            [
              -2.920075035095215,
              43.25995261567939
            ],
            [
              -2.9209556579589844,
              43.26032970591835
            ]
          ],
          [
            [
              -2.920075035095215,
              43.243522567722266
            ],
            [
              -2.9205308974759254,
              43.24386923531147
            ],
            [
              -2.920607742308782,
              43.24592121023464
            ],
            [
              -2.920075035095215,
              43.24634744041117
            ],
            [
              -2.9194668432875006,
              43.246605201875695
            ],
            [
              -2.9194668432875006,
              43.247973185157804
            ],
            [
              -2.9191824525417958,
              43.248657176798865
            ],
            [
              -2.9183137893676756,
              43.24916906072149
            ],
            [
              -2.917433166503906,
              43.24927802758945
            ],
            [
              -2.9165525436401367,
              43.24927802758945
            ],
            [
              -2.9156719207763673,
              43.24888182240865
            ],
            [
              -2.9157303125966556,
              43.246605201875695
            ],
            [
              -2.9163926065788024,
              43.24592121023464
            ],
            [
              -2.916464641300805,
              43.24386923531147
            ],
            [
              -2.917433166503906,
              43.24328262455656
            ],
            [
              -2.9191944122314455,
              43.24328262455656
            ],
            [
              -2.920075035095215,
              43.243522567722266
            ]
          ],
          [
            [
              -2.9165525436401367,
              43.234482368123345
            ],
            [
              -2.916844359164666,
              43.23497734397774
            ],
            [
              -2.916844359164666,
              43.23634532725985
            ],
            [
              -2.91634767118182,
              43.23702931890091
            ],
            [
              -2.9156719207763673,
              43.23750878622755
            ],
            [
              -2.914791297912598,
              43.23784186023337
            ],
            [
              -2.9130300521850585,
              43.23784186023337
            ],
            [
              -2.912149429321289,
              43.23761355622863
            ],
            [
              -2.9112562809485967,
              43.23702931890091
            ],
            [
              -2.910770892419925,
              43.23634532725985
            ],
            [
              -2.910770892419925,
              43.23497734397774
            ],
            [
              -2.9111941638437693,
              43.23429335233668
            ],
            [
              -2.912149429321289,
              43.233641204309876
            ],
            [
              -2.9130300521850585,
              43.233416434929474
            ],
            [
              -2.914791297912598,
              43.233416434929474
            ],
            [
              -2.9156719207763673,
              43.23374704671254
            ],
            [
              -2.9165525436401367,
              43.234482368123345
            ]
          ],
          [
            [
              -2.906865692138672,
              43.25270831000322
            ],
            [
              -2.9070904512558196,
              43.25344511828626
            ],
            [
              -2.9070904512558196,
              43.25481310156837
            ],
            [
              -2.906865692138672,
              43.25500149234933
            ],
            [
              -2.9059850692749025,
              43.25533757499887
            ],
            [
              -2.904223823547363,
              43.25533757499887
            ],
            [
              -2.9033795232549173,
              43.25481310156837
            ],
            [
              -2.9033795232549173,
              43.25344511828626
            ],
            [
              -2.9035594387018553,
              43.2527611266452
            ],
            [
              -2.904223823547363,
              43.25238639858022
            ],
            [
              -2.9059850692749025,
              43.25238639858022
            ],
            [
              -2.906865692138672,
              43.25270831000322
            ]
          ],
          [
            [
              -2.8848501205444337,
              43.23901930561868
            ],
            [
              -2.8854919674113724,
              43.23976528546513
            ],
            [
              -2.8854919674113724,
              43.24113326874724
            ],
            [
              -2.8848501205444337,
              43.24161911611071
            ],
            [
              -2.8830888748168944,
              43.24161911611071
            ],
            [
              -2.882208251953125,
              43.24146474405859
            ],
            [
              -2.8818214459099787,
              43.24113326874724
            ],
            [
              -2.8818214459099787,
              43.23976528546513
            ],
            [
              -2.882208251953125,
              43.23921631695489
            ],
            [
              -2.8830888748168944,
              43.23901930561868
            ],
            [
              -2.8848501205444337,
              43.23901930561868
            ]
          ]
        ]
      }
    }
  ]
}