{
  "type": "FeatureCollection",
  "features": [
    {
      "type": "Feature",
      "properties": {},
      "geometry": {
        "type": "Polygon",
        "coordinates": [
          [
            [
              -2.8681182861328125,
              43.22882141920823
            ],
            [
              -2.8681182861328125,
              43.36561974741949
            ],
            [
              -3.0442428588867188,
              43.36561974741949
            ],
            [
              -3.0442428588867188,
              43.22882141920823
            ],
            [
              -2.8681182861328125,
              43.22882141920823
            ]
          ]
        ]
      }
    }
  ]
}