{
  "type": "FeatureCollection",
  "features": [
    {
      "type": "Feature",
      "properties": {},
      "geometry": {
        "type": "Polygon",
        "coordinates": [
          [
            [
              -4.088244438171387,
              40.92246294942589
            ],
            [
              -4.088244438171387,
              40.956793895951094
            ],
            [
              -4.133262634277344,
              40.956793895951094
            ],
            [
              -4.133262634277344,
              40.95429403796905
            ],
            [
              -4.13207009928116,
              40.954352244459194
            ],
            [
              -4.131485308421261,
              40.95408355806752
            ],
            [
              -4.13111816325074,
              40.95363183508693
            ],
            [
              -4.131232379208591,
              40.95272838912574
            ],
            [
              -4.130694200069728,
              40.952502527635446
            ],
            [
              -4.130694200069728,
              40.952050804654846
            ],
            [
              -4.130877564284975,
              40.95180640101539
            ],
            [
              -4.131473831783067,
              40.95180640101539
            ],
            [
              -4.13207009928116,
              40.95223188911453
            ],
            [
              -4.133262634277344,
              40.952329325457875
            ],
            [
              -4.133262634277344,
              40.92246294942589
            ],
            [
              -4.088244438171387,
              40.92246294942589
            ]
          ],
          [
            [
              -4.12670369179833,
              40.94804298178278
            ],
            [
              -4.126889864649659,
              40.9482111593198
            ],
            [
              -4.12685699763247,
              40.94888874379068
            ],
            [
              -4.12670369179833,
              40.94901725897491
            ],
            [
              -4.125809290551192,
              40.94912236262461
            ],
            [
              -4.125442390485663,
              40.94888874379068
            ],
            [
              -4.125410747076608,
              40.9482111593198
            ],
            [
              -4.125511156802146,
              40.94811040549008
            ],
            [
              -4.125809290551192,
              40.947939507419335
            ],
            [
              -4.12670369179833,
              40.94804298178278
            ]
          ],
          [
            [
              -4.126405558049284,
              40.95221469453158
            ],
            [
              -4.126633469610236,
              40.952502527635446
            ],
            [
              -4.126594334172502,
              40.95318011210634
            ],
            [
              -4.126107424300238,
              40.95358364801996
            ],
            [
              -4.1252130230530994,
              40.953675781640854
            ],
            [
              -4.124432482206773,
              40.95318011210634
            ],
            [
              -4.124393363619785,
              40.952502527635446
            ],
            [
              -4.124914889304054,
              40.952028954363094
            ],
            [
              -4.125809290551192,
              40.951936038104506
            ],
            [
              -4.126405558049284,
              40.95221469453158
            ]
          ],
          [
            [
              -4.110604469349842,
              40.93432892763626
            ],
            [
              -4.110803613903178,
              40.93465946990195
            ],
            [
              -4.110803613903178,
              40.935111192882545
            ],
            [
              -4.110604469349842,
              40.93529709280072
            ],
            [
              -4.109710068102704,
              40.935393619227746
            ],
            [
              -4.109313257208384,
              40.935111192882545
            ],
            [
              -4.109411934353658,
              40.93440342888692
            ],
            [
              -4.109710068102704,
              40.93423048900554
            ],
            [
              -4.110604469349842,
              40.93432892763626
            ]
          ],
          [
            [
              -4.109113800604612,
              40.93935144668081
            ],
            [
              -4.109113800604612,
              40.93992558526978
            ],
            [
              -4.1084117051955324,
              40.93985428417879
            ],
            [
              -4.1084117051955324,
              40.93940256119819
            ],
            [
              -4.109113800604612,
              40.93935144668081
            ]
          ],
          [
            [
              -4.108219399357473,
              40.93318532774969
            ],
            [
              -4.1082996298022545,
              40.93398188543106
            ],
            [
              -4.107681497505082,
              40.93443360841165
            ],
            [
              -4.106728730612243,
              40.93440410296528
            ],
            [
              -4.106204861548579,
              40.93398188543106
            ],
            [
              -4.106197315665111,
              40.93330430096017
            ],
            [
              -4.106728730612243,
              40.93286866331444
            ],
            [
              -4.107623131859381,
              40.932819388898515
            ],
            [
              -4.108219399357473,
              40.93318532774969
            ]
          ],
          [
            [
              -4.106728730612243,
              40.93142418346734
            ],
            [
              -4.106748375768273,
              40.93194913201838
            ],
            [
              -4.106430596863198,
              40.932541429255856
            ],
            [
              -4.105834329365105,
              40.93297134190218
            ],
            [
              -4.105238061867013,
              40.93315330729109
            ],
            [
              -4.104343660619874,
              40.93314390739634
            ],
            [
              -4.1037473931217825,
              40.93294608632151
            ],
            [
              -4.1031511256236906,
              40.93247977051254
            ],
            [
              -4.102886217831286,
              40.93194913201838
            ],
            [
              -4.102886217831286,
              40.93149740903779
            ],
            [
              -4.1031511256236906,
              40.930940030983905
            ],
            [
              -4.1037473931217825,
              40.930473160363825
            ],
            [
              -4.104343660619874,
              40.9302752905327
            ],
            [
              -4.105238061867013,
              40.930265873465274
            ],
            [
              -4.105834329365105,
              40.930447743339
            ],
            [
              -4.106378594252808,
              40.930819824566896
            ],
            [
              -4.106728730612243,
              40.93142418346734
            ]
          ],
          [
            [
              -4.106430596863198,
              40.945501154871216
            ],
            [
              -4.106484963842323,
              40.94617840590712
            ],
            [
              -4.105775200323991,
              40.94617840590712
            ],
            [
              -4.105834329365105,
              40.945501154871216
            ],
            [
              -4.106430596863198,
              40.945501154871216
            ]
          ],
          [
            [
              -4.105536195616059,
              40.93843962937862
            ],
            [
              -4.105631138448384,
              40.9391766997079
            ],
            [
              -4.104608459253795,
              40.9391766997079
            ],
            [
              -4.104619140637949,
              40.93849911523701
            ],
            [
              -4.105536195616059,
              40.93843962937862
            ]
          ],
          [
            [
              -4.103449259372736,
              40.93830048536247
            ],
            [
              -4.103647974708365,
              40.93849911523701
            ],
            [
              -4.103647974708365,
              40.9389508382176
            ],
            [
              -4.103449259372736,
              40.939163882700335
            ],
            [
              -4.102554858125599,
              40.939206997697354
            ],
            [
              -4.102278792408721,
              40.9389508382176
            ],
            [
              -4.102278792408721,
              40.93849911523701
            ],
            [
              -4.102554858125599,
              40.93825566767304
            ],
            [
              -4.103449259372736,
              40.93830048536247
            ]
          ],
          [
            [
              -4.100766055631322,
              40.93116322627205
            ],
            [
              -4.100935244024164,
              40.93149740903779
            ],
            [
              -4.100935244024164,
              40.93194913201838
            ],
            [
              -4.100766055631322,
              40.93209033522918
            ],
            [
              -4.0998716543841836,
              40.932145226100076
            ],
            [
              -4.099600321835091,
              40.93194913201838
            ],
            [
              -4.099632914125721,
              40.93127154754749
            ],
            [
              -4.0998716543841836,
              40.93110959228692
            ],
            [
              -4.100766055631322,
              40.93116322627205
            ]
          ]
        ]
      }
    }
  ]
}