{
  "type": "FeatureCollection",
  "features": [
    {
      "type": "Feature",
      "properties": {},
      "geometry": {
        "type": "Polygon",
        "coordinates": [
          [
            [
              -4.088244438171387,
              40.92246294942589
            ],
            [
              -4.088244438171387,
              40.956793895951094
            ],
            [
              -4.133262634277344,
              40.956793895951094
            ],
            [
              -4.133262634277344,
              40.92246294942589
            ],
            [
              -4.088244438171387,
              40.92246294942589
            ]
          ],
          [
            [
              -4.124318621805962,
              40.9500721559187
            ],
            [
              -4.124440320019425,
              40.95024391273247
            ],
            [
              -4.124422608006501,
              40.95092149720336
            ],
            [
              -4.123839645410081,
              40.95137322018396
            ],
            [
              -4.122827953060731,
              40.95158210685542
            ],
            [
              -4.121933551813593,
              40.95157862351219
            ],
            [
              -4.1213202470023305,
              40.95114735869366
            ],
            [
              -4.121254380079349,
              40.95046977422277
            ],
            [
              -4.121467066708086,
              40.950018051242175
            ],
            [
              -4.12145109741851,
              40.94934046677128
            ],
            [
              -4.1219641280434605,
              40.94888874379068
            ],
            [
              -4.123157564028206,
              40.94888874379068
            ],
            [
              -4.124318621805962,
              40.9500721559187
            ]
          ],
          [
            [
              -4.122827953060731,
              40.94727159714629
            ],
            [
              -4.122878493763116,
              40.9479852978295
            ],
            [
              -4.122231685562639,
              40.94850266970987
            ],
            [
              -4.1213372843155005,
              40.94850811188999
            ],
            [
              -4.120650466704222,
              40.9479852978295
            ],
            [
              -4.120675188205737,
              40.947307713358605
            ],
            [
              -4.1213372843155005,
              40.94683023996246
            ],
            [
              -4.122231685562639,
              40.94684248606988
            ],
            [
              -4.122827953060731,
              40.94727159714629
            ]
          ],
          [
            [
              -4.117163411828856,
              40.93892421998765
            ],
            [
              -4.11718106749743,
              40.93962842268849
            ],
            [
              -4.116567144330764,
              40.940108946141805
            ],
            [
              -4.115672743083626,
              40.94013414841297
            ],
            [
              -4.114977263773106,
              40.93962842268849
            ],
            [
              -4.114976911316166,
              40.9389508382176
            ],
            [
              -4.115672743083626,
              40.9384444585206
            ],
            [
              -4.116567144330764,
              40.938469666147526
            ],
            [
              -4.117163411828856,
              40.93892421998765
            ]
          ],
          [
            [
              -4.11000820185175,
              40.9386024451116
            ],
            [
              -4.110266736672397,
              40.9389508382176
            ],
            [
              -4.110266736672397,
              40.93940256119819
            ],
            [
              -4.109710068102704,
              40.93997694299637
            ],
            [
              -4.108815666855565,
              40.940065873825674
            ],
            [
              -4.108079956770705,
              40.93962842268849
            ],
            [
              -4.1079775829749146,
              40.9389508382176
            ],
            [
              -4.10851753310652,
              40.938424050200084
            ],
            [
              -4.109411934353658,
              40.93832839555612
            ],
            [
              -4.11000820185175,
              40.9386024451116
            ]
          ],
          [
            [
              -4.106728730612243,
              40.9536280586666
            ],
            [
              -4.106812555827759,
              40.95430941955782
            ],
            [
              -4.106132463114151,
              40.95487486049698
            ],
            [
              -4.105238061867013,
              40.95488142797065
            ],
            [
              -4.104536947248661,
              40.95430941955782
            ],
            [
              -4.104618124564402,
              40.95363183508693
            ],
            [
              -4.105238061867013,
              40.953209687837415
            ],
            [
              -4.106132463114151,
              40.9532163172719
            ],
            [
              -4.106728730612243,
              40.9536280586666
            ]
          ],
          [
            [
              -4.097486584391815,
              40.93071326627739
            ],
            [
              -4.097579670477201,
              40.93149740903779
            ],
            [
              -4.096890316893723,
              40.93201314844618
            ],
            [
              -4.095995915646585,
              40.93199610449971
            ],
            [
              -4.095361581964332,
              40.93149740903779
            ],
            [
              -4.0953760946298425,
              40.930819824566896
            ],
            [
              -4.095995915646585,
              40.93034791413131
            ],
            [
              -4.096890316893723,
              40.93033100057797
            ],
            [
              -4.097486584391815,
              40.93071326627739
            ]
          ],
          [
            [
              -4.094803380650401,
              40.926032166340455
            ],
            [
              -4.095044050285575,
              40.92630259476095
            ],
            [
              -4.095061400396812,
              40.92698017923184
            ],
            [
              -4.094549243818004,
              40.92743190221243
            ],
            [
              -4.093610845654216,
              40.92751830071657
            ],
            [
              -4.093014578156124,
              40.92721140500842
            ],
            [
              -4.0928417975436755,
              40.92698017923184
            ],
            [
              -4.092859011454197,
              40.92630259476095
            ],
            [
              -4.0933127119051695,
              40.92590005591944
            ],
            [
              -4.094207113152308,
              40.92579575292833
            ],
            [
              -4.094803380650401,
              40.926032166340455
            ]
          ]
        ]
      }
    }
  ]
}