{
  "type": "FeatureCollection",
  "features": [
    {
      "type": "Feature",
      "properties": {},
      "geometry": {
        "type": "MultiPolygon",
        "coordinates": [
          [
            [
              [
                -4.088244438171387,
                40.92246294942589
              ],
              [
                -4.088244438171387,
                40.956793895951094
              ],
              [
                -4.108964148265695,
                40.956793895951094
              ],
              [
                -4.109050862648831,
                40.9563421729705
              ],
              [
                -4.109242588637852,
                40.9561163114802
              ],
              [
                -4.11000820185175,
                40.95585683944278
              ],
              [
                -4.110604469349842,
                40.955866806765435
              ],
              [
                -4.110902603098888,
                40.956013416853
              ],
              [
                -4.1112327711023315,
                40.9563421729705
              ],
              [
                -4.111319070976208,
                40.956793895951094
              ],
              [
                -4.133262634277344,
                40.956793895951094
              ],
              [
                -4.133262634277344,
                40.95527303426538
              ],
              [
                -4.132368233030205,
                40.95513119193446
              ],
              [
                -4.131954480767179,
                40.954761142538416
              ],
              [
                -4.131919299719742,
                40.95453528104812
              ],
              [
                -4.131919299719742,
                40.95408355806752
              ],
              [
                -4.132078449554933,
                40.95385769657723
              ],
              [
                -4.132666366779252,
                40.95353629216091
              ],
              [
                -4.133262634277344,
                40.95350724947516
              ],
              [
                -4.133262634277344,
                40.92246294942589
              ],
              [
                -4.088244438171387,
                40.92246294942589
              ]
            ],
            [
              [
                -4.132666366779252,
                40.95128279870161
              ],
              [
                -4.1328868042346105,
                40.95159908167425
              ],
              [
                -4.1328868042346105,
                40.952050804654846
              ],
              [
                -4.132368233030205,
                40.952604601246684
              ],
              [
                -4.13207009928116,
                40.95270646691203
              ],
              [
                -4.1311756980340215,
                40.95263200490131
              ],
              [
                -4.13059494814203,
                40.952050804654846
              ],
              [
                -4.13059494814203,
                40.95159908167425
              ],
              [
                -4.1311756980340215,
                40.95105266494849
              ],
              [
                -4.13207009928116,
                40.950978577160356
              ],
              [
                -4.132666366779252,
                40.95128279870161
              ]
            ],
            [
              [
                -4.129983163037837,
                40.95169970426904
              ],
              [
                -4.129992302528161,
                40.952502527635446
              ],
              [
                -4.129386895539745,
                40.95293065201682
              ],
              [
                -4.1284924942926065,
                40.95293893724534
              ],
              [
                -4.127861229770724,
                40.952502527635446
              ],
              [
                -4.127794371621053,
                40.95182494316455
              ],
              [
                -4.1284924942926065,
                40.95126535845452
              ],
              [
                -4.129386895539745,
                40.951273541693816
              ],
              [
                -4.129983163037837,
                40.95169970426904
              ]
            ],
            [
              [
                -4.129088761790698,
                40.954516549035446
              ],
              [
                -4.1289714423150725,
                40.95521286551901
              ],
              [
                -4.128194360543561,
                40.95561902535571
              ],
              [
                -4.127299959296423,
                40.955512843263826
              ],
              [
                -4.126794455993862,
                40.954987004028716
              ],
              [
                -4.126916923817795,
                40.95430941955782
              ],
              [
                -4.127598093045468,
                40.953899750941474
              ],
              [
                -4.1284924942926065,
                40.95396214867735
              ],
              [
                -4.129088761790698,
                40.954516549035446
              ]
            ],
            [
              [
                -4.128194360543561,
                40.94968307711476
              ],
              [
                -4.1283719570888415,
                40.950018051242175
              ],
              [
                -4.1283719570888415,
                40.95046977422277
              ],
              [
                -4.128232369639106,
                40.95069563571307
              ],
              [
                -4.127387530281504,
                40.95114735869366
              ],
              [
                -4.12670369179833,
                40.95175833303273
              ],
              [
                -4.125511156802146,
                40.95170689326267
              ],
              [
                -4.124914889304054,
                40.95204921475901
              ],
              [
                -4.122827953060731,
                40.95191930377557
              ],
              [
                -4.122231685562639,
                40.951574981143104
              ],
              [
                -4.121635418064547,
                40.9515172836002
              ],
              [
                -4.121039150566455,
                40.95177460862093
              ],
              [
                -4.120442883068363,
                40.95177460862093
              ],
              [
                -4.118952214323132,
                40.950963654318784
              ],
              [
                -4.118057813075994,
                40.95087417538443
              ],
              [
                -4.117461545577902,
                40.95065524915579
              ],
              [
                -4.117113931570795,
                40.95024391273247
              ],
              [
                -4.117113931570795,
                40.949792189751875
              ],
              [
                -4.117430008644876,
                40.94934046677128
              ],
              [
                -4.11686527807981,
                40.94884007259198
              ],
              [
                -4.116269010581718,
                40.94879149115362
              ],
              [
                -4.114778341836487,
                40.94931102120793
              ],
              [
                -4.1141820743383954,
                40.94931102120793
              ],
              [
                -4.113716705572394,
                40.94911460528098
              ],
              [
                -4.113355528191223,
                40.94866288230039
              ],
              [
                -4.113355528191223,
                40.9482111593198
              ],
              [
                -4.114011393076091,
                40.947533574848904
              ],
              [
                -4.113376831931771,
                40.947081851868305
              ],
              [
                -4.113433192470702,
                40.94640426739741
              ],
              [
                -4.113962005671104,
                40.94595254441682
              ],
              [
                -4.114778341836487,
                40.94587664302331
              ],
              [
                -4.116269010581718,
                40.946553377876604
              ],
              [
                -4.117163411828856,
                40.946506569960945
              ],
              [
                -4.117952133801994,
                40.94595254441682
              ],
              [
                -4.118238613086435,
                40.94527495994593
              ],
              [
                -4.1182710768098545,
                40.94504909845563
              ],
              [
                -4.117759679326948,
                40.944746802518225
              ],
              [
                -4.11748488320032,
                40.94437151398474
              ],
              [
                -4.117608399854341,
                40.94369392951385
              ],
              [
                -4.11835594682504,
                40.9432701197951
              ],
              [
                -4.11984661557027,
                40.94315317524547
              ],
              [
                -4.120442883068363,
                40.943535659331175
              ],
              [
                -4.1213372843155005,
                40.94366231576991
              ],
              [
                -4.122529819311685,
                40.944147601987964
              ],
              [
                -4.1229516743534935,
                40.944597375475034
              ],
              [
                -4.123126086809777,
                40.94514872042635
              ],
              [
                -4.124020488056916,
                40.94531596573339
              ],
              [
                -4.124672947775221,
                40.94572668292652
              ],
              [
                -4.124783378773603,
                40.94640426739741
              ],
              [
                -4.124181063741682,
                40.947081851868305
              ],
              [
                -4.123722354307869,
                40.94733968751753
              ],
              [
                -4.122827953060731,
                40.94737068622338
              ],
              [
                -4.122634050661948,
                40.947533574848904
              ],
              [
                -4.123126086809777,
                40.947947444835485
              ],
              [
                -4.12399790862567,
                40.9482111593198
              ],
              [
                -4.124318621805962,
                40.948622875779776
              ],
              [
                -4.125511156802146,
                40.94876225945499
              ],
              [
                -4.125915744126014,
                40.94911460528098
              ],
              [
                -4.126107424300238,
                40.94987463704413
              ],
              [
                -4.1263867027783085,
                40.949566328261575
              ],
              [
                -4.127001825547376,
                40.94935078470413
              ],
              [
                -4.127598093045468,
                40.94935078470413
              ],
              [
                -4.128194360543561,
                40.94968307711476
              ]
            ],
            [
              [
                -4.11984661557027,
                40.95240393458442
              ],
              [
                -4.120071144305879,
                40.95272838912574
              ],
              [
                -4.120071144305879,
                40.95318011210634
              ],
              [
                -4.119548481821225,
                40.95372765504842
              ],
              [
                -4.117759679326948,
                40.95387931134666
              ],
              [
                -4.117163411828856,
                40.95364614598415
              ],
              [
                -4.116941609986571,
                40.95340597359663
              ],
              [
                -4.116887222407118,
                40.95272838912574
              ],
              [
                -4.117461545577902,
                40.95222254395022
              ],
              [
                -4.119250348072178,
                40.95210052047177
              ],
              [
                -4.11984661557027,
                40.95240393458442
              ]
            ],
            [
              [
                -4.11835594682504,
                40.94129341459784
              ],
              [
                -4.118503272879138,
                40.94211289908176
              ],
              [
                -4.118343790794812,
                40.94233876057206
              ],
              [
                -4.117759679326948,
                40.94265909892207
              ],
              [
                -4.11686527807981,
                40.94266450613228
              ],
              [
                -4.1164959202509515,
                40.943016345042956
              ],
              [
                -4.1167268942052,
                40.94346806802355
              ],
              [
                -4.1167268942052,
                40.94391979100414
              ],
              [
                -4.116567144330764,
                40.94414644872285
              ],
              [
                -4.115970876832671,
                40.94446873628588
              ],
              [
                -4.115076475585533,
                40.94441602156799
              ],
              [
                -4.11465408180999,
                40.94414565249444
              ],
              [
                -4.114324077949028,
                40.94369392951385
              ],
              [
                -4.113508027142161,
                40.94324220653325
              ],
              [
                -4.113287673091257,
                40.94245168076105
              ],
              [
                -4.112389928299526,
                40.94211289908176
              ],
              [
                -4.112194237819093,
                40.941887037591464
              ],
              [
                -4.112152500007852,
                40.94120945312058
              ],
              [
                -4.112691405593165,
                40.94053281786959
              ],
              [
                -4.112989539342211,
                40.94036643886866
              ],
              [
                -4.113883940589349,
                40.94029947687073
              ],
              [
                -4.114480208087441,
                40.940613412318804
              ],
              [
                -4.11547037492721,
                40.940306007159386
              ],
              [
                -4.113883940589349,
                40.93963139227269
              ],
              [
                -4.112989539342211,
                40.93972333534891
              ],
              [
                -4.112683531775637,
                40.93962842268849
              ],
              [
                -4.112176439643297,
                40.9391766997079
              ],
              [
                -4.112095138095072,
                40.938387220562156
              ],
              [
                -4.111200736847934,
                40.93877855582975
              ],
              [
                -4.110255675377031,
                40.9387249767273
              ],
              [
                -4.109705127656541,
                40.93827325374671
              ],
              [
                -4.1097011384384885,
                40.937595669275815
              ],
              [
                -4.110902603098888,
                40.936614139453354
              ],
              [
                -4.11149887059698,
                40.93632322042669
              ],
              [
                -4.112393271844119,
                40.93640822372235
              ],
              [
                -4.112989539342211,
                40.93685591660229
              ],
              [
                -4.113585806840303,
                40.93657122319457
              ],
              [
                -4.114480208087441,
                40.93666065698649
              ],
              [
                -4.115012089970555,
                40.93714394629522
              ],
              [
                -4.114965425058117,
                40.937821530766115
              ],
              [
                -4.115123109218589,
                40.93804739225641
              ],
              [
                -4.116588017073197,
                40.9387249767273
              ],
              [
                -4.117127779921952,
                40.9391766997079
              ],
              [
                -4.117128788467445,
                40.93985428417879
              ],
              [
                -4.116591885584714,
                40.940306007159386
              ],
              [
                -4.117163411828856,
                40.94086303762704
              ],
              [
                -4.117850540913756,
                40.94098359163028
              ],
              [
                -4.11835594682504,
                40.94129341459784
              ]
            ],
            [
              [
                -4.114480208087441,
                40.95225550825306
              ],
              [
                -4.114749221947965,
                40.95272838912574
              ],
              [
                -4.114749221947965,
                40.95318011210634
              ],
              [
                -4.1141820743383954,
                40.953728592653945
              ],
              [
                -4.112989539342211,
                40.95385733096524
              ],
              [
                -4.11244178915389,
                40.95318011210634
              ],
              [
                -4.112355171979685,
                40.952502527635446
              ],
              [
                -4.112989539342211,
                40.95194672166028
              ],
              [
                -4.113883940589349,
                40.95190972484313
              ],
              [
                -4.114480208087441,
                40.95225550825306
              ]
            ],
            [
              [
                -4.113883940589349,
                40.94978819308263
              ],
              [
                -4.113788975294375,
                40.95046977422277
              ],
              [
                -4.112989539342211,
                40.95090296047975
              ],
              [
                -4.112095138095072,
                40.95079569991056
              ],
              [
                -4.111600276568573,
                40.95024391273247
              ],
              [
                -4.111735348616252,
                40.949566328261575
              ],
              [
                -4.112393271844119,
                40.94918440863073
              ],
              [
                -4.113287673091257,
                40.94924546096004
              ],
              [
                -4.113883940589349,
                40.94978819308263
              ]
            ],
            [
              [
                -4.113585806840303,
                40.95416907375729
              ],
              [
                -4.113788597498836,
                40.95453528104812
              ],
              [
                -4.113788597498836,
                40.954987004028716
              ],
              [
                -4.113585806840303,
                40.95527333287733
              ],
              [
                -4.112989539342211,
                40.95558218323106
              ],
              [
                -4.110604469349842,
                40.95551037405789
              ],
              [
                -4.11000820185175,
                40.95498861614489
              ],
              [
                -4.109113800604612,
                40.95552885397877
              ],
              [
                -4.108219399357473,
                40.95553559786242
              ],
              [
                -4.1073843877056175,
                40.95521286551901
              ],
              [
                -4.106972355227026,
                40.95453528104812
              ],
              [
                -4.106972355227026,
                40.95408355806752
              ],
              [
                -4.107324998110335,
                40.953680560351
              ],
              [
                -4.109113800604612,
                40.95316154013951
              ],
              [
                -4.11000820185175,
                40.95327535763257
              ],
              [
                -4.110604469349842,
                40.95390597847217
              ],
              [
                -4.112989539342211,
                40.953857821732335
              ],
              [
                -4.113585806840303,
                40.95416907375729
              ]
            ],
            [
              [
                -4.112989539342211,
                40.946506695474476
              ],
              [
                -4.113168166665309,
                40.94663012888771
              ],
              [
                -4.113229310024378,
                40.947307713358605
              ],
              [
                -4.112691405593165,
                40.94784780136381
              ],
              [
                -4.112393271844119,
                40.94794582844718
              ],
              [
                -4.11149887059698,
                40.947862643698166
              ],
              [
                -4.110855170455553,
                40.947307713358605
              ],
              [
                -4.110910861991542,
                40.94663012888771
              ],
              [
                -4.11149887059698,
                40.946199651643106
              ],
              [
                -4.112393271844119,
                40.9461764522884
              ],
              [
                -4.112989539342211,
                40.946506695474476
              ]
            ],
            [
              [
                -4.11149887059698,
                40.93407939393485
              ],
              [
                -4.111705381247502,
                40.93443360841165
              ],
              [
                -4.111568192756124,
                40.935111192882545
              ],
              [
                -4.110902603098888,
                40.935491480830265
              ],
              [
                -4.11000820185175,
                40.93542307229708
              ],
              [
                -4.109765651810053,
                40.93556291586314
              ],
              [
                -4.109890169060188,
                40.93624050033403
              ],
              [
                -4.109568535726633,
                40.93669222331463
              ],
              [
                -4.109113800604612,
                40.93690057594648
              ],
              [
                -4.10851753310652,
                40.93690057594648
              ],
              [
                -4.107924005311744,
                40.93669222331463
              ],
              [
                -4.107700294882372,
                40.93646636182433
              ],
              [
                -4.107608545482998,
                40.93578877735344
              ],
              [
                -4.107921265608428,
                40.935403105537894
              ],
              [
                -4.10851753310652,
                40.9351890651896
              ],
              [
                -4.109411934353658,
                40.93527950275488
              ],
              [
                -4.109562570593468,
                40.935111192882545
              ],
              [
                -4.109411934353658,
                40.93487536395945
              ],
              [
                -4.108815666855565,
                40.934592540110216
              ],
              [
                -4.108517992839802,
                40.93420774692136
              ],
              [
                -4.108517992839802,
                40.93375602394076
              ],
              [
                -4.10886511970076,
                40.93330430096017
              ],
              [
                -4.109411934353658,
                40.93310629221824
              ],
              [
                -4.11000820185175,
                40.93310629221824
              ],
              [
                -4.11149887059698,
                40.93407939393485
              ]
            ],
            [
              [
                -4.104939928117966,
                40.944880685683856
              ],
              [
                -4.105016478824473,
                40.94550082143623
              ],
              [
                -4.104343660619874,
                40.94608333510145
              ],
              [
                -4.103449259372736,
                40.94609985902442
              ],
              [
                -4.103114585292935,
                40.94595254441682
              ],
              [
                -4.102723713683085,
                40.94550082143623
              ],
              [
                -4.10282947081708,
                40.944823236965334
              ],
              [
                -4.103449259372736,
                40.94441893846497
              ],
              [
                -4.104343660619874,
                40.944435527997555
              ],
              [
                -4.104939928117966,
                40.944880685683856
              ]
            ],
            [
              [
                -4.101064189380367,
                40.92840652732241
              ],
              [
                -4.101190936542429,
                40.92856120966392
              ],
              [
                -4.101235567851563,
                40.92923879413481
              ],
              [
                -4.101064189380367,
                40.9294803600652
              ],
              [
                -4.1004679218822755,
                40.92979869481813
              ],
              [
                -4.099573520635137,
                40.929741200453414
              ],
              [
                -4.098977253137045,
                40.929351841632275
              ],
              [
                -4.098380985638953,
                40.929642723845355
              ],
              [
                -4.097784718140861,
                40.929642723845355
              ],
              [
                -4.0971884506427685,
                40.92937173933409
              ],
              [
                -4.096924133010904,
                40.92901293264452
              ],
              [
                -4.097035601375088,
                40.928335348173626
              ],
              [
                -4.097784718140861,
                40.92790651288327
              ],
              [
                -4.098380985638953,
                40.92790651288327
              ],
              [
                -4.099275386886092,
                40.92830435757919
              ],
              [
                -4.099724756812073,
                40.928109486683326
              ],
              [
                -4.1004679218822755,
                40.92808248093691
              ],
              [
                -4.101064189380367,
                40.92840652732241
              ]
            ],
            [
              [
                -4.101064189380367,
                40.93262620130602
              ],
              [
                -4.101197073330028,
                40.93330430096017
              ],
              [
                -4.101076033453155,
                40.93398188543106
              ],
              [
                -4.100766055631322,
                40.934442703311795
              ],
              [
                -4.10016978813323,
                40.93468657955434
              ],
              [
                -4.099573520635137,
                40.93468657955434
              ],
              [
                -4.098830398639222,
                40.93420774692136
              ],
              [
                -4.098779845232249,
                40.93353016245047
              ],
              [
                -4.098910856658373,
                40.932852577979574
              ],
              [
                -4.099275386886092,
                40.932423503028865
              ],
              [
                -4.099573520635137,
                40.93228052222312
              ],
              [
                -4.1004679218822755,
                40.93225969375256
              ],
              [
                -4.101064189380367,
                40.93262620130602
              ]
            ],
            [
              [
                -4.0971884506427685,
                40.93040036956819
              ],
              [
                -4.09741567991227,
                40.930819824566896
              ],
              [
                -4.097396838157871,
                40.93194913201838
              ],
              [
                -4.096929958582977,
                40.932400854998974
              ],
              [
                -4.0965921831446765,
                40.932518939308956
              ],
              [
                -4.095697781897538,
                40.93243894383348
              ],
              [
                -4.095101514399446,
                40.932119724665796
              ],
              [
                -4.094718611712514,
                40.93172327052808
              ],
              [
                -4.094751285160993,
                40.93104568605719
              ],
              [
                -4.095697781897538,
                40.93020608040122
              ],
              [
                -4.0965921831446765,
                40.9301158842256
              ],
              [
                -4.0971884506427685,
                40.93040036956819
              ]
            ],
            [
              [
                -4.092418310658032,
                40.931790244329136
              ],
              [
                -4.092705434548029,
                40.93217499350868
              ],
              [
                -4.092705434548029,
                40.932626716489274
              ],
              [
                -4.092120176908986,
                40.93319339409479
              ],
              [
                -4.091225775661847,
                40.933268007620256
              ],
              [
                -4.0907750782591075,
                40.93307843946987
              ],
              [
                -4.090403783249802,
                40.932626716489274
              ],
              [
                -4.090403783249802,
                40.93217499350868
              ],
              [
                -4.090927641912802,
                40.93164147652907
              ],
              [
                -4.091822043159939,
                40.931540036794296
              ],
              [
                -4.092418310658032,
                40.931790244329136
              ]
            ]
          ],
          [
            [
              [
                -4.119122085322889,
                40.94888874379068
              ],
              [
                -4.1185249053472095,
                40.94911460528098
              ],
              [
                -4.119250348072178,
                40.94924219434573
              ],
              [
                -4.119439245746642,
                40.94888874379068
              ],
              [
                -4.119122085322889,
                40.94888874379068
              ]
            ]
          ],
          [
            [
              [
                -4.112661079434714,
                40.937821530766115
              ],
              [
                -4.11260882329552,
                40.93804739225641
              ],
              [
                -4.112691405593165,
                40.93807543383446
              ],
              [
                -4.112772555832478,
                40.93804739225641
              ],
              [
                -4.112729995752103,
                40.937821530766115
              ],
              [
                -4.112691405593165,
                40.93779223922187
              ],
              [
                -4.112661079434714,
                40.937821530766115
              ]
            ]
          ],
          [
            [
              [
                -4.1095190681860885,
                40.935337054372845
              ],
              [
                -4.109710068102704,
                40.93548891511086
              ],
              [
                -4.109839245003298,
                40.935337054372845
              ],
              [
                -4.1095190681860885,
                40.935337054372845
              ]
            ]
          ]
        ]
      }
    }
  ]
}