{
  "type": "FeatureCollection",
  "features": [
    {
      "type": "Feature",
      "properties": {},
      "geometry": {
        "type": "MultiPolygon",
        "coordinates": [
          [
            [
              [
                -4.088244438171387,
                40.92246294942589
              ],
              [
                -4.088244438171387,
                40.95135987430944
              ],
              [
                -4.089138839418525,
                40.95159605686838
              ],
              [
                -4.089450039783559,
                40.952050804654846
              ],
              [
                -4.089450039783559,
                40.952502527635446
              ],
              [
                -4.089138839418525,
                40.95288348268421
              ],
              [
                -4.088244438171387,
                40.95312373860217
              ],
              [
                -4.088244438171387,
                40.956793895951094
              ],
              [
                -4.106007065536608,
                40.956793895951094
              ],
              [
                -4.106051455726376,
                40.9563421729705
              ],
              [
                -4.106577126972391,
                40.95566458849961
              ],
              [
                -4.107324998110335,
                40.95538559883449
              ],
              [
                -4.107921265608428,
                40.95538559883449
              ],
              [
                -4.10851753310652,
                40.95576735002755
              ],
              [
                -4.108602528989267,
                40.956568034460794
              ],
              [
                -4.108429123124055,
                40.956793895951094
              ],
              [
                -4.133262634277344,
                40.956793895951094
              ],
              [
                -4.133262634277344,
                40.956160365089865
              ],
              [
                -4.132666366779252,
                40.95648078020078
              ],
              [
                -4.13207009928116,
                40.95648078020078
              ],
              [
                -4.131473831783067,
                40.956256434007074
              ],
              [
                -4.131175448412704,
                40.9558904499899
              ],
              [
                -4.131254315583473,
                40.95521286551901
              ],
              [
                -4.1317719655321135,
                40.954822859723265
              ],
              [
                -4.132666366779252,
                40.954764197269434
              ],
              [
                -4.133262634277344,
                40.95508859458984
              ],
              [
                -4.133262634277344,
                40.92246294942589
              ],
              [
                -4.088244438171387,
                40.92246294942589
              ]
            ],
            [
              [
                -4.132368233030205,
                40.9511880718476
              ],
              [
                -4.132651110822316,
                40.95159908167425
              ],
              [
                -4.132651110822316,
                40.952050804654846
              ],
              [
                -4.13207009928116,
                40.952594996394104
              ],
              [
                -4.1311756980340215,
                40.952668222655184
              ],
              [
                -4.130763169380705,
                40.952502527635446
              ],
              [
                -4.130361360127096,
                40.952050804654846
              ],
              [
                -4.130463514411265,
                40.95137322018396
              ],
              [
                -4.130877564284975,
                40.95104314126616
              ],
              [
                -4.1317719655321135,
                40.95094089496967
              ],
              [
                -4.132368233030205,
                40.9511880718476
              ]
            ],
            [
              [
                -4.129685029288791,
                40.95356744382572
              ],
              [
                -4.129904864328927,
                40.95385769657723
              ],
              [
                -4.129904864328927,
                40.95430941955782
              ],
              [
                -4.1298475138630115,
                40.95453528104812
              ],
              [
                -4.129386895539745,
                40.95491478040288
              ],
              [
                -4.1284924942926065,
                40.95501220441143
              ],
              [
                -4.1277066331513605,
                40.95453528104812
              ],
              [
                -4.127649129746189,
                40.95385769657723
              ],
              [
                -4.128194360543561,
                40.95336122894015
              ],
              [
                -4.129088761790698,
                40.95327694678536
              ],
              [
                -4.129685029288791,
                40.95356744382572
              ]
            ],
            [
              [
                -4.128194360543561,
                40.95066994612467
              ],
              [
                -4.128205624758848,
                40.95137322018396
              ],
              [
                -4.1280219479803595,
                40.95159908167425
              ],
              [
                -4.127598093045468,
                40.95191446105635
              ],
              [
                -4.127001825547376,
                40.95206326580217
              ],
              [
                -4.126107424300238,
                40.95202469886554
              ],
              [
                -4.125653417235854,
                40.95182494316455
              ],
              [
                -4.125308624255895,
                40.95137322018396
              ],
              [
                -4.125351283462735,
                40.95069563571307
              ],
              [
                -4.1252130230530994,
                40.95064309134113
              ],
              [
                -4.1246167555550075,
                40.950975670550434
              ],
              [
                -4.123126086809777,
                40.95137084610366
              ],
              [
                -4.121039150566455,
                40.95130923002911
              ],
              [
                -4.120442883068363,
                40.95095209572754
              ],
              [
                -4.11984661557027,
                40.951231358649444
              ],
              [
                -4.119250348072178,
                40.951231358649444
              ],
              [
                -4.1185052887086995,
                40.95092149720336
              ],
              [
                -4.118338415801861,
                40.95069563571307
              ],
              [
                -4.11835594682504,
                40.950099892064955
              ],
              [
                -4.118654080574086,
                40.949720713955685
              ],
              [
                -4.118952214323132,
                40.949567585444505
              ],
              [
                -4.11984661557027,
                40.949534058439816
              ],
              [
                -4.120442883068363,
                40.94989026552795
              ],
              [
                -4.121185709539475,
                40.949566328261575
              ],
              [
                -4.121131949640835,
                40.94934046677128
              ],
              [
                -4.120144749319317,
                40.94877038206846
              ],
              [
                -4.118057813075994,
                40.948733249529674
              ],
              [
                -4.11634362079683,
                40.947533574848904
              ],
              [
                -4.116252777922435,
                40.94685599037801
              ],
              [
                -4.116506533920506,
                40.94640426739741
              ],
              [
                -4.116122853171508,
                40.94595254441682
              ],
              [
                -4.116236908818574,
                40.94527495994593
              ],
              [
                -4.115374609334579,
                40.94460084767387
              ],
              [
                -4.114839055122073,
                40.94369392951385
              ],
              [
                -4.1141820743383954,
                40.943540861372476
              ],
              [
                -4.113760658853227,
                40.94324220653325
              ],
              [
                -4.113099172175909,
                40.94211289908176
              ],
              [
                -4.113228976938924,
                40.94143531461087
              ],
              [
                -4.113817003838641,
                40.94098359163028
              ],
              [
                -4.113915134389303,
                40.940306007159386
              ],
              [
                -4.113403839252165,
                40.93940256119819
              ],
              [
                -4.113427780114009,
                40.9387249767273
              ],
              [
                -4.113790488518152,
                40.93827325374671
              ],
              [
                -4.113287673091257,
                40.937906158493135
              ],
              [
                -4.112989539342211,
                40.93794760719318
              ],
              [
                -4.112743227977658,
                40.93849911523701
              ],
              [
                -4.112393271844119,
                40.93881641448167
              ],
              [
                -4.112095138095072,
                40.938943125774976
              ],
              [
                -4.111200736847934,
                40.93892517741385
              ],
              [
                -4.11000820185175,
                40.938524136725746
              ],
              [
                -4.109411934353658,
                40.93799793497593
              ],
              [
                -4.10851753310652,
                40.93796021172936
              ],
              [
                -4.10823803664587,
                40.937821530766115
              ],
              [
                -4.1078743098046955,
                40.93736980778552
              ],
              [
                -4.107921265608428,
                40.936580141369994
              ],
              [
                -4.1070268643612895,
                40.93651635106548
              ],
              [
                -4.106549630652726,
                40.93624050033403
              ],
              [
                -4.106374988139598,
                40.93601463884374
              ],
              [
                -4.106430596863198,
                40.93527434649958
              ],
              [
                -4.106952669718617,
                40.934885331392245
              ],
              [
                -4.107623131859381,
                40.93481573644536
              ],
              [
                -4.107765214466171,
                40.93465946990195
              ],
              [
                -4.106685030943033,
                40.93398188543106
              ],
              [
                -4.106615379068939,
                40.93330430096017
              ],
              [
                -4.106992342527215,
                40.932626716489274
              ],
              [
                -4.107623131859381,
                40.93231607695215
              ],
              [
                -4.10851753310652,
                40.93240719720437
              ],
              [
                -4.109411934353658,
                40.93306372365789
              ],
              [
                -4.109710068102704,
                40.933733288325676
              ],
              [
                -4.11000820185175,
                40.933935798463764
              ],
              [
                -4.110604469349842,
                40.93375338354066
              ],
              [
                -4.11149887059698,
                40.933873787739955
              ],
              [
                -4.11187377497191,
                40.93420774692136
              ],
              [
                -4.11199822612415,
                40.93465946990195
              ],
              [
                -4.112691405593165,
                40.9350788699666
              ],
              [
                -4.1128741799329696,
                40.934885331392245
              ],
              [
                -4.112732363089318,
                40.93465946990195
              ],
              [
                -4.112732363089318,
                40.93420774692136
              ],
              [
                -4.113038476429153,
                40.93375602394076
              ],
              [
                -4.113585806840303,
                40.9335284029263
              ],
              [
                -4.1141820743383954,
                40.9335284029263
              ],
              [
                -4.114778341836487,
                40.93382053465589
              ],
              [
                -4.115007831254302,
                40.93420774692136
              ],
              [
                -4.115007831254302,
                40.93465946990195
              ],
              [
                -4.114583854299088,
                40.935111192882545
              ],
              [
                -4.1141820743383954,
                40.93526371968497
              ],
              [
                -4.113585806840303,
                40.93526371968497
              ],
              [
                -4.112989539342211,
                40.93499554564845
              ],
              [
                -4.112751447252521,
                40.935111192882545
              ],
              [
                -4.112989539342211,
                40.93545193898873
              ],
              [
                -4.113736065158167,
                40.93578877735344
              ],
              [
                -4.11404404291589,
                40.93624050033403
              ],
              [
                -4.114778341836487,
                40.936509411874454
              ],
              [
                -4.115577143426802,
                40.93714394629522
              ],
              [
                -4.115681046899309,
                40.937821530766115
              ],
              [
                -4.115279937791043,
                40.93827325374671
              ],
              [
                -4.115694340233669,
                40.9389508382176
              ],
              [
                -4.1164428166143345,
                40.93962842268849
              ],
              [
                -4.1165415530863605,
                40.93985428417879
              ],
              [
                -4.116455860041239,
                40.94075773013998
              ],
              [
                -4.116567144330764,
                40.9409839616104
              ],
              [
                -4.11686527807981,
                40.94113854751576
              ],
              [
                -4.117759679326948,
                40.94053736142304
              ],
              [
                -4.118654080574086,
                40.940522080742625
              ],
              [
                -4.119106737101176,
                40.94075773013998
              ],
              [
                -4.119310292194886,
                40.94098359163028
              ],
              [
                -4.119353986213818,
                40.94166117610117
              ],
              [
                -4.119009568213513,
                40.94233876057206
              ],
              [
                -4.119250348072178,
                40.9425085632437
              ],
              [
                -4.120144749319317,
                40.94258731478476
              ],
              [
                -4.121635418064547,
                40.94331214332567
              ],
              [
                -4.122030666827657,
                40.94391979100414
              ],
              [
                -4.122827953060731,
                40.94436890460225
              ],
              [
                -4.123457123550165,
                40.94504909845563
              ],
              [
                -4.123331126023511,
                40.94572668292652
              ],
              [
                -4.122827953060731,
                40.94607991248944
              ],
              [
                -4.121933551813593,
                40.94612714249855
              ],
              [
                -4.121250689119263,
                40.94595254441682
              ],
              [
                -4.121117547075315,
                40.94617840590712
              ],
              [
                -4.1218243753105615,
                40.94663012888771
              ],
              [
                -4.1218568274212135,
                40.947533574848904
              ],
              [
                -4.122827953060731,
                40.94807348097163
              ],
              [
                -4.123722354307869,
                40.94822604149128
              ],
              [
                -4.125383494753811,
                40.94934046677128
              ],
              [
                -4.1256069528502115,
                40.949792189751875
              ],
              [
                -4.125511156802146,
                40.95057592621479
              ],
              [
                -4.126107424300238,
                40.95030495015058
              ],
              [
                -4.127299959296423,
                40.9501830277234
              ],
              [
                -4.1278962267945145,
                40.950360532335196
              ],
              [
                -4.128194360543561,
                40.95066994612467
              ]
            ],
            [
              [
                -4.120442883068363,
                40.92844888441593
              ],
              [
                -4.120696220278171,
                40.92878707115422
              ],
              [
                -4.120696220278171,
                40.92923879413481
              ],
              [
                -4.120144749319317,
                40.929821214527124
              ],
              [
                -4.119250348072178,
                40.92991127296475
              ],
              [
                -4.118506880827035,
                40.92946465562511
              ],
              [
                -4.118414278437205,
                40.92878707115422
              ],
              [
                -4.118952214323132,
                40.92826824840759
              ],
              [
                -4.11984661557027,
                40.92817311434185
              ],
              [
                -4.120442883068363,
                40.92844888441593
              ]
            ],
            [
              [
                -4.118057813075994,
                40.95215837197632
              ],
              [
                -4.1181554881127465,
                40.95295425061604
              ],
              [
                -4.117461545577902,
                40.9534681634977
              ],
              [
                -4.116567144330764,
                40.953447366785106
              ],
              [
                -4.115940420644808,
                40.95295425061604
              ],
              [
                -4.115951033067494,
                40.952276666145146
              ],
              [
                -4.116567144330764,
                40.95180314224974
              ],
              [
                -4.117461545577902,
                40.95178246207464
              ],
              [
                -4.118057813075994,
                40.95215837197632
              ]
            ],
            [
              [
                -4.117163411828856,
                40.92703231392429
              ],
              [
                -4.117392021531493,
                40.92743190221243
              ],
              [
                -4.117392021531493,
                40.927883625193026
              ],
              [
                -4.117246805087345,
                40.928109486683326
              ],
              [
                -4.116567144330764,
                40.92847942495382
              ],
              [
                -4.115970876832671,
                40.92847942495382
              ],
              [
                -4.115374609334579,
                40.928208168539506
              ],
              [
                -4.115124416996265,
                40.927883625193026
              ],
              [
                -4.115161808639964,
                40.92720604072214
              ],
              [
                -4.1141820743383954,
                40.92709673385863
              ],
              [
                -4.113701165382224,
                40.92675431774154
              ],
              [
                -4.113573383663213,
                40.92607673327065
              ],
              [
                -4.1141820743383954,
                40.92549847974886
              ],
              [
                -4.115076475585533,
                40.92543913967621
              ],
              [
                -4.11575479085523,
                40.925850871780355
              ],
              [
                -4.115970876832671,
                40.926714516914934
              ],
              [
                -4.116567144330764,
                40.926742956298185
              ],
              [
                -4.117163411828856,
                40.92703231392429
              ]
            ],
            [
              [
                -4.113883940589349,
                40.954323415631194
              ],
              [
                -4.11402316768723,
                40.95453528104812
              ],
              [
                -4.1139679305702535,
                40.95521286551901
              ],
              [
                -4.113287673091257,
                40.95567251912159
              ],
              [
                -4.112393271844119,
                40.95563780280865
              ],
              [
                -4.111797004346027,
                40.95590585720241
              ],
              [
                -4.110902603098888,
                40.95596227228058
              ],
              [
                -4.1101536580016615,
                40.95543872700931
              ],
              [
                -4.1101585453444995,
                40.954761142538416
              ],
              [
                -4.110902603098888,
                40.95424648072557
              ],
              [
                -4.111797004346027,
                40.954302751458904
              ],
              [
                -4.112393271844119,
                40.954009247741816
              ],
              [
                -4.113287673091257,
                40.95397480881174
              ],
              [
                -4.113883940589349,
                40.954323415631194
              ]
            ],
            [
              [
                -4.113585806840303,
                40.94965696028344
              ],
              [
                -4.11373562143114,
                40.95046977422277
              ],
              [
                -4.113344166932872,
                40.95092149720336
              ],
              [
                -4.112989539342211,
                40.95109208733783
              ],
              [
                -4.112095138095072,
                40.95109204893302
              ],
              [
                -4.111740625901678,
                40.95092149720336
              ],
              [
                -4.111395999023361,
                40.95046977422277
              ],
              [
                -4.111525086217193,
                40.949792189751875
              ],
              [
                -4.112095138095072,
                40.949360367780066
              ],
              [
                -4.112989539342211,
                40.949315673342845
              ],
              [
                -4.113585806840303,
                40.94965696028344
              ]
            ],
            [
              [
                -4.112393271844119,
                40.92300433291982
              ],
              [
                -4.112393271844119,
                40.92372955326561
              ],
              [
                -4.11190646227262,
                40.92426984134827
              ],
              [
                -4.111674213523576,
                40.92494742581916
              ],
              [
                -4.111200736847934,
                40.92522951544216
              ],
              [
                -4.1103063356007965,
                40.92524411006421
              ],
              [
                -4.11000820185175,
                40.92511683833479
              ],
              [
                -4.109617016867095,
                40.92472156432886
              ],
              [
                -4.109516317671369,
                40.92426984134827
              ],
              [
                -4.109113800604612,
                40.92400673585901
              ],
              [
                -4.108882796874876,
                40.92359225687738
              ],
              [
                -4.108882796874876,
                40.923140533896785
              ],
              [
                -4.10903196131524,
                40.922914672406485
              ],
              [
                -4.109710068102704,
                40.92255194017736
              ],
              [
                -4.110604469349842,
                40.92264040424955
              ],
              [
                -4.110902603098888,
                40.92252362111741
              ],
              [
                -4.111797004346027,
                40.92254692607277
              ],
              [
                -4.112393271844119,
                40.92300433291982
              ]
            ],
            [
              [
                -4.112095138095072,
                40.92965468755159
              ],
              [
                -4.112274889501569,
                40.929916378605704
              ],
              [
                -4.112274889501569,
                40.9303681015863
              ],
              [
                -4.111983965816934,
                40.930819824566896
              ],
              [
                -4.11149887059698,
                40.93105427275041
              ],
              [
                -4.111623732535653,
                40.93217499350868
              ],
              [
                -4.111449213609484,
                40.932400854998974
              ],
              [
                -4.110902603098888,
                40.932693250764196
              ],
              [
                -4.11000820185175,
                40.932654286333474
              ],
              [
                -4.109590154968678,
                40.932400854998974
              ],
              [
                -4.109412984246183,
                40.93217499350868
              ],
              [
                -4.109419945394247,
                40.93149740903779
              ],
              [
                -4.110293708201619,
                40.930819824566896
              ],
              [
                -4.109552646162289,
                40.930142240096
              ],
              [
                -4.109480849209608,
                40.92946465562511
              ],
              [
                -4.109626739281545,
                40.92923879413481
              ],
              [
                -4.1103063356007965,
                40.928870032592684
              ],
              [
                -4.110902603098888,
                40.928870032592684
              ],
              [
                -4.111308361036978,
                40.92901293264452
              ],
              [
                -4.112095138095072,
                40.92965468755159
              ]
            ],
            [
              [
                -4.11149887059698,
                40.94372984155506
              ],
              [
                -4.111661268796634,
                40.94391979100414
              ],
              [
                -4.111711011719406,
                40.944597375475034
              ],
              [
                -4.111200736847934,
                40.94507351902868
              ],
              [
                -4.110902603098888,
                40.945170334332026
              ],
              [
                -4.11000820185175,
                40.94508889044983
              ],
              [
                -4.10946191815763,
                40.944597375475034
              ],
              [
                -4.109511834382665,
                40.94391979100414
              ],
              [
                -4.11000820185175,
                40.943519275750646
              ],
              [
                -4.110902603098888,
                40.943436944011616
              ],
              [
                -4.11149887059698,
                40.94372984155506
              ]
            ],
            [
              [
                -4.110902603098888,
                40.92623157493436
              ],
              [
                -4.111166000815302,
                40.92652845625125
              ],
              [
                -4.111163303196064,
                40.92720604072214
              ],
              [
                -4.110621347513616,
                40.92765776370273
              ],
              [
                -4.109710068102704,
                40.92772323323396
              ],
              [
                -4.108963000258445,
                40.92720604072214
              ],
              [
                -4.10896032943451,
                40.92652845625125
              ],
              [
                -4.109411934353658,
                40.92611345935067
              ],
              [
                -4.1103063356007965,
                40.926006393676026
              ],
              [
                -4.110902603098888,
                40.92623157493436
              ]
            ],
            [
              [
                -4.11000820185175,
                40.95193726666044
              ],
              [
                -4.110302491203087,
                40.952276666145146
              ],
              [
                -4.110302491203087,
                40.95272838912574
              ],
              [
                -4.109981672344604,
                40.95408355806752
              ],
              [
                -4.1096725404667875,
                40.95453528104812
              ],
              [
                -4.109113800604612,
                40.95478606232758
              ],
              [
                -4.107921265608428,
                40.954701536328294
              ],
              [
                -4.1070268643612895,
                40.95481972623349
              ],
              [
                -4.106430596863198,
                40.95463230099139
              ],
              [
                -4.106128307077284,
                40.95430941955782
              ],
              [
                -4.106128708251021,
                40.95363183508693
              ],
              [
                -4.1070268643612895,
                40.95253016078425
              ],
              [
                -4.107921265608428,
                40.95231537328659
              ],
              [
                -4.108815666855565,
                40.951724436578296
              ],
              [
                -4.109710068102704,
                40.95177474259783
              ],
              [
                -4.11000820185175,
                40.95193726666044
              ]
            ],
            [
              [
                -4.10851753310652,
                40.9434447899389
              ],
              [
                -4.108704907966916,
                40.94369392951385
              ],
              [
                -4.108675379977946,
                40.94437151398474
              ],
              [
                -4.108219399357473,
                40.944766918511235
              ],
              [
                -4.107125638674082,
                40.944823236965334
              ],
              [
                -4.106503112275412,
                40.94437151398474
              ],
              [
                -4.106473396067365,
                40.94369392951385
              ],
              [
                -4.1070268643612895,
                40.94321387152431
              ],
              [
                -4.107921265608428,
                40.94314267986192
              ],
              [
                -4.10851753310652,
                40.9434447899389
              ]
            ],
            [
              [
                -4.106728730612243,
                40.94093470604442
              ],
              [
                -4.106985582770608,
                40.94120945312058
              ],
              [
                -4.107018143195013,
                40.941887037591464
              ],
              [
                -4.106524185939535,
                40.94233876057206
              ],
              [
                -4.105536195616059,
                40.942433246009166
              ],
              [
                -4.104783691604294,
                40.941887037591464
              ],
              [
                -4.1048158601802704,
                40.94120945312058
              ],
              [
                -4.105238061867013,
                40.94083296071077
              ],
              [
                -4.106132463114151,
                40.94072181502861
              ],
              [
                -4.106728730612243,
                40.94093470604442
              ]
            ],
            [
              [
                -4.106132463114151,
                40.937308215249665
              ],
              [
                -4.106117313365992,
                40.93804739225641
              ],
              [
                -4.105536195616059,
                40.93847809971272
              ],
              [
                -4.104641794368921,
                40.93850651582334
              ],
              [
                -4.103970337949591,
                40.93804739225641
              ],
              [
                -4.103917584423863,
                40.93736980778552
              ],
              [
                -4.104641794368921,
                40.93681424569458
              ],
              [
                -4.105536195616059,
                40.93684246731468
              ],
              [
                -4.106132463114151,
                40.937308215249665
              ]
            ],
            [
              [
                -4.104641794368921,
                40.945147850406
              ],
              [
                -4.104924730510382,
                40.94550082143623
              ],
              [
                -4.104924730510382,
                40.94595254441682
              ],
              [
                -4.104641794368921,
                40.94639670845264
              ],
              [
                -4.104343660619874,
                40.94656412810839
              ],
              [
                -4.103449259372736,
                40.946631939866066
              ],
              [
                -4.102730162741561,
                40.94617840590712
              ],
              [
                -4.102653710974873,
                40.94550082143623
              ],
              [
                -4.1031511256236906,
                40.944951083887105
              ],
              [
                -4.104045526870829,
                40.944898534806256
              ],
              [
                -4.104641794368921,
                40.945147850406
              ]
            ],
            [
              [
                -4.104045526870829,
                40.943393125811475
              ],
              [
                -4.104240058662431,
                40.94369392951385
              ],
              [
                -4.104240058662431,
                40.94414565249444
              ],
              [
                -4.1037473931217825,
                40.944723454189365
              ],
              [
                -4.102554858125599,
                40.944724094590555
              ],
              [
                -4.101937459880167,
                40.94414565249444
              ],
              [
                -4.102063930007764,
                40.94346806802355
              ],
              [
                -4.102554858125599,
                40.94311990648465
              ],
              [
                -4.103449259372736,
                40.94306537948163
              ],
              [
                -4.104045526870829,
                40.943393125811475
              ]
            ],
            [
              [
                -4.10166045687846,
                40.92891710582575
              ],
              [
                -4.101775651198969,
                40.9303681015863
              ],
              [
                -4.100888612722416,
                40.93149740903779
              ],
              [
                -4.099661935365805,
                40.93194913201838
              ],
              [
                -4.099581076469221,
                40.932626716489274
              ],
              [
                -4.098977253137045,
                40.93304773240804
              ],
              [
                -4.098082851889907,
                40.93305335629139
              ],
              [
                -4.097683651580686,
                40.932852577979574
              ],
              [
                -4.097385767503848,
                40.932400854998974
              ],
              [
                -4.097385767503848,
                40.93194913201838
              ],
              [
                -4.0975287007358405,
                40.93172327052808
              ],
              [
                -4.098461654732595,
                40.93127154754749
              ],
              [
                -4.098380985638953,
                40.93080251820804
              ],
              [
                -4.098248439017002,
                40.93104568605719
              ],
              [
                -4.097784718140861,
                40.93120582074982
              ],
              [
                -4.096890316893723,
                40.931231692297956
              ],
              [
                -4.096492300120432,
                40.93104568605719
              ],
              [
                -4.096151562290801,
                40.930593963076596
              ],
              [
                -4.096151562290801,
                40.930142240096
              ],
              [
                -4.09644939891809,
                40.92946465562511
              ],
              [
                -4.097784718140861,
                40.92883496538091
              ],
              [
                -4.098380985638953,
                40.92881225754085
              ],
              [
                -4.098977253137045,
                40.928524383305515
              ],
              [
                -4.100766055631322,
                40.928431478272195
              ],
              [
                -4.101292482796795,
                40.92856120966392
              ],
              [
                -4.10166045687846,
                40.92891710582575
              ]
            ]
          ],
          [
            [
              [
                -4.110895427656297,
                40.93624050033403
              ],
              [
                -4.1105081136854045,
                40.93556291586314
              ],
              [
                -4.109827812149035,
                40.935111192882545
              ],
              [
                -4.10946327828577,
                40.93465946990195
              ],
              [
                -4.108815666855565,
                40.9348657986222
              ],
              [
                -4.108111861773754,
                40.934885331392245
              ],
              [
                -4.108578687792926,
                40.935337054372845
              ],
              [
                -4.108589839264832,
                40.93601463884374
              ],
              [
                -4.108415553994098,
                40.93624050033403
              ],
              [
                -4.10851753310652,
                40.93631622807823
              ],
              [
                -4.109411934353658,
                40.93629832526351
              ],
              [
                -4.1103063356007965,
                40.93693491256808
              ],
              [
                -4.110814985062991,
                40.93669222331463
              ],
              [
                -4.110967886534078,
                40.93646636182433
              ],
              [
                -4.110895427656297,
                40.93624050033403
              ]
            ]
          ],
          [
            [
              [
                -4.108154120670472,
                40.93646636182433
              ],
              [
                -4.108219399357473,
                40.936487676899404
              ],
              [
                -4.108252184895119,
                40.93646636182433
              ],
              [
                -4.108219399357473,
                40.93644084743603
              ],
              [
                -4.108154120670472,
                40.93646636182433
              ]
            ]
          ]
        ]
      }
    }
  ]
}