{
  "type": "FeatureCollection",
  "features": [
    {
      "type": "Feature",
      "properties": {},
      "geometry": {
        "type": "MultiPolygon",
        "coordinates": [
          [
            [
              [
                -4.129001339042018,
                40.92246294942589
              ],
              [
                -4.129093939845545,
                40.923140533896785
              ],
              [
                -4.1289550451286114,
                40.923366395387085
              ],
              [
                -4.128194360543561,
                40.923743134856
              ],
              [
                -4.127598093045468,
                40.923743134856
              ],
              [
                -4.127001825547376,
                40.92342101581567
              ],
              [
                -4.126812205959162,
                40.923140533896785
              ],
              [
                -4.126903841542291,
                40.92246294942589
              ],
              [
                -4.088244438171387,
                40.92246294942589
              ],
              [
                -4.088244438171387,
                40.941613561492645
              ],
              [
                -4.088840705669479,
                40.94118740806874
              ],
              [
                -4.089735106916617,
                40.94117743825006
              ],
              [
                -4.090208893101935,
                40.94143531461087
              ],
              [
                -4.090414293955916,
                40.941887037591464
              ],
              [
                -4.090331374414709,
                40.942459471654274
              ],
              [
                -4.089735106916617,
                40.942853050028816
              ],
              [
                -4.088840705669479,
                40.94284299296828
              ],
              [
                -4.088244438171387,
                40.94241421835823
              ],
              [
                -4.088244438171387,
                40.956793895951094
              ],
              [
                -4.115567547420242,
                40.956793895951094
              ],
              [
                -4.114452040861037,
                40.9563421729705
              ],
              [
                -4.113980799678861,
                40.95566458849961
              ],
              [
                -4.112989539342211,
                40.95505387127865
              ],
              [
                -4.112095138095072,
                40.954143302967786
              ],
              [
                -4.11149887059698,
                40.954596334421
              ],
              [
                -4.110604469349842,
                40.9546190413005
              ],
              [
                -4.110059179717136,
                40.95430941955782
              ],
              [
                -4.1098970538768755,
                40.95408355806752
              ],
              [
                -4.1098970538768755,
                40.95363183508693
              ],
              [
                -4.1101280220152985,
                40.95318011210634
              ],
              [
                -4.10934192564135,
                40.95295425061604
              ],
              [
                -4.108867864183522,
                40.952502527635446
              ],
              [
                -4.108912197360748,
                40.95182494316455
              ],
              [
                -4.109113800604612,
                40.95159547264355
              ],
              [
                -4.109710068102704,
                40.951337073040165
              ],
              [
                -4.11149887059698,
                40.95159532415576
              ],
              [
                -4.111912233872691,
                40.95182494316455
              ],
              [
                -4.112110091546247,
                40.952050804654846
              ],
              [
                -4.11214281003374,
                40.95272838912574
              ],
              [
                -4.1119023231585325,
                40.95318011210634
              ],
              [
                -4.112095138095072,
                40.95339889142724
              ],
              [
                -4.112393271844119,
                40.95343284509063
              ],
              [
                -4.112989539342211,
                40.953063388375
              ],
              [
                -4.113406260850695,
                40.952276666145146
              ],
              [
                -4.113883940589349,
                40.951891683131265
              ],
              [
                -4.114778341836487,
                40.95180127992085
              ],
              [
                -4.115076475585533,
                40.95189672713146
              ],
              [
                -4.115542921701769,
                40.952276666145146
              ],
              [
                -4.115762796437616,
                40.95272838912574
              ],
              [
                -4.115762796437616,
                40.95318011210634
              ],
              [
                -4.115085662034483,
                40.95385769657723
              ],
              [
                -4.115076475585533,
                40.95411686425838
              ],
              [
                -4.116269010581718,
                40.95425797876897
              ],
              [
                -4.117163411828856,
                40.9546141656456
              ],
              [
                -4.117461545577902,
                40.954460273894895
              ],
              [
                -4.11835594682504,
                40.95442388139779
              ],
              [
                -4.1189460562058935,
                40.954761142538416
              ],
              [
                -4.119095392854327,
                40.954987004028716
              ],
              [
                -4.118952214323132,
                40.95577017621963
              ],
              [
                -4.11835594682504,
                40.95612325065174
              ],
              [
                -4.117461545577902,
                40.95608652693352
              ],
              [
                -4.117172326259877,
                40.956568034460794
              ],
              [
                -4.116857627886811,
                40.956793895951094
              ],
              [
                -4.133262634277344,
                40.956793895951094
              ],
              [
                -4.133262634277344,
                40.956143997271724
              ],
              [
                -4.132666366779252,
                40.95652715079485
              ],
              [
                -4.1317719655321135,
                40.956514649838475
              ],
              [
                -4.131473831783067,
                40.956375718028156
              ],
              [
                -4.131079123596964,
                40.9558904499899
              ],
              [
                -4.1310879118406305,
                40.95521286551901
              ],
              [
                -4.131231746992783,
                40.954987004028716
              ],
              [
                -4.130579430535929,
                40.95492777639809
              ],
              [
                -4.129983163037837,
                40.95459525599076
              ],
              [
                -4.129771991457829,
                40.954761142538416
              ],
              [
                -4.1302304121492694,
                40.95543872700931
              ],
              [
                -4.130095230682497,
                40.9561163114802
              ],
              [
                -4.129386895539745,
                40.956511453269755
              ],
              [
                -4.128790628041653,
                40.956511453269755
              ],
              [
                -4.128349092666327,
                40.9563421729705
              ],
              [
                -4.1280780261838155,
                40.9561163114802
              ],
              [
                -4.127896149738225,
                40.95566458849961
              ],
              [
                -4.127299959296423,
                40.955370644754524
              ],
              [
                -4.126937720722364,
                40.954987004028716
              ],
              [
                -4.1269709738616305,
                40.95430941955782
              ],
              [
                -4.127145571758244,
                40.95408355806752
              ],
              [
                -4.126415565710752,
                40.95340597359663
              ],
              [
                -4.1265068937126586,
                40.95272838912574
              ],
              [
                -4.126405558049284,
                40.95249039004406
              ],
              [
                -4.125511156802146,
                40.95251413385185
              ],
              [
                -4.1246167555550075,
                40.95217426602404
              ],
              [
                -4.123722354307869,
                40.952094158632654
              ],
              [
                -4.123126086809777,
                40.95227622428643
              ],
              [
                -4.121635418064547,
                40.95210497991149
              ],
              [
                -4.12107471915512,
                40.95182494316455
              ],
              [
                -4.120741016817409,
                40.951246733220806
              ],
              [
                -4.119548481821225,
                40.95137160983549
              ],
              [
                -4.118952214323132,
                40.95100690282636
              ],
              [
                -4.118654080574086,
                40.95097240660715
              ],
              [
                -4.1181640877751535,
                40.95114735869366
              ],
              [
                -4.117563251224688,
                40.95182494316455
              ],
              [
                -4.117163411828856,
                40.95201974686798
              ],
              [
                -4.116269010581718,
                40.952005130304684
              ],
              [
                -4.11591367493058,
                40.95182494316455
              ],
              [
                -4.115599519222053,
                40.95137322018396
              ],
              [
                -4.115599519222053,
                40.95092149720336
              ],
              [
                -4.116091957189952,
                40.95024391273247
              ],
              [
                -4.115790357603153,
                40.949792189751875
              ],
              [
                -4.115823849366206,
                40.94911460528098
              ],
              [
                -4.115957131308802,
                40.94888874379068
              ],
              [
                -4.116269010581718,
                40.948637286561
              ],
              [
                -4.11694243949091,
                40.94843702081009
              ],
              [
                -4.117655945566389,
                40.9477594363392
              ],
              [
                -4.118894315827556,
                40.947533574848904
              ],
              [
                -4.11835594682504,
                40.94671367635387
              ],
              [
                -4.117759679326948,
                40.94702417554294
              ],
              [
                -4.117163411828856,
                40.94702417554294
              ],
              [
                -4.1164081761443985,
                40.94663012888771
              ],
              [
                -4.116275338133839,
                40.94640426739741
              ],
              [
                -4.116382898589593,
                40.94572668292652
              ],
              [
                -4.117163411828856,
                40.94530019805338
              ],
              [
                -4.117759679326948,
                40.94530019805338
              ],
              [
                -4.118220984635744,
                40.94550082143623
              ],
              [
                -4.11857582422837,
                40.94595254441682
              ],
              [
                -4.118654080574086,
                40.9463585349285
              ],
              [
                -4.119250348072178,
                40.946010261405696
              ],
              [
                -4.120144749319317,
                40.94602331913193
              ],
              [
                -4.1207103189473315,
                40.94640426739741
              ],
              [
                -4.121039150566455,
                40.94701245883846
              ],
              [
                -4.121635418064547,
                40.947148528813884
              ],
              [
                -4.122252632874585,
                40.94663012888771
              ],
              [
                -4.123424220558824,
                40.94621913479542
              ],
              [
                -4.124318621805962,
                40.94614965839321
              ],
              [
                -4.1246167555550075,
                40.94625335756871
              ],
              [
                -4.125058584502068,
                40.94663012888771
              ],
              [
                -4.125106073550124,
                40.947307713358605
              ],
              [
                -4.124361302122559,
                40.9479852978295
              ],
              [
                -4.1246167555550075,
                40.94843798575809
              ],
              [
                -4.125511156802146,
                40.949063974824234
              ],
              [
                -4.126107424300238,
                40.94878317239649
              ],
              [
                -4.126902585347671,
                40.94866288230039
              ],
              [
                -4.127181107513161,
                40.9482111593198
              ],
              [
                -4.127598093045468,
                40.94793430643
              ],
              [
                -4.1284924942926065,
                40.94786941279647
              ],
              [
                -4.129088761790698,
                40.94817998306407
              ],
              [
                -4.129274620207614,
                40.94843702081009
              ],
              [
                -4.129386895539745,
                40.94940458914303
              ],
              [
                -4.1294925744559485,
                40.94888874379068
              ],
              [
                -4.129983163037837,
                40.94841436021783
              ],
              [
                -4.130281296786883,
                40.948286639959655
              ],
              [
                -4.1311756980340215,
                40.94829613721558
              ],
              [
                -4.131734287861686,
                40.94866288230039
              ],
              [
                -4.13207009928116,
                40.94910895190235
              ],
              [
                -4.132666366779252,
                40.949327567353755
              ],
              [
                -4.133262634277344,
                40.94977272488821
              ],
              [
                -4.133262634277344,
                40.92246294942589
              ],
              [
                -4.129001339042018,
                40.92246294942589
              ]
            ],
            [
              [
                -4.132964500528297,
                40.94542441101611
              ],
              [
                -4.132964500528297,
                40.94601563007165
              ],
              [
                -4.132368233030205,
                40.94651922470418
              ],
              [
                -4.131473831783067,
                40.946562824656525
              ],
              [
                -4.13109975445677,
                40.94640426739741
              ],
              [
                -4.130705284309755,
                40.94595254441682
              ],
              [
                -4.130811247773643,
                40.94527495994593
              ],
              [
                -4.131473831783067,
                40.94485814489852
              ],
              [
                -4.132368233030205,
                40.9449019327865
              ],
              [
                -4.132964500528297,
                40.94542441101611
              ]
            ],
            [
              [
                -4.125809290551192,
                40.944165466230665
              ],
              [
                -4.126092537135594,
                40.944597375475034
              ],
              [
                -4.126092537135594,
                40.94504909845563
              ],
              [
                -4.125511156802146,
                40.94558141399273
              ],
              [
                -4.1246167555550075,
                40.94565058767998
              ],
              [
                -4.124020488056916,
                40.945341882237365
              ],
              [
                -4.123814445473927,
                40.94504909845563
              ],
              [
                -4.123900427459552,
                40.94437151398474
              ],
              [
                -4.124318621805962,
                40.94402999616579
              ],
              [
                -4.1252130230530994,
                40.94392591255943
              ],
              [
                -4.125809290551192,
                40.944165466230665
              ]
            ],
            [
              [
                -4.122827953060731,
                40.95512118485555
              ],
              [
                -4.122811855374258,
                40.9558904499899
              ],
              [
                -4.122231685562639,
                40.956307972028156
              ],
              [
                -4.1213372843155005,
                40.95633076304636
              ],
              [
                -4.1209040001328,
                40.9561163114802
              ],
              [
                -4.120614892768878,
                40.95566458849961
              ],
              [
                -4.120741016817409,
                40.95501118092627
              ],
              [
                -4.1213372843155005,
                40.954643740840645
              ],
              [
                -4.122231685562639,
                40.95466626218134
              ],
              [
                -4.122827953060731,
                40.95512118485555
              ]
            ],
            [
              [
                -4.120442883068363,
                40.92741208368227
              ],
              [
                -4.120335701379881,
                40.928109486683326
              ],
              [
                -4.119548481821225,
                40.92852406203407
              ],
              [
                -4.118952214323132,
                40.92852406203407
              ],
              [
                -4.117759679326948,
                40.92812499506305
              ],
              [
                -4.1172880178883124,
                40.92765776370273
              ],
              [
                -4.117350399714992,
                40.92698017923184
              ],
              [
                -4.118057813075994,
                40.92651878921808
              ],
              [
                -4.118952214323132,
                40.92657376897255
              ],
              [
                -4.11984661557027,
                40.926866681760536
              ],
              [
                -4.120442883068363,
                40.92741208368227
              ]
            ],
            [
              [
                -4.120442883068363,
                40.952461012078096
              ],
              [
                -4.120531925043634,
                40.95318011210634
              ],
              [
                -4.119984556679847,
                40.95385769657723
              ],
              [
                -4.119548481821225,
                40.95414846364725
              ],
              [
                -4.118654080574086,
                40.9542075577804
              ],
              [
                -4.11835594682504,
                40.95411242796946
              ],
              [
                -4.117876697736665,
                40.95363183508693
              ],
              [
                -4.117938113010637,
                40.95295425061604
              ],
              [
                -4.1185433879025295,
                40.952276666145146
              ],
              [
                -4.118952214323132,
                40.95206212604444
              ],
              [
                -4.11984661557027,
                40.95205937286935
              ],
              [
                -4.120442883068363,
                40.952461012078096
              ]
            ],
            [
              [
                -4.120144749319317,
                40.94369280325295
              ],
              [
                -4.120269235881675,
                40.94437151398474
              ],
              [
                -4.11984661557027,
                40.944858180357656
              ],
              [
                -4.118952214323132,
                40.94498596357599
              ],
              [
                -4.11835594682504,
                40.94483828130465
              ],
              [
                -4.117967259734413,
                40.94437151398474
              ],
              [
                -4.118092192177476,
                40.94369392951385
              ],
              [
                -4.117163411828856,
                40.943542634437534
              ],
              [
                -4.116591844425906,
                40.943016345042956
              ],
              [
                -4.1166436212707875,
                40.94166117610117
              ],
              [
                -4.11686527807981,
                40.94141009278969
              ],
              [
                -4.117461545577902,
                40.94116180519208
              ],
              [
                -4.11835594682504,
                40.94126286283296
              ],
              [
                -4.118816709903499,
                40.94166117610117
              ],
              [
                -4.118878649481852,
                40.94324220653325
              ],
              [
                -4.119548481821225,
                40.943310671325946
              ],
              [
                -4.120144749319317,
                40.94369280325295
              ]
            ],
            [
              [
                -4.118057813075994,
                40.93800495670525
              ],
              [
                -4.118207868231302,
                40.93827325374671
              ],
              [
                -4.118207868231302,
                40.9387249767273
              ],
              [
                -4.117822568748263,
                40.9391766997079
              ],
              [
                -4.117461545577902,
                40.9393353811381
              ],
              [
                -4.116269010581718,
                40.939205723769504
              ],
              [
                -4.1160911543081635,
                40.93940256119819
              ],
              [
                -4.116310346456466,
                40.93962842268849
              ],
              [
                -4.116381067970416,
                40.940306007159386
              ],
              [
                -4.115970876832671,
                40.94074621760032
              ],
              [
                -4.115672743083626,
                40.94087166853263
              ],
              [
                -4.114778341836487,
                40.94085791068342
              ],
              [
                -4.1141820743383954,
                40.94042043133542
              ],
              [
                -4.114114088251544,
                40.93985428417879
              ],
              [
                -4.114480208087441,
                40.939347711493006
              ],
              [
                -4.114778341836487,
                40.93920679033393
              ],
              [
                -4.115970876832671,
                40.93927888383921
              ],
              [
                -4.1162067604909796,
                40.9391766997079
              ],
              [
                -4.115672743083626,
                40.93903051955087
              ],
              [
                -4.11534965335027,
                40.93849911523701
              ],
              [
                -4.11534965335027,
                40.93804739225641
              ],
              [
                -4.115770431849635,
                40.937595669275815
              ],
              [
                -4.11686527807981,
                40.937454912741984
              ],
              [
                -4.117759679326948,
                40.937764471214614
              ],
              [
                -4.118057813075994,
                40.93800495670525
              ]
            ],
            [
              [
                -4.116269010581718,
                40.94358809945196
              ],
              [
                -4.116537672529447,
                40.94391979100414
              ],
              [
                -4.116537672529447,
                40.94437151398474
              ],
              [
                -4.116477769847857,
                40.944597375475034
              ],
              [
                -4.115970876832671,
                40.94499567181551
              ],
              [
                -4.115076475585533,
                40.94506785472306
              ],
              [
                -4.114339756302803,
                40.944597375475034
              ],
              [
                -4.11428025322348,
                40.94391979100414
              ],
              [
                -4.114778341836487,
                40.94344228379823
              ],
              [
                -4.115672743083626,
                40.94334139312713
              ],
              [
                -4.116269010581718,
                40.94358809945196
              ]
            ],
            [
              [
                -4.115672743083626,
                40.946082742923615
              ],
              [
                -4.115898332381708,
                40.94640426739741
              ],
              [
                -4.115898332381708,
                40.94685599037801
              ],
              [
                -4.115374609334579,
                40.9474113003179
              ],
              [
                -4.115076475585533,
                40.94751193194254
              ],
              [
                -4.1141820743383954,
                40.94743432868584
              ],
              [
                -4.1136060941175705,
                40.94685599037801
              ],
              [
                -4.1136060941175705,
                40.94640426739741
              ],
              [
                -4.1141820743383954,
                40.945859125243885
              ],
              [
                -4.115076475585533,
                40.94578189875133
              ],
              [
                -4.115672743083626,
                40.946082742923615
              ]
            ],
            [
              [
                -4.113585806840303,
                40.9360117763316
              ],
              [
                -4.113534190339887,
                40.93669222331463
              ],
              [
                -4.113287673091257,
                40.9369501958219
              ],
              [
                -4.112691405593165,
                40.93716086038966
              ],
              [
                -4.112043738482783,
                40.93714394629522
              ],
              [
                -4.11149887059698,
                40.93684077313509
              ],
              [
                -4.111208545665849,
                40.93646636182433
              ],
              [
                -4.111208545665849,
                40.93601463884374
              ],
              [
                -4.111540432100337,
                40.93556291586314
              ],
              [
                -4.111354028296403,
                40.935337054372845
              ],
              [
                -4.111200736847934,
                40.93523979062577
              ],
              [
                -4.110604469349842,
                40.935504054948865
              ],
              [
                -4.109710068102704,
                40.93555377384522
              ],
              [
                -4.109022224440006,
                40.935111192882545
              ],
              [
                -4.108941634957295,
                40.93443360841165
              ],
              [
                -4.109364227205629,
                40.93398188543106
              ],
              [
                -4.109710068102704,
                40.93384421360812
              ],
              [
                -4.110604469349842,
                40.93389342010646
              ],
              [
                -4.110902603098888,
                40.934054329062846
              ],
              [
                -4.111764505186178,
                40.93375602394076
              ],
              [
                -4.112412575355806,
                40.93375602394076
              ],
              [
                -4.112889622071516,
                40.93398188543106
              ],
              [
                -4.113175080278485,
                40.93443360841165
              ],
              [
                -4.113175080278485,
                40.934885331392245
              ],
              [
                -4.1127436599622245,
                40.935337054372845
              ],
              [
                -4.113287673091257,
                40.935657393365744
              ],
              [
                -4.113585806840303,
                40.9360117763316
              ]
            ],
            [
              [
                -4.112989539342211,
                40.948095539531394
              ],
              [
                -4.113023104289139,
                40.94866288230039
              ],
              [
                -4.112393271844119,
                40.949200903340184
              ],
              [
                -4.11149887059698,
                40.94923565564882
              ],
              [
                -4.111191241237746,
                40.94911460528098
              ],
              [
                -4.110757713118363,
                40.94866288230039
              ],
              [
                -4.110826315257957,
                40.9479852978295
              ],
              [
                -4.11149887059698,
                40.94753778850219
              ],
              [
                -4.112393271844119,
                40.94757298169157
              ],
              [
                -4.112989539342211,
                40.948095539531394
              ]
            ],
            [
              [
                -4.112691405593165,
                40.9452287158276
              ],
              [
                -4.112947319679913,
                40.94550082143623
              ],
              [
                -4.112986672060437,
                40.94617840590712
              ],
              [
                -4.112393271844119,
                40.94668048911614
              ],
              [
                -4.11149887059698,
                40.946730060100364
              ],
              [
                -4.111200736847934,
                40.946620615511556
              ],
              [
                -4.110301121613545,
                40.94572668292652
              ],
              [
                -4.110363993243166,
                40.94504909845563
              ],
              [
                -4.110902603098888,
                40.94464028607959
              ],
              [
                -4.1118229100731085,
                40.944597375475034
              ],
              [
                -4.112691405593165,
                40.9452287158276
              ]
            ],
            [
              [
                -4.11000820185175,
                40.93992704031889
              ],
              [
                -4.110286069260146,
                40.940306007159386
              ],
              [
                -4.110286069260146,
                40.94075773013998
              ],
              [
                -4.11000820185175,
                40.9411373878625
              ],
              [
                -4.109411934353658,
                40.94139843050814
              ],
              [
                -4.108422523983895,
                40.94143531461087
              ],
              [
                -4.108240504439307,
                40.941887037591464
              ],
              [
                -4.108773605875787,
                40.94233876057206
              ],
              [
                -4.108770793037294,
                40.943016345042956
              ],
              [
                -4.108590853109239,
                40.94324220653325
              ],
              [
                -4.107921265608428,
                40.943535210227246
              ],
              [
                -4.107324998110335,
                40.943535210227246
              ],
              [
                -4.106747647145833,
                40.94324220653325
              ],
              [
                -4.106570206308529,
                40.943016345042956
              ],
              [
                -4.106567417673808,
                40.94233876057206
              ],
              [
                -4.106709558601445,
                40.94211289908176
              ],
              [
                -4.106168763974721,
                40.94166117610117
              ],
              [
                -4.1061670205965735,
                40.94098359163028
              ],
              [
                -4.106344705888851,
                40.94075773013998
              ],
              [
                -4.1070268643612895,
                40.94046246552512
              ],
              [
                -4.107921265608428,
                40.940554358372246
              ],
              [
                -4.108219399357473,
                40.939963184873505
              ],
              [
                -4.108815666855565,
                40.939665974853646
              ],
              [
                -4.109411934353658,
                40.939665974853646
              ],
              [
                -4.11000820185175,
                40.93992704031889
              ]
            ],
            [
              [
                -4.107921265608428,
                40.95190117495446
              ],
              [
                -4.107962463478584,
                40.95272838912574
              ],
              [
                -4.107324998110335,
                40.95317670926254
              ],
              [
                -4.106430596863198,
                40.95316942466122
              ],
              [
                -4.105815915418963,
                40.95272838912574
              ],
              [
                -4.1057624763494704,
                40.952050804654846
              ],
              [
                -4.106430596863198,
                40.95151096532484
              ],
              [
                -4.107324998110335,
                40.95150378893923
              ],
              [
                -4.107921265608428,
                40.95190117495446
              ]
            ],
            [
              [
                -4.107623131859381,
                40.930439400467954
              ],
              [
                -4.107809999773282,
                40.930819824566896
              ],
              [
                -4.107809999773282,
                40.93127154754749
              ],
              [
                -4.107324998110335,
                40.931741013747335
              ],
              [
                -4.1070268643612895,
                40.93184464565063
              ],
              [
                -4.106132463114151,
                40.93178048134514
              ],
              [
                -4.105555288299224,
                40.93127154754749
              ],
              [
                -4.105612296497736,
                40.930593963076596
              ],
              [
                -4.106132463114151,
                40.930188234555146
              ],
              [
                -4.1070268643612895,
                40.93012347657507
              ],
              [
                -4.107623131859381,
                40.930439400467954
              ]
            ],
            [
              [
                -4.107623131859381,
                40.95446411040928
              ],
              [
                -4.107874931130503,
                40.954761142538416
              ],
              [
                -4.107854916929482,
                40.95543872700931
              ],
              [
                -4.107324998110335,
                40.95587415498538
              ],
              [
                -4.106430596863198,
                40.955944950927936
              ],
              [
                -4.105671846823786,
                40.95543872700931
              ],
              [
                -4.105651960795613,
                40.954761142538416
              ],
              [
                -4.106132463114151,
                40.954319490875505
              ],
              [
                -4.1070268643612895,
                40.95421880738084
              ],
              [
                -4.107623131859381,
                40.95446411040928
              ]
            ],
            [
              [
                -4.106132463114151,
                40.93822504189615
              ],
              [
                -4.106302430839136,
                40.93849911523701
              ],
              [
                -4.106302430839136,
                40.9389508382176
              ],
              [
                -4.105937078146843,
                40.93940256119819
              ],
              [
                -4.105536195616059,
                40.93958138277402
              ],
              [
                -4.104641794368921,
                40.939626955040254
              ],
              [
                -4.104002580105027,
                40.9389508382176
              ],
              [
                -4.1041301855803525,
                40.93827325374671
              ],
              [
                -4.104641794368921,
                40.937919793326124
              ],
              [
                -4.105536195616059,
                40.93787989862668
              ],
              [
                -4.106132463114151,
                40.93822504189615
              ]
            ],
            [
              [
                -4.105834329365105,
                40.94005096588613
              ],
              [
                -4.10595799899046,
                40.94075773013998
              ],
              [
                -4.1055605476552675,
                40.94120945312058
              ],
              [
                -4.105238061867013,
                40.94134969053511
              ],
              [
                -4.104343660619874,
                40.94133519102959
              ],
              [
                -4.10367001706217,
                40.94075773013998
              ],
              [
                -4.10376940220041,
                40.940080145669086
              ],
              [
                -4.104343660619874,
                40.939685206960775
              ],
              [
                -4.105238061867013,
                40.93962950303841
              ],
              [
                -4.105834329365105,
                40.94005096588613
              ]
            ],
            [
              [
                -4.104641794368921,
                40.93563768966694
              ],
              [
                -4.104641794368921,
                40.936407727292945
              ],
              [
                -4.104045526870829,
                40.93684808212364
              ],
              [
                -4.1031511256236906,
                40.93686320156265
              ],
              [
                -4.102783485580162,
                40.93669222331463
              ],
              [
                -4.1024256067409866,
                40.93624050033403
              ],
              [
                -4.102551739491368,
                40.93556291586314
              ],
              [
                -4.1031511256236906,
                40.93518371390463
              ],
              [
                -4.104045526870829,
                40.935198799938064
              ],
              [
                -4.104641794368921,
                40.93563768966694
              ]
            ],
            [
              [
                -4.103449259372736,
                40.946921974620444
              ],
              [
                -4.103550503697283,
                40.947081851868305
              ],
              [
                -4.103493986781053,
                40.9477594363392
              ],
              [
                -4.102852991874644,
                40.94820674392043
              ],
              [
                -4.101958590627506,
                40.94819612480431
              ],
              [
                -4.1013507857099665,
                40.9477594363392
              ],
              [
                -4.101294678912516,
                40.947081851868305
              ],
              [
                -4.101958590627506,
                40.94654119347209
              ],
              [
                -4.102852991874644,
                40.94653072695333
              ],
              [
                -4.103449259372736,
                40.946921974620444
              ]
            ],
            [
              [
                -4.101362323129414,
                40.93137835553089
              ],
              [
                -4.101332224041934,
                40.93217499350868
              ],
              [
                -4.100766055631322,
                40.93256966013338
              ],
              [
                -4.0998716543841836,
                40.93259047562441
              ],
              [
                -4.099473291441453,
                40.932400854998974
              ],
              [
                -4.099143164547366,
                40.93194913201838
              ],
              [
                -4.099275386886092,
                40.93127250603909
              ],
              [
                -4.0998716543841836,
                40.93090566251437
              ],
              [
                -4.100766055631322,
                40.930926348396575
              ],
              [
                -4.101362323129414,
                40.93137835553089
              ]
            ],
            [
              [
                -4.101064189380367,
                40.92772826294118
              ],
              [
                -4.101064189380367,
                40.92854051571428
              ],
              [
                -4.1004679218822755,
                40.92896093337856
              ],
              [
                -4.099573520635137,
                40.92896872878974
              ],
              [
                -4.099197550345612,
                40.92878707115422
              ],
              [
                -4.09886506420377,
                40.928335348173626
              ],
              [
                -4.0989981603825125,
                40.92765776370273
              ],
              [
                -4.099573520635137,
                40.927296158760555
              ],
              [
                -4.1004679218822755,
                40.9273039095946
              ],
              [
                -4.101064189380367,
                40.92772826294118
              ]
            ],
            [
              [
                -4.10016978813323,
                40.94853929579561
              ],
              [
                -4.100450872877879,
                40.94888874379068
              ],
              [
                -4.100450872877879,
                40.94934046677128
              ],
              [
                -4.10016978813323,
                40.949787585385614
              ],
              [
                -4.099573520635137,
                40.95002305037917
              ],
              [
                -4.098679119388,
                40.94991824530966
              ],
              [
                -4.098255427241786,
                40.949566328261575
              ],
              [
                -4.098182361465521,
                40.94888874379068
              ],
              [
                -4.098315331868784,
                40.94866288230039
              ],
              [
                -4.097681217150097,
                40.9482111593198
              ],
              [
                -4.0975539752354315,
                40.947533574848904
              ],
              [
                -4.097920707511319,
                40.947081851868305
              ],
              [
                -4.098380985638953,
                40.94688853084383
              ],
              [
                -4.099275386886092,
                40.94696670024771
              ],
              [
                -4.099735143399285,
                40.947307713358605
              ],
              [
                -4.099854369066736,
                40.9479852978295
              ],
              [
                -4.099726335930245,
                40.9482111593198
              ],
              [
                -4.10016978813323,
                40.94853929579561
              ]
            ],
            [
              [
                -4.0965921831446765,
                40.92815688359333
              ],
              [
                -4.0966597007700924,
                40.92878707115422
              ],
              [
                -4.095995915646585,
                40.92935212130682
              ],
              [
                -4.095101514399446,
                40.92937007541522
              ],
              [
                -4.094790189826559,
                40.92923879413481
              ],
              [
                -4.094380360619074,
                40.92878707115422
              ],
              [
                -4.094467959804111,
                40.928109486683326
              ],
              [
                -4.095101514399446,
                40.927687687018086
              ],
              [
                -4.095995915646585,
                40.92770578755131
              ],
              [
                -4.0965921831446765,
                40.92815688359333
              ]
            ]
          ],
          [
            [
              [
                -4.132964500528297,
                40.95332722651971
              ],
              [
                -4.132301285347744,
                40.95340597359663
              ],
              [
                -4.132107063151753,
                40.95363183508693
              ],
              [
                -4.13210226009935,
                40.95430941955782
              ],
              [
                -4.133262634277344,
                40.954730501912216
              ],
              [
                -4.133262634277344,
                40.95321326040461
              ],
              [
                -4.132964500528297,
                40.95332722651971
              ]
            ]
          ],
          [
            [
              [
                -4.130281296786883,
                40.94996087537653
              ],
              [
                -4.1300309843486955,
                40.950018051242175
              ],
              [
                -4.130625308292659,
                40.95024391273247
              ],
              [
                -4.130580897727743,
                40.950018051242175
              ],
              [
                -4.130281296786883,
                40.94996087537653
              ]
            ]
          ],
          [
            [
              [
                -4.119751733185147,
                40.94888874379068
              ],
              [
                -4.119548481821225,
                40.948778789225486
              ],
              [
                -4.119010391561872,
                40.94934046677128
              ],
              [
                -4.119250348072178,
                40.94979800023472
              ],
              [
                -4.119931055203466,
                40.94934046677128
              ],
              [
                -4.1199491642189425,
                40.94911460528098
              ],
              [
                -4.119751733185147,
                40.94888874379068
              ]
            ]
          ]
        ]
      }
    }
  ]
}