{
  "type": "FeatureCollection",
  "features": [
    {
      "type": "Feature",
      "properties": {},
      "geometry": {
        "type": "MultiPolygon",
        "coordinates": [
          [
            [
              [
                -4.129001339042018,
                40.92246294942589
              ],
              [
                -4.129093939845545,
                40.923140533896785
              ],
              [
                -4.1289550451286114,
                40.923366395387085
              ],
              [
                -4.128194360543561,
                40.923743134856
              ],
              [
                -4.127598093045468,
                40.923743134856
              ],
              [
                -4.127001825547376,
                40.92342101581567
              ],
              [
                -4.126812205959162,
                40.923140533896785
              ],
              [
                -4.126903841542291,
                40.92246294942589
              ],
              [
                -4.088244438171387,
                40.92246294942589
              ],
              [
                -4.088244438171387,
                40.941613561492645
              ],
              [
                -4.088840705669479,
                40.94118740806874
              ],
              [
                -4.089735106916617,
                40.94117743825006
              ],
              [
                -4.090208893101935,
                40.94143531461087
              ],
              [
                -4.090414293955916,
                40.941887037591464
              ],
              [
                -4.090331374414709,
                40.942459471654274
              ],
              [
                -4.089735106916617,
                40.942853050028816
              ],
              [
                -4.088840705669479,
                40.94284299296828
              ],
              [
                -4.088244438171387,
                40.94241421835823
              ],
              [
                -4.088244438171387,
                40.95135987430944
              ],
              [
                -4.089138839418525,
                40.95159605686838
              ],
              [
                -4.089450039783559,
                40.952050804654846
              ],
              [
                -4.089450039783559,
                40.952502527635446
              ],
              [
                -4.089138839418525,
                40.95288348268421
              ],
              [
                -4.088244438171387,
                40.95312373860217
              ],
              [
                -4.088244438171387,
                40.956793895951094
              ],
              [
                -4.106007065536608,
                40.956793895951094
              ],
              [
                -4.106259826589602,
                40.9558904499899
              ],
              [
                -4.105671846823786,
                40.95543872700931
              ],
              [
                -4.105582749496166,
                40.954987004028716
              ],
              [
                -4.104677399913366,
                40.95453528104812
              ],
              [
                -4.104536947248661,
                40.95430941955782
              ],
              [
                -4.104536947248661,
                40.95385769657723
              ],
              [
                -4.104843528519459,
                40.95340597359663
              ],
              [
                -4.105238061867013,
                40.953209687837415
              ],
              [
                -4.106460179844641,
                40.95318011210634
              ],
              [
                -4.106132463114151,
                40.9531002565632
              ],
              [
                -4.1057624763494704,
                40.952502527635446
              ],
              [
                -4.1057624763494704,
                40.952050804654846
              ],
              [
                -4.106224378889197,
                40.95159908167425
              ],
              [
                -4.107324998110335,
                40.95150378893923
              ],
              [
                -4.108219399357473,
                40.95204973266837
              ],
              [
                -4.109411934353658,
                40.95141923198869
              ],
              [
                -4.1103063356007965,
                40.951337073040165
              ],
              [
                -4.111797004346027,
                40.95173927777276
              ],
              [
                -4.112393271844119,
                40.952433656017774
              ],
              [
                -4.112770548730326,
                40.952050804654846
              ],
              [
                -4.113287673091257,
                40.951891683131265
              ],
              [
                -4.114778341836487,
                40.95180127992085
              ],
              [
                -4.115333943862216,
                40.952050804654846
              ],
              [
                -4.115672743083626,
                40.95244181580107
              ],
              [
                -4.116137152746096,
                40.952050804654846
              ],
              [
                -4.115599519222053,
                40.95137322018396
              ],
              [
                -4.115693466610958,
                40.95046977422277
              ],
              [
                -4.116014121134154,
                40.95024391273247
              ],
              [
                -4.115790357603153,
                40.949792189751875
              ],
              [
                -4.115756642914784,
                40.94911460528098
              ],
              [
                -4.114778341836487,
                40.94931953659465
              ],
              [
                -4.113883940589349,
                40.94931938634619
              ],
              [
                -4.113355528191223,
                40.94866288230039
              ],
              [
                -4.113484036283834,
                40.9479852978295
              ],
              [
                -4.114011393076091,
                40.947533574848904
              ],
              [
                -4.113376831931771,
                40.947081851868305
              ],
              [
                -4.113433192470702,
                40.94640426739741
              ],
              [
                -4.113604526903966,
                40.94617840590712
              ],
              [
                -4.114480208087441,
                40.94578189875133
              ],
              [
                -4.115374609334579,
                40.9458818813149
              ],
              [
                -4.115970876832671,
                40.94636722341811
              ],
              [
                -4.116216833510463,
                40.94617840590712
              ],
              [
                -4.116122853171508,
                40.94550082143623
              ],
              [
                -4.116236908818574,
                40.94527495994593
              ],
              [
                -4.116055053708835,
                40.94504909845563
              ],
              [
                -4.115076475585533,
                40.94506785472306
              ],
              [
                -4.114549670148908,
                40.944823236965334
              ],
              [
                -4.11428025322348,
                40.94437151398474
              ],
              [
                -4.114324077949028,
                40.94369392951385
              ],
              [
                -4.113508027142161,
                40.94324220653325
              ],
              [
                -4.113287673091257,
                40.94245168076105
              ],
              [
                -4.112691405593165,
                40.942293408788125
              ],
              [
                -4.112194237819093,
                40.941887037591464
              ],
              [
                -4.112152500007852,
                40.94120945312058
              ],
              [
                -4.112692625143044,
                40.940531868649686
              ],
              [
                -4.113585806840303,
                40.94029698915346
              ],
              [
                -4.113809145738387,
                40.940080145669086
              ],
              [
                -4.113585806840303,
                40.93974569189974
              ],
              [
                -4.112683531775637,
                40.93962842268849
              ],
              [
                -4.1123455191556815,
                40.93940256119819
              ],
              [
                -4.112095138095072,
                40.93894460751591
              ],
              [
                -4.1103063356007965,
                40.93881805815041
              ],
              [
                -4.110266736672397,
                40.93940256119819
              ],
              [
                -4.109928340520285,
                40.93985428417879
              ],
              [
                -4.110286069260146,
                40.940306007159386
              ],
              [
                -4.11016093592804,
                40.94098359163028
              ],
              [
                -4.109411934353658,
                40.94139843050814
              ],
              [
                -4.10851753310652,
                40.94134671571553
              ],
              [
                -4.108240504439307,
                40.941887037591464
              ],
              [
                -4.108773605875787,
                40.94233876057206
              ],
              [
                -4.108770793037294,
                40.943016345042956
              ],
              [
                -4.108568258522497,
                40.94346806802355
              ],
              [
                -4.108704907966916,
                40.94414565249444
              ],
              [
                -4.10848361688468,
                40.944597375475034
              ],
              [
                -4.107921265608428,
                40.94486915152637
              ],
              [
                -4.1070268643612895,
                40.94479753243068
              ],
              [
                -4.106503112275412,
                40.94437151398474
              ],
              [
                -4.106473396067365,
                40.94369392951385
              ],
              [
                -4.106747647145833,
                40.94324220653325
              ],
              [
                -4.106430596863198,
                40.942445964118804
              ],
              [
                -4.105238061867013,
                40.942324229268685
              ],
              [
                -4.104783691604294,
                40.941887037591464
              ],
              [
                -4.1046950714512915,
                40.94143531461087
              ],
              [
                -4.104045526870829,
                40.94119608281186
              ],
              [
                -4.10367001706217,
                40.94075773013998
              ],
              [
                -4.10376940220041,
                40.940080145669086
              ],
              [
                -4.104045526870829,
                40.93982502332272
              ],
              [
                -4.104641794368921,
                40.93962950303841
              ],
              [
                -4.105536195616059,
                40.93973875611462
              ],
              [
                -4.106132463114151,
                40.94067057003705
              ],
              [
                -4.106702829162401,
                40.940531868649686
              ],
              [
                -4.106728730612243,
                40.94028322187637
              ],
              [
                -4.107324998110335,
                40.94028322187637
              ],
              [
                -4.107921265608428,
                40.940554358372246
              ],
              [
                -4.108293369536372,
                40.93985428417879
              ],
              [
                -4.1079775829749146,
                40.93940256119819
              ],
              [
                -4.108111430656198,
                40.9387249767273
              ],
              [
                -4.10851753310652,
                40.93839512633718
              ],
              [
                -4.109641504500273,
                40.93827325374671
              ],
              [
                -4.109411934353658,
                40.93799793497593
              ],
              [
                -4.10851753310652,
                40.93796021172936
              ],
              [
                -4.108219399357473,
                40.9378092189395
              ],
              [
                -4.107868336976024,
                40.93736980778552
              ],
              [
                -4.107923982118006,
                40.93669222331463
              ],
              [
                -4.106904072692031,
                40.93646636182433
              ],
              [
                -4.106374988139598,
                40.93601463884374
              ],
              [
                -4.106386099650221,
                40.935337054372845
              ],
              [
                -4.106572266774955,
                40.935111192882545
              ],
              [
                -4.1070268643612895,
                40.93485419509444
              ],
              [
                -4.107623131859381,
                40.93481573644536
              ],
              [
                -4.107765214466171,
                40.93465946990195
              ],
              [
                -4.106395630374304,
                40.93420774692136
              ],
              [
                -4.106204861548579,
                40.93398188543106
              ],
              [
                -4.106197315665111,
                40.93330430096017
              ],
              [
                -4.1070268643612895,
                40.93259647526988
              ],
              [
                -4.107623131859381,
                40.93231607695215
              ],
              [
                -4.10851753310652,
                40.93240719720437
              ],
              [
                -4.109411934353658,
                40.93306372365789
              ],
              [
                -4.1103063356007965,
                40.933211765982705
              ],
              [
                -4.110902603098888,
                40.93369365044739
              ],
              [
                -4.112691405593165,
                40.93385777341946
              ],
              [
                -4.113585806840303,
                40.9335284029263
              ],
              [
                -4.1141820743383954,
                40.9335284029263
              ],
              [
                -4.114700385503106,
                40.93375602394076
              ],
              [
                -4.115007831254302,
                40.93420774692136
              ],
              [
                -4.115007831254302,
                40.93465946990195
              ],
              [
                -4.114778341836487,
                40.93497183588272
              ],
              [
                -4.1141820743383954,
                40.93526371968497
              ],
              [
                -4.112989539342211,
                40.93515802678707
              ],
              [
                -4.112853733159703,
                40.935337054372845
              ],
              [
                -4.113585806840303,
                40.93567340724289
              ],
              [
                -4.11404404291589,
                40.93624050033403
              ],
              [
                -4.114778341836487,
                40.936509411874454
              ],
              [
                -4.115708439354358,
                40.93736980778552
              ],
              [
                -4.115970876832671,
                40.9374991914028
              ],
              [
                -4.11686527807981,
                40.937454912741984
              ],
              [
                -4.117759679326948,
                40.937764471214614
              ],
              [
                -4.118095081080259,
                40.93804739225641
              ],
              [
                -4.118207868231302,
                40.9387249767273
              ],
              [
                -4.1180808939440885,
                40.9389508382176
              ],
              [
                -4.117322867815276,
                40.93940256119819
              ],
              [
                -4.116950195490565,
                40.940080145669086
              ],
              [
                -4.116591885584714,
                40.940306007159386
              ],
              [
                -4.117163411828856,
                40.94086303762704
              ],
              [
                -4.117759679326948,
                40.94053736142304
              ],
              [
                -4.118654080574086,
                40.940522080742625
              ],
              [
                -4.118952214323132,
                40.94065009581084
              ],
              [
                -4.119310292194886,
                40.94098359163028
              ],
              [
                -4.119353986213818,
                40.94120945312058
              ],
              [
                -4.119353986213818,
                40.94166117610117
              ],
              [
                -4.119009568213513,
                40.94233876057206
              ],
              [
                -4.119250348072178,
                40.9425085632437
              ],
              [
                -4.120144749319317,
                40.94258731478476
              ],
              [
                -4.121635418064547,
                40.94331214332567
              ],
              [
                -4.122060221720518,
                40.94391979100414
              ],
              [
                -4.122834054889484,
                40.94437151398474
              ],
              [
                -4.123722354307869,
                40.94525796583655
              ],
              [
                -4.123797390975459,
                40.944597375475034
              ],
              [
                -4.123722354307869,
                40.94438291826446
              ],
              [
                -4.123415649090745,
                40.94437151398474
              ],
              [
                -4.123415649090745,
                40.94391979100414
              ],
              [
                -4.124318621805962,
                40.94402999616579
              ],
              [
                -4.1252130230530994,
                40.94392591255943
              ],
              [
                -4.125809290551192,
                40.944165466230665
              ],
              [
                -4.126092537135594,
                40.944597375475034
              ],
              [
                -4.126092537135594,
                40.94504909845563
              ],
              [
                -4.125951337733309,
                40.94527495994593
              ],
              [
                -4.125511156802146,
                40.94558141399273
              ],
              [
                -4.124762659868817,
                40.94572668292652
              ],
              [
                -4.12485582469073,
                40.94640426739741
              ],
              [
                -4.125058584502068,
                40.94663012888771
              ],
              [
                -4.125106073550124,
                40.947307713358605
              ],
              [
                -4.124361302122559,
                40.9479852978295
              ],
              [
                -4.1246167555550075,
                40.94843798575809
              ],
              [
                -4.1252130230530994,
                40.94862761513314
              ],
              [
                -4.125410747076608,
                40.9482111593198
              ],
              [
                -4.125708015851271,
                40.9479852978295
              ],
              [
                -4.126405558049284,
                40.947939507419335
              ],
              [
                -4.12670369179833,
                40.94804298178278
              ],
              [
                -4.127001825547376,
                40.948463460126355
              ],
              [
                -4.1271491842362895,
                40.9482111593198
              ],
              [
                -4.127598093045468,
                40.94793430643
              ],
              [
                -4.1284924942926065,
                40.94786941279647
              ],
              [
                -4.129088761790698,
                40.94817998306407
              ],
              [
                -4.129274620207614,
                40.94843702081009
              ],
              [
                -4.129386895539745,
                40.94940458914303
              ],
              [
                -4.1294925744559485,
                40.94888874379068
              ],
              [
                -4.129983163037837,
                40.94841436021783
              ],
              [
                -4.130281296786883,
                40.948286639959655
              ],
              [
                -4.1311756980340215,
                40.94829613721558
              ],
              [
                -4.131734287861686,
                40.94866288230039
              ],
              [
                -4.13207009928116,
                40.94910895190235
              ],
              [
                -4.132666366779252,
                40.949327567353755
              ],
              [
                -4.133262634277344,
                40.94977272488821
              ],
              [
                -4.133262634277344,
                40.92246294942589
              ],
              [
                -4.129001339042018,
                40.92246294942589
              ]
            ],
            [
              [
                -4.132964500528297,
                40.94542441101611
              ],
              [
                -4.132964500528297,
                40.94601563007165
              ],
              [
                -4.132368233030205,
                40.94651922470418
              ],
              [
                -4.131473831783067,
                40.946562824656525
              ],
              [
                -4.13109975445677,
                40.94640426739741
              ],
              [
                -4.130705284309755,
                40.94595254441682
              ],
              [
                -4.130811247773643,
                40.94527495994593
              ],
              [
                -4.131473831783067,
                40.94485814489852
              ],
              [
                -4.132368233030205,
                40.9449019327865
              ],
              [
                -4.132964500528297,
                40.94542441101611
              ]
            ],
            [
              [
                -4.120442883068363,
                40.92741208368227
              ],
              [
                -4.120453027799609,
                40.927883625193026
              ],
              [
                -4.12028210094138,
                40.928335348173626
              ],
              [
                -4.120696220278171,
                40.92878707115422
              ],
              [
                -4.12060348494907,
                40.92946465562511
              ],
              [
                -4.120144749319317,
                40.929821214527124
              ],
              [
                -4.119250348072178,
                40.92991127296475
              ],
              [
                -4.118506880827035,
                40.92946465562511
              ],
              [
                -4.118414278437205,
                40.92923879413481
              ],
              [
                -4.118496240023693,
                40.928335348173626
              ],
              [
                -4.117461545577902,
                40.92790916861795
              ],
              [
                -4.11686527807981,
                40.92843833544044
              ],
              [
                -4.115672743083626,
                40.92839300894342
              ],
              [
                -4.115124416996265,
                40.927883625193026
              ],
              [
                -4.115161808639964,
                40.92720604072214
              ],
              [
                -4.1141820743383954,
                40.92709673385863
              ],
              [
                -4.113883940589349,
                40.92693114282151
              ],
              [
                -4.113573383663213,
                40.92652845625125
              ],
              [
                -4.113573383663213,
                40.92607673327065
              ],
              [
                -4.1141820743383954,
                40.92549847974886
              ],
              [
                -4.115076475585533,
                40.92543913967621
              ],
              [
                -4.11575479085523,
                40.925850871780355
              ],
              [
                -4.115970876832671,
                40.926714516914934
              ],
              [
                -4.116567144330764,
                40.926742956298185
              ],
              [
                -4.117163411828856,
                40.92703231392429
              ],
              [
                -4.118027833783448,
                40.92652845625125
              ],
              [
                -4.118654080574086,
                40.92651878921808
              ],
              [
                -4.11984661557027,
                40.926866681760536
              ],
              [
                -4.120442883068363,
                40.92741208368227
              ]
            ],
            [
              [
                -4.113883940589349,
                40.94978819308263
              ],
              [
                -4.113788975294375,
                40.95046977422277
              ],
              [
                -4.112989539342211,
                40.95109208733783
              ],
              [
                -4.112095138095072,
                40.95109204893302
              ],
              [
                -4.111501171314863,
                40.95069563571307
              ],
              [
                -4.111395999023361,
                40.950018051242175
              ],
              [
                -4.111966724956074,
                40.94934046677128
              ],
              [
                -4.111200736847934,
                40.94912013319148
              ],
              [
                -4.110757713118363,
                40.94866288230039
              ],
              [
                -4.110826315257957,
                40.9479852978295
              ],
              [
                -4.111043894975904,
                40.9477594363392
              ],
              [
                -4.110855170455553,
                40.947307713358605
              ],
              [
                -4.1109030217330345,
                40.94640426739741
              ],
              [
                -4.110301121613545,
                40.94572668292652
              ],
              [
                -4.110257428716755,
                40.94527495994593
              ],
              [
                -4.10946191815763,
                40.944597375475034
              ],
              [
                -4.109511834382665,
                40.94391979100414
              ],
              [
                -4.109711752078408,
                40.94369392951385
              ],
              [
                -4.1103063356007965,
                40.943436944011616
              ],
              [
                -4.111200736847934,
                40.943535403099666
              ],
              [
                -4.111661268796634,
                40.94391979100414
              ],
              [
                -4.1118229100731085,
                40.944597375475034
              ],
              [
                -4.112286087287918,
                40.944823236965334
              ],
              [
                -4.112947319679913,
                40.94550082143623
              ],
              [
                -4.112986672060437,
                40.94617840590712
              ],
              [
                -4.112859319095069,
                40.94640426739741
              ],
              [
                -4.113168166665309,
                40.94663012888771
              ],
              [
                -4.113229310024378,
                40.947307713358605
              ],
              [
                -4.112848283032277,
                40.9477594363392
              ],
              [
                -4.113088187695968,
                40.9482111593198
              ],
              [
                -4.113088187695968,
                40.94866288230039
              ],
              [
                -4.112608235626073,
                40.94911460528098
              ],
              [
                -4.113476284443718,
                40.94934046677128
              ],
              [
                -4.113883940589349,
                40.94978819308263
              ]
            ],
            [
              [
                -4.112393271844119,
                40.92300433291982
              ],
              [
                -4.112393271844119,
                40.92372955326561
              ],
              [
                -4.11190646227262,
                40.92426984134827
              ],
              [
                -4.111674213523576,
                40.92494742581916
              ],
              [
                -4.111200736847934,
                40.92522951544216
              ],
              [
                -4.1103063356007965,
                40.92524411006421
              ],
              [
                -4.11000820185175,
                40.92511683833479
              ],
              [
                -4.109617016867095,
                40.92472156432886
              ],
              [
                -4.109516317671369,
                40.92426984134827
              ],
              [
                -4.109113800604612,
                40.92400673585901
              ],
              [
                -4.108882796874876,
                40.92359225687738
              ],
              [
                -4.108882796874876,
                40.923140533896785
              ],
              [
                -4.10903196131524,
                40.922914672406485
              ],
              [
                -4.109710068102704,
                40.92255194017736
              ],
              [
                -4.110604469349842,
                40.92264040424955
              ],
              [
                -4.110902603098888,
                40.92252362111741
              ],
              [
                -4.111797004346027,
                40.92254692607277
              ],
              [
                -4.112393271844119,
                40.92300433291982
              ]
            ],
            [
              [
                -4.112095138095072,
                40.92965468755159
              ],
              [
                -4.112274889501569,
                40.929916378605704
              ],
              [
                -4.112274889501569,
                40.9303681015863
              ],
              [
                -4.111983965816934,
                40.930819824566896
              ],
              [
                -4.11149887059698,
                40.93105427275041
              ],
              [
                -4.111623732535653,
                40.93217499350868
              ],
              [
                -4.111449213609484,
                40.932400854998974
              ],
              [
                -4.110902603098888,
                40.932693250764196
              ],
              [
                -4.11000820185175,
                40.932654286333474
              ],
              [
                -4.109590154968678,
                40.932400854998974
              ],
              [
                -4.109412984246183,
                40.93217499350868
              ],
              [
                -4.109419945394247,
                40.93149740903779
              ],
              [
                -4.110293708201619,
                40.930819824566896
              ],
              [
                -4.109552646162289,
                40.930142240096
              ],
              [
                -4.109480849209608,
                40.92946465562511
              ],
              [
                -4.109626739281545,
                40.92923879413481
              ],
              [
                -4.1103063356007965,
                40.928870032592684
              ],
              [
                -4.110902603098888,
                40.928870032592684
              ],
              [
                -4.111308361036978,
                40.92901293264452
              ],
              [
                -4.112095138095072,
                40.92965468755159
              ]
            ],
            [
              [
                -4.110902603098888,
                40.92623157493436
              ],
              [
                -4.111166000815302,
                40.92652845625125
              ],
              [
                -4.111163303196064,
                40.92720604072214
              ],
              [
                -4.110621347513616,
                40.92765776370273
              ],
              [
                -4.109710068102704,
                40.92772323323396
              ],
              [
                -4.108963000258445,
                40.92720604072214
              ],
              [
                -4.10896032943451,
                40.92652845625125
              ],
              [
                -4.109411934353658,
                40.92611345935067
              ],
              [
                -4.1103063356007965,
                40.926006393676026
              ],
              [
                -4.110902603098888,
                40.92623157493436
              ]
            ],
            [
              [
                -4.107623131859381,
                40.930439400467954
              ],
              [
                -4.107809999773282,
                40.930819824566896
              ],
              [
                -4.107809999773282,
                40.93127154754749
              ],
              [
                -4.10765923834103,
                40.93149740903779
              ],
              [
                -4.106766909607541,
                40.93194913201838
              ],
              [
                -4.1063499032202335,
                40.932626716489274
              ],
              [
                -4.105554029856077,
                40.93307843946987
              ],
              [
                -4.104045526870829,
                40.933068096004895
              ],
              [
                -4.103449259372736,
                40.93276391726346
              ],
              [
                -4.102960353036571,
                40.93217499350868
              ],
              [
                -4.102886217831286,
                40.93149740903779
              ],
              [
                -4.103069655825328,
                40.93104568605719
              ],
              [
                -4.103449259372736,
                40.930654808199485
              ],
              [
                -4.104045526870829,
                40.930351096396585
              ],
              [
                -4.105834329365105,
                40.93035467838313
              ],
              [
                -4.106430596863198,
                40.93012347657507
              ],
              [
                -4.1070268643612895,
                40.93012347657507
              ],
              [
                -4.107623131859381,
                40.930439400467954
              ]
            ],
            [
              [
                -4.106430596863198,
                40.93846688646212
              ],
              [
                -4.106578185152247,
                40.9387249767273
              ],
              [
                -4.106578185152247,
                40.9391766997079
              ],
              [
                -4.106132463114151,
                40.9392353037734
              ],
              [
                -4.105536195616059,
                40.93958138277402
              ],
              [
                -4.104641794368921,
                40.939626955040254
              ],
              [
                -4.103950426889594,
                40.9389508382176
              ],
              [
                -4.103950426889594,
                40.93849911523701
              ],
              [
                -4.1041301855803525,
                40.93827325374671
              ],
              [
                -4.103970337949591,
                40.93804739225641
              ],
              [
                -4.103917584423863,
                40.93736980778552
              ],
              [
                -4.104641794368921,
                40.93681424569458
              ],
              [
                -4.105536195616059,
                40.93684246731468
              ],
              [
                -4.106169819765993,
                40.93736980778552
              ],
              [
                -4.106117313365992,
                40.93804739225641
              ],
              [
                -4.106430596863198,
                40.93846688646212
              ]
            ],
            [
              [
                -4.106430596863198,
                40.945501154871216
              ],
              [
                -4.106484963842323,
                40.94617840590712
              ],
              [
                -4.105775200323991,
                40.94617840590712
              ],
              [
                -4.105834329365105,
                40.945501154871216
              ],
              [
                -4.106430596863198,
                40.945501154871216
              ]
            ],
            [
              [
                -4.104939928117966,
                40.944880685683856
              ],
              [
                -4.104954689078726,
                40.94595254441682
              ],
              [
                -4.104641794368921,
                40.94639670845264
              ],
              [
                -4.104045526870829,
                40.94663205197016
              ],
              [
                -4.1031511256236906,
                40.9465913287863
              ],
              [
                -4.102653710974873,
                40.94595254441682
              ],
              [
                -4.1028074143910125,
                40.944823236965334
              ],
              [
                -4.10206043605804,
                40.94437151398474
              ],
              [
                -4.101937459880167,
                40.94369392951385
              ],
              [
                -4.102554858125599,
                40.94311990648465
              ],
              [
                -4.103449259372736,
                40.94306537948163
              ],
              [
                -4.1037473931217825,
                40.94317473739284
              ],
              [
                -4.104240058662431,
                40.94369392951385
              ],
              [
                -4.104181089591678,
                40.94437151398474
              ],
              [
                -4.104939928117966,
                40.944880685683856
              ]
            ],
            [
              [
                -4.104641794368921,
                40.93563768966694
              ],
              [
                -4.104722954107249,
                40.93624050033403
              ],
              [
                -4.104343660619874,
                40.93681222881304
              ],
              [
                -4.1031511256236906,
                40.93686320156265
              ],
              [
                -4.102783485580162,
                40.93669222331463
              ],
              [
                -4.1024256067409866,
                40.93624050033403
              ],
              [
                -4.102551739491368,
                40.93556291586314
              ],
              [
                -4.1031511256236906,
                40.93518371390463
              ],
              [
                -4.104045526870829,
                40.935198799938064
              ],
              [
                -4.104641794368921,
                40.93563768966694
              ]
            ],
            [
              [
                -4.103449259372736,
                40.93830048536247
              ],
              [
                -4.103647974708365,
                40.93849911523701
              ],
              [
                -4.103647974708365,
                40.9389508382176
              ],
              [
                -4.103449259372736,
                40.939163882700335
              ],
              [
                -4.102554858125599,
                40.939206997697354
              ],
              [
                -4.102278792408721,
                40.9389508382176
              ],
              [
                -4.102278792408721,
                40.93849911523701
              ],
              [
                -4.102554858125599,
                40.93825566767304
              ],
              [
                -4.103449259372736,
                40.93830048536247
              ]
            ],
            [
              [
                -4.103449259372736,
                40.946921974620444
              ],
              [
                -4.103550503697283,
                40.947081851868305
              ],
              [
                -4.103493986781053,
                40.9477594363392
              ],
              [
                -4.102852991874644,
                40.94820674392043
              ],
              [
                -4.101958590627506,
                40.94819612480431
              ],
              [
                -4.1013507857099665,
                40.9477594363392
              ],
              [
                -4.101294678912516,
                40.947081851868305
              ],
              [
                -4.101958590627506,
                40.94654119347209
              ],
              [
                -4.102852991874644,
                40.946483806681535
              ],
              [
                -4.103449259372736,
                40.946921974620444
              ]
            ],
            [
              [
                -4.10166045687846,
                40.92891710582575
              ],
              [
                -4.101775651198969,
                40.9303681015863
              ],
              [
                -4.101333707064885,
                40.930819824566896
              ],
              [
                -4.101288518319962,
                40.93104568605719
              ],
              [
                -4.101428507567131,
                40.93194913201838
              ],
              [
                -4.101076555434173,
                40.93398188543106
              ],
              [
                -4.10077751181405,
                40.93443360841165
              ],
              [
                -4.1004679218822755,
                40.93461371906762
              ],
              [
                -4.099573520635137,
                40.93468657955434
              ],
              [
                -4.099034700280593,
                40.93443360841165
              ],
              [
                -4.098779845232249,
                40.93398188543106
              ],
              [
                -4.098894556683433,
                40.93330430096017
              ],
              [
                -4.098679119388,
                40.933114642873754
              ],
              [
                -4.097784718140861,
                40.93292154156985
              ],
              [
                -4.0971884506427685,
                40.93222441835698
              ],
              [
                -4.0965921831446765,
                40.932518939308956
              ],
              [
                -4.095995915646585,
                40.932518939308956
              ],
              [
                -4.095101514399446,
                40.932119724665796
              ],
              [
                -4.094718611712514,
                40.93172327052808
              ],
              [
                -4.094751285160993,
                40.93104568605719
              ],
              [
                -4.09542436022197,
                40.9303681015863
              ],
              [
                -4.096224574963499,
                40.929916378605704
              ],
              [
                -4.09644939891809,
                40.92946465562511
              ],
              [
                -4.096890316893723,
                40.92908633552727
              ],
              [
                -4.097035601375088,
                40.928335348173626
              ],
              [
                -4.097486584391815,
                40.92799350077644
              ],
              [
                -4.098380985638953,
                40.92790651288327
              ],
              [
                -4.098679119388,
                40.92800347898007
              ],
              [
                -4.099573520635137,
                40.927296158760555
              ],
              [
                -4.1004679218822755,
                40.9273039095946
              ],
              [
                -4.101017509792009,
                40.92765776370273
              ],
              [
                -4.101167464826733,
                40.928335348173626
              ],
              [
                -4.10166045687846,
                40.92891710582575
              ]
            ],
            [
              [
                -4.10016978813323,
                40.94853929579561
              ],
              [
                -4.100450872877879,
                40.94888874379068
              ],
              [
                -4.100450872877879,
                40.94934046677128
              ],
              [
                -4.10016978813323,
                40.949787585385614
              ],
              [
                -4.099573520635137,
                40.95002305037917
              ],
              [
                -4.098679119388,
                40.94991824530966
              ],
              [
                -4.098255427241786,
                40.949566328261575
              ],
              [
                -4.098182361465521,
                40.94888874379068
              ],
              [
                -4.098315331868784,
                40.94866288230039
              ],
              [
                -4.097681217150097,
                40.9482111593198
              ],
              [
                -4.0975539752354315,
                40.947533574848904
              ],
              [
                -4.097920707511319,
                40.947081851868305
              ],
              [
                -4.098380985638953,
                40.94688853084383
              ],
              [
                -4.099275386886092,
                40.94696670024771
              ],
              [
                -4.099735143399285,
                40.947307713358605
              ],
              [
                -4.099854369066736,
                40.9479852978295
              ],
              [
                -4.099726335930245,
                40.9482111593198
              ],
              [
                -4.10016978813323,
                40.94853929579561
              ]
            ],
            [
              [
                -4.0965921831446765,
                40.92815688359333
              ],
              [
                -4.096791310351278,
                40.92878707115422
              ],
              [
                -4.095995915646585,
                40.92935212130682
              ],
              [
                -4.095101514399446,
                40.92937007541522
              ],
              [
                -4.094790189826559,
                40.92923879413481
              ],
              [
                -4.094380360619074,
                40.92878707115422
              ],
              [
                -4.094467959804111,
                40.928109486683326
              ],
              [
                -4.095101514399446,
                40.927687687018086
              ],
              [
                -4.095995915646585,
                40.92770578755131
              ],
              [
                -4.0965921831446765,
                40.92815688359333
              ]
            ],
            [
              [
                -4.094803380650401,
                40.926032166340455
              ],
              [
                -4.095044050285575,
                40.92630259476095
              ],
              [
                -4.095061400396812,
                40.92698017923184
              ],
              [
                -4.094549243818004,
                40.92743190221243
              ],
              [
                -4.093610845654216,
                40.92751830071657
              ],
              [
                -4.093014578156124,
                40.92721140500842
              ],
              [
                -4.0928417975436755,
                40.92698017923184
              ],
              [
                -4.092859011454197,
                40.92630259476095
              ],
              [
                -4.0933127119051695,
                40.92590005591944
              ],
              [
                -4.094207113152308,
                40.92579575292833
              ],
              [
                -4.094803380650401,
                40.926032166340455
              ]
            ],
            [
              [
                -4.092418310658032,
                40.931790244329136
              ],
              [
                -4.092705434548029,
                40.93217499350868
              ],
              [
                -4.092705434548029,
                40.932626716489274
              ],
              [
                -4.092120176908986,
                40.93319339409479
              ],
              [
                -4.091225775661847,
                40.933268007620256
              ],
              [
                -4.0907750782591075,
                40.93307843946987
              ],
              [
                -4.090403783249802,
                40.932626716489274
              ],
              [
                -4.090403783249802,
                40.93217499350868
              ],
              [
                -4.090927641912802,
                40.93164147652907
              ],
              [
                -4.091822043159939,
                40.931540036794296
              ],
              [
                -4.092418310658032,
                40.931790244329136
              ]
            ]
          ],
          [
            [
              [
                -4.133051199811464,
                40.9563421729705
              ],
              [
                -4.132666366779252,
                40.95652715079485
              ],
              [
                -4.1317719655321135,
                40.956514649838475
              ],
              [
                -4.131473831783067,
                40.956375718028156
              ],
              [
                -4.131079123596964,
                40.9558904499899
              ],
              [
                -4.1310879118406305,
                40.95521286551901
              ],
              [
                -4.131231746992783,
                40.954987004028716
              ],
              [
                -4.130579430535929,
                40.95492777639809
              ],
              [
                -4.129983163037837,
                40.95459525599076
              ],
              [
                -4.129771991457829,
                40.954761142538416
              ],
              [
                -4.1302304121492694,
                40.95543872700931
              ],
              [
                -4.130095230682497,
                40.9561163114802
              ],
              [
                -4.129386895539745,
                40.956511453269755
              ],
              [
                -4.1284924942926065,
                40.956419265324044
              ],
              [
                -4.1280780261838155,
                40.9561163114802
              ],
              [
                -4.127895968428714,
                40.95566458849961
              ],
              [
                -4.127299959296423,
                40.955512843263826
              ],
              [
                -4.126919587084737,
                40.95521286551901
              ],
              [
                -4.126794455993862,
                40.95453528104812
              ],
              [
                -4.127145571758244,
                40.95408355806752
              ],
              [
                -4.126405558049284,
                40.95340079495376
              ],
              [
                -4.125809290551192,
                40.953675781640854
              ],
              [
                -4.1252130230530994,
                40.953675781640854
              ],
              [
                -4.1246167555550075,
                40.95339641469202
              ],
              [
                -4.124393363619785,
                40.95295425061604
              ],
              [
                -4.124508129972189,
                40.952276666145146
              ],
              [
                -4.123722354307869,
                40.952094158632654
              ],
              [
                -4.123126086809777,
                40.95227622428643
              ],
              [
                -4.121635418064547,
                40.95210497991149
              ],
              [
                -4.121039150566455,
                40.951801890451755
              ],
              [
                -4.120144749319317,
                40.951680810824705
              ],
              [
                -4.118654080574086,
                40.95104419938323
              ],
              [
                -4.1181640877751535,
                40.95114735869366
              ],
              [
                -4.11759802546791,
                40.95182494316455
              ],
              [
                -4.11835594682504,
                40.952157138714945
              ],
              [
                -4.11984661557027,
                40.95205937286935
              ],
              [
                -4.120553115620493,
                40.952276666145146
              ],
              [
                -4.120531925043634,
                40.95318011210634
              ],
              [
                -4.11984661557027,
                40.95398101180969
              ],
              [
                -4.119250348072178,
                40.9542075577804
              ],
              [
                -4.118654080574086,
                40.9542075577804
              ],
              [
                -4.1164691840229635,
                40.95340597359663
              ],
              [
                -4.115970876832671,
                40.952999909475416
              ],
              [
                -4.115085662034483,
                40.95385769657723
              ],
              [
                -4.1150315667500665,
                40.95408355806752
              ],
              [
                -4.116269010581718,
                40.95425797876897
              ],
              [
                -4.117163411828856,
                40.9546141656456
              ],
              [
                -4.117461545577902,
                40.954460273894895
              ],
              [
                -4.11835594682504,
                40.95442388139779
              ],
              [
                -4.118952214323132,
                40.954768803204765
              ],
              [
                -4.119095392854327,
                40.954987004028716
              ],
              [
                -4.118952214323132,
                40.95577017621963
              ],
              [
                -4.11835594682504,
                40.95612325065174
              ],
              [
                -4.117461545577902,
                40.95608652693352
              ],
              [
                -4.117172326259877,
                40.956568034460794
              ],
              [
                -4.116857627886811,
                40.956793895951094
              ],
              [
                -4.133262634277344,
                40.956793895951094
              ],
              [
                -4.133262634277344,
                40.95616154342857
              ],
              [
                -4.133051199811464,
                40.9563421729705
              ]
            ],
            [
              [
                -4.122827953060731,
                40.95512118485555
              ],
              [
                -4.122811855374258,
                40.9558904499899
              ],
              [
                -4.122231685562639,
                40.956307972028156
              ],
              [
                -4.1213372843155005,
                40.95633076304636
              ],
              [
                -4.1209040001328,
                40.9561163114802
              ],
              [
                -4.120614892768878,
                40.95566458849961
              ],
              [
                -4.120741016817409,
                40.95501118092627
              ],
              [
                -4.1213372843155005,
                40.954643740840645
              ],
              [
                -4.122231685562639,
                40.95466626218134
              ],
              [
                -4.122827953060731,
                40.95512118485555
              ]
            ]
          ],
          [
            [
              [
                -4.130281296786883,
                40.94996087537653
              ],
              [
                -4.1300309843486955,
                40.950018051242175
              ],
              [
                -4.130625308292659,
                40.95024391273247
              ],
              [
                -4.130580897727743,
                40.950018051242175
              ],
              [
                -4.130281296786883,
                40.94996087537653
              ]
            ]
          ],
          [
            [
              [
                -4.119197471715801,
                40.94911460528098
              ],
              [
                -4.119250348072178,
                40.94916718767419
              ],
              [
                -4.119312230285498,
                40.94911460528098
              ],
              [
                -4.119250348072178,
                40.949068032576676
              ],
              [
                -4.119197471715801,
                40.94911460528098
              ]
            ]
          ],
          [
            [
              [
                -4.11622485288037,
                40.94640426739741
              ],
              [
                -4.116269010581718,
                40.94642191632512
              ],
              [
                -4.116275338133839,
                40.94640426739741
              ],
              [
                -4.116269010581718,
                40.94637298102043
              ],
              [
                -4.11622485288037,
                40.94640426739741
              ]
            ]
          ],
          [
            [
              [
                -4.115150765005287,
                40.956568034460794
              ],
              [
                -4.114452040861037,
                40.9563421729705
              ],
              [
                -4.113980799678861,
                40.95566458849961
              ],
              [
                -4.113585806840303,
                40.95555343775894
              ],
              [
                -4.113287673091257,
                40.95567251912159
              ],
              [
                -4.112393271844119,
                40.95563780280865
              ],
              [
                -4.111040753008885,
                40.9561163114802
              ],
              [
                -4.1112327711023315,
                40.9563421729705
              ],
              [
                -4.111319070976208,
                40.956793895951094
              ],
              [
                -4.115567547420242,
                40.956793895951094
              ],
              [
                -4.115150765005287,
                40.956568034460794
              ]
            ]
          ],
          [
            [
              [
                -4.112308268126918,
                40.95295425061604
              ],
              [
                -4.112095138095072,
                40.952802692564354
              ],
              [
                -4.111978621453433,
                40.95295425061604
              ],
              [
                -4.1119023231585325,
                40.95318011210634
              ],
              [
                -4.112095138095072,
                40.95339889142724
              ],
              [
                -4.112421335504722,
                40.95340597359663
              ],
              [
                -4.112308268126918,
                40.95295425061604
              ]
            ]
          ],
          [
            [
              [
                -4.110895427656297,
                40.93624050033403
              ],
              [
                -4.1103063356007965,
                40.93558348926906
              ],
              [
                -4.11000820185175,
                40.93561947997023
              ],
              [
                -4.109816120669635,
                40.93646636182433
              ],
              [
                -4.110412159520748,
                40.93691808480492
              ],
              [
                -4.110967886534078,
                40.93646636182433
              ],
              [
                -4.110895427656297,
                40.93624050033403
              ]
            ]
          ],
          [
            [
              [
                -4.1101536580016615,
                40.95543872700931
              ],
              [
                -4.11000820185175,
                40.95498995009024
              ],
              [
                -4.109113800604612,
                40.95552885397877
              ],
              [
                -4.10851753310652,
                40.955582411953806
              ],
              [
                -4.10842710229396,
                40.95566458849961
              ],
              [
                -4.1086052718688535,
                40.9558904499899
              ],
              [
                -4.108621975878597,
                40.956568034460794
              ],
              [
                -4.108429123124055,
                40.956793895951094
              ],
              [
                -4.108964148265695,
                40.956793895951094
              ],
              [
                -4.109029065732843,
                40.9563421729705
              ],
              [
                -4.109242588637852,
                40.9561163114802
              ],
              [
                -4.1103063356007965,
                40.955736116632224
              ],
              [
                -4.1101536580016615,
                40.95543872700931
              ]
            ]
          ],
          [
            [
              [
                -4.10851753310652,
                40.934906034009906
              ],
              [
                -4.108111861773754,
                40.934885331392245
              ],
              [
                -4.10851753310652,
                40.93516277344577
              ],
              [
                -4.108924020871266,
                40.935111192882545
              ],
              [
                -4.108815666855565,
                40.93491370406367
              ],
              [
                -4.10851753310652,
                40.934906034009906
              ]
            ]
          ],
          [
            [
              [
                -4.098364763684112,
                40.930819824566896
              ],
              [
                -4.098248439017002,
                40.93104568605719
              ],
              [
                -4.097689197736262,
                40.93127154754749
              ],
              [
                -4.097742743930134,
                40.93149740903779
              ],
              [
                -4.098417605335907,
                40.93127154754749
              ],
              [
                -4.098364763684112,
                40.930819824566896
              ]
            ]
          ],
          [
            [
              [
                -4.097460606967585,
                40.93172327052808
              ],
              [
                -4.097486584391815,
                40.931771030250125
              ],
              [
                -4.097519968264877,
                40.93172327052808
              ],
              [
                -4.097486584391815,
                40.931671601752356
              ],
              [
                -4.097460606967585,
                40.93172327052808
              ]
            ]
          ]
        ]
      }
    }
  ]
}